{
"type": "FeatureCollection",
"name": "agricultural_services",
"crs": { "type": "name", "properties": { "name": "urn:ogc:def:crs:OGC:1.3:CRS84" } },
"features": [
{ "type": "Feature", "properties": { "id": "1", "landuse": "farmland" }, "geometry": { "type": "Point", "coordinates": [ 86.129616064772108, 55.313619402544241 ] } },
{ "type": "Feature", "properties": { "id": "2", "landuse": "farmland" }, "geometry": { "type": "Point", "coordinates": [ 86.125204161000525, 55.313942071165158 ] } },
{ "type": "Feature", "properties": { "id": "3", "landuse": "farmland" }, "geometry": { "type": "Point", "coordinates": [ 86.128039912467003, 55.309557316884678 ] } },
{ "type": "Feature", "properties": { "id": "4", "landuse": "farmland" }, "geometry": { "type": "Point", "coordinates": [ 86.198314191098802, 55.465590734559299 ] } },
{ "type": "Feature", "properties": { "id": "5", "landuse": "farmland" }, "geometry": { "type": "Point", "coordinates": [ 86.120805964667781, 55.443509644834251 ] } },
{ "type": "Feature", "properties": { "id": "6", "landuse": "farmland" }, "geometry": { "type": "Point", "coordinates": [ 86.133828421546269, 55.528667698153498 ] } },
{ "type": "Feature", "properties": { "id": "7", "landuse": "farmland" }, "geometry": { "type": "Point", "coordinates": [ 86.024522883533976, 55.285513647310395 ] } },
{ "type": "Feature", "properties": { "id": "8", "landuse": "farmland" }, "geometry": { "type": "Point", "coordinates": [ 86.082135052116385, 55.296332516675577 ] } },
{ "type": "Feature", "properties": { "id": "9", "landuse": "farmland" }, "geometry": { "type": "Point", "coordinates": [ 86.010754917210477, 55.285323782109273 ] } },
{ "type": "Feature", "properties": { "id": "10", "landuse": "farmland" }, "geometry": { "type": "Point", "coordinates": [ 86.129734244847853, 55.306511046519816 ] } },
{ "type": "Feature", "properties": { "id": "11", "landuse": "farmland" }, "geometry": { "type": "Point", "coordinates": [ 86.130696393569153, 55.292868446361702 ] } },
{ "type": "Feature", "properties": { "id": "12", "landuse": "farmland" }, "geometry": { "type": "Point", "coordinates": [ 86.128797429249275, 55.303202924320246 ] } },
{ "type": "Feature", "properties": { "id": "13", "landuse": "farmland" }, "geometry": { "type": "Point", "coordinates": [ 86.126171239378593, 55.300250607591181 ] } },
{ "type": "Feature", "properties": { "id": "14", "landuse": "farmland" }, "geometry": { "type": "Point", "coordinates": [ 86.124129752635952, 55.30261368673677 ] } },
{ "type": "Feature", "properties": { "id": "15", "landuse": "farmland" }, "geometry": { "type": "Point", "coordinates": [ 86.127373570317687, 55.301735555092648 ] } },
{ "type": "Feature", "properties": { "id": "16", "landuse": "farmland" }, "geometry": { "type": "Point", "coordinates": [ 86.129046436923431, 55.308050299261026 ] } },
{ "type": "Feature", "properties": { "id": "17", "landuse": "farmland" }, "geometry": { "type": "Point", "coordinates": [ 86.12898438856439, 55.299537132353876 ] } },
{ "type": "Feature", "properties": { "id": "18", "landuse": "farmland" }, "geometry": { "type": "Point", "coordinates": [ 86.127269504769217, 55.297627140422961 ] } },
{ "type": "Feature", "properties": { "id": "19", "landuse": "farmland" }, "geometry": { "type": "Point", "coordinates": [ 86.130338092710303, 55.304912033833276 ] } },
{ "type": "Feature", "properties": { "id": "20", "landuse": "farmland" }, "geometry": { "type": "Point", "coordinates": [ 86.132908768401052, 55.292449091959739 ] } },
{ "type": "Feature", "properties": { "id": "21", "landuse": "farmland" }, "geometry": { "type": "Point", "coordinates": [ 86.099101226817936, 55.275798193904215 ] } },
{ "type": "Feature", "properties": { "id": "22", "landuse": "farmland" }, "geometry": { "type": "Point", "coordinates": [ 86.122749903614661, 55.301191778366025 ] } },
{ "type": "Feature", "properties": { "id": "23", "landuse": "farmland" }, "geometry": { "type": "Point", "coordinates": [ 86.098957474763552, 55.280132096996454 ] } },
{ "type": "Feature", "properties": { "id": "24", "landuse": "farmland" }, "geometry": { "type": "Point", "coordinates": [ 86.157587024364361, 55.437577320653361 ] } },
{ "type": "Feature", "properties": { "id": "25", "landuse": "farmland" }, "geometry": { "type": "Point", "coordinates": [ 86.159231784036379, 55.398781499363608 ] } },
{ "type": "Feature", "properties": { "id": "26", "landuse": "farmland" }, "geometry": { "type": "Point", "coordinates": [ 86.163138243632403, 55.406427687795883 ] } },
{ "type": "Feature", "properties": { "id": "27", "landuse": "farmland" }, "geometry": { "type": "Point", "coordinates": [ 86.149827348900018, 55.399360339448492 ] } },
{ "type": "Feature", "properties": { "id": "28", "landuse": "farmland" }, "geometry": { "type": "Point", "coordinates": [ 86.151092554913589, 55.404828159529139 ] } },
{ "type": "Feature", "properties": { "id": "29", "landuse": "farmland" }, "geometry": { "type": "Point", "coordinates": [ 86.155919394735761, 55.434871769421548 ] } },
{ "type": "Feature", "properties": { "id": "30", "landuse": "farmland" }, "geometry": { "type": "Point", "coordinates": [ 86.168501990802383, 55.39218868164847 ] } },
{ "type": "Feature", "properties": { "id": "31", "landuse": "farmland" }, "geometry": { "type": "Point", "coordinates": [ 86.148508067375644, 55.387944079564534 ] } },
{ "type": "Feature", "properties": { "id": "32", "landuse": "farmland" }, "geometry": { "type": "Point", "coordinates": [ 86.174951112428872, 55.399727421597674 ] } },
{ "type": "Feature", "properties": { "id": "33", "landuse": "farmland" }, "geometry": { "type": "Point", "coordinates": [ 86.164312418262455, 55.384045544090831 ] } },
{ "type": "Feature", "properties": { "id": "34", "landuse": "farmland" }, "geometry": { "type": "Point", "coordinates": [ 86.157389945404574, 55.384209690178913 ] } },
{ "type": "Feature", "properties": { "id": "35", "landuse": "farmland" }, "geometry": { "type": "Point", "coordinates": [ 86.044941033983122, 55.451326176034506 ] } },
{ "type": "Feature", "properties": { "id": "36", "landuse": "farmland" }, "geometry": { "type": "Point", "coordinates": [ 86.057466900046677, 55.458651351296744 ] } },
{ "type": "Feature", "properties": { "id": "37", "landuse": "farmland" }, "geometry": { "type": "Point", "coordinates": [ 86.170159942022863, 55.416653767496776 ] } },
{ "type": "Feature", "properties": { "id": "38", "landuse": "farmland" }, "geometry": { "type": "Point", "coordinates": [ 86.158488894984444, 55.420920919186941 ] } },
{ "type": "Feature", "properties": { "id": "39", "landuse": "farmland" }, "geometry": { "type": "Point", "coordinates": [ 86.136347335390212, 55.441790922438663 ] } },
{ "type": "Feature", "properties": { "id": "40", "landuse": "farmland" }, "geometry": { "type": "Point", "coordinates": [ 86.156504234669526, 55.440047252740221 ] } },
{ "type": "Feature", "properties": { "id": "41", "landuse": "farmland" }, "geometry": { "type": "Point", "coordinates": [ 86.159473040833788, 55.450677977032534 ] } },
{ "type": "Feature", "properties": { "id": "42", "landuse": "farmland" }, "geometry": { "type": "Point", "coordinates": [ 86.025446136120379, 55.433676607240848 ] } },
{ "type": "Feature", "properties": { "id": "43", "landuse": "farmland" }, "geometry": { "type": "Point", "coordinates": [ 86.160966812817577, 55.425394206442313 ] } },
{ "type": "Feature", "properties": { "id": "44", "landuse": "farmland" }, "geometry": { "type": "Point", "coordinates": [ 86.198558387696906, 55.331744028185632 ] } },
{ "type": "Feature", "properties": { "id": "45", "landuse": "farmland" }, "geometry": { "type": "Point", "coordinates": [ 86.139461364280351, 55.297204906644119 ] } },
{ "type": "Feature", "properties": { "id": "46", "landuse": "farmland" }, "geometry": { "type": "Point", "coordinates": [ 86.121573081409977, 55.312796099306141 ] } },
{ "type": "Feature", "properties": { "id": "47", "landuse": "farmland" }, "geometry": { "type": "Point", "coordinates": [ 86.133576031792288, 55.297665946876101 ] } },
{ "type": "Feature", "properties": { "id": "48", "landuse": "farmland" }, "geometry": { "type": "Point", "coordinates": [ 86.154613984363039, 55.413887307928803 ] } },
{ "type": "Feature", "properties": { "id": "49", "landuse": "farmland" }, "geometry": { "type": "Point", "coordinates": [ 86.240208572666717, 55.390860845014871 ] } },
{ "type": "Feature", "properties": { "id": "50", "landuse": "farmland" }, "geometry": { "type": "Point", "coordinates": [ 86.128934849541054, 55.293939952807143 ] } },
{ "type": "Feature", "properties": { "id": "51", "landuse": "farmland" }, "geometry": { "type": "Point", "coordinates": [ 86.103527666142995, 55.277124302471151 ] } },
{ "type": "Feature", "properties": { "id": "52", "landuse": "farmland" }, "geometry": { "type": "Point", "coordinates": [ 86.132344804520741, 55.289663201357499 ] } },
{ "type": "Feature", "properties": { "id": "53", "landuse": "farmland" }, "geometry": { "type": "Point", "coordinates": [ 86.136279457569771, 55.291249741432054 ] } },
{ "type": "Feature", "properties": { "id": "54", "landuse": "farmland" }, "geometry": { "type": "Point", "coordinates": [ 86.134406056485375, 55.289822194204163 ] } },
{ "type": "Feature", "properties": { "id": "55", "landuse": "farmland" }, "geometry": { "type": "Point", "coordinates": [ 85.926619714488339, 55.334358069488161 ] } },
{ "type": "Feature", "properties": { "id": "56", "landuse": "farmland" }, "geometry": { "type": "Point", "coordinates": [ 86.208641324979453, 55.431598071311981 ] } },
{ "type": "Feature", "properties": { "id": "57", "landuse": "farmyard" }, "geometry": { "type": "Point", "coordinates": [ 86.209977316939927, 55.431947423385346 ] } },
{ "type": "Feature", "properties": { "id": "58", "landuse": "farmland" }, "geometry": { "type": "Point", "coordinates": [ 86.201510213281196, 55.424643565080238 ] } },
{ "type": "Feature", "properties": { "id": "59", "landuse": "farmland" }, "geometry": { "type": "Point", "coordinates": [ 85.99929115582141, 55.273464060085253 ] } },
{ "type": "Feature", "properties": { "id": "60", "landuse": "farmland" }, "geometry": { "type": "Point", "coordinates": [ 85.99210520753428, 55.266606549073877 ] } }
]
}
