{
"type": "FeatureCollection",
"name": "hospital",
"crs": { "type": "name", "properties": { "name": "urn:ogc:def:crs:OGC:1.3:CRS84" } },
"features": [
{ "type": "Feature", "properties": { "Наименование": "Кемеровская городская клиническая больница №11", "Описание": "отделение гнойной хирургии", "Рубрики": "Больницы", "Адрес": "Новогодняя, 1", "Комментарий к адресу": null, "Почтовый индекс": 650903, "Микрорайон": "Кедровка м-н", "Район": "Рудничный район", "Город": "Кемерово", "Округ": "Кемеровский городской округ", "Регион": "Кемеровская область — Кузбасс", "Страна": "Россия", "Часы работы": "Пн: 00:00-24:00; Вт: 00:00-24:00; Ср: 00:00-24:00; Чт: 00:00-24:00; Пт: 00:00-24:00; Сб: 00:00-24:00; Вс: 00:00-24:00", "Часовой пояс": "+07:00", "Рейтинг": 1.0, "Количество отзывов": 14, "Телефон 1": "83842692430 (отделение гнойной хирургии)", "Телефон 2": "83842647512 (приемное отделение терапевтического корпуса)", "Телефон 3": "83842648800 (приемное отделение хирургического корпуса)", "E-mail": null, "Веб-сайт 1": "http://www.kemgkb11.ru", "Веб-сайт 2": null, "ВКонтакте": "https://vk.com/public215839845", "WhatsApp": null, "Telegram": "https://t.me/kemgkb11", "Широта": 55.519002, "Долгота": 86.106147, "2GIS URL": "https://2gis.com/firm/70000001070101308" }, "geometry": { "type": "Point", "coordinates": [ 86.106147, 55.519002 ] } },
{ "type": "Feature", "properties": { "Наименование": "Кемеровская городская клиническая больница №11", "Описание": "приемное отделение", "Рубрики": "Больницы", "Адрес": "Вахрушева, 4а", "Комментарий к адресу": "1 этаж", "Почтовый индекс": 650014, "Микрорайон": null, "Район": "Рудничный район", "Город": "Кемерово", "Округ": "Кемеровский городской округ", "Регион": "Кемеровская область — Кузбасс", "Страна": "Россия", "Часы работы": "Пн: 00:00-24:00; Вт: 00:00-24:00; Ср: 00:00-24:00; Чт: 00:00-24:00; Пт: 00:00-24:00; Сб: 00:00-24:00; Вс: 00:00-24:00", "Часовой пояс": "+07:00", "Рейтинг": 2.7, "Количество отзывов": 75, "Телефон 1": "83842648783 (приемная главного врача )", "Телефон 2": "83842647512 (приемное отделение терапевтического корпуса)", "Телефон 3": "83842648800 (приемное отделение хирургического корпуса)", "E-mail": null, "Веб-сайт 1": "http://www.kemgkb11.ru", "Веб-сайт 2": null, "ВКонтакте": "https://vk.com/public215839845", "WhatsApp": null, "Telegram": "https://t.me/kemgkb11", "Широта": 55.437914, "Долгота": 86.143216, "2GIS URL": "https://2gis.com/firm/704670989605686" }, "geometry": { "type": "Point", "coordinates": [ 86.143216, 55.437914 ] } },
{ "type": "Feature", "properties": { "Наименование": "Кемеровская клиническая районная больница им. Б.В. Батиевского", "Описание": "больница", "Рубрики": "Больницы", "Адрес": "проспект Шахтёров, 113", "Комментарий к адресу": null, "Почтовый индекс": 650002, "Микрорайон": "Радуга м-н", "Район": "Рудничный район", "Город": "Кемерово", "Округ": "Кемеровский городской округ", "Регион": "Кемеровская область — Кузбасс", "Страна": "Россия", "Часы работы": "Пн: 08:00-17:00; Вт: 08:00-17:00; Ср: 08:00-17:00; Чт: 08:00-17:00; Пт: 08:00-17:00", "Часовой пояс": "+07:00", "Рейтинг": 2.5, "Количество отзывов": 75, "Телефон 1": "83842645687 (отдел кадров)", "Телефон 2": "83842648567 (зав. поликлиникой)", "Телефон 3": null, "E-mail": null, "Веб-сайт 1": "http://crbkem.ru", "Веб-сайт 2": null, "ВКонтакте": "https://vk.com/public205485190", "WhatsApp": null, "Telegram": null, "Широта": 55.410809, "Долгота": 86.123311, "2GIS URL": "https://2gis.com/firm/704215722754802" }, "geometry": { "type": "Point", "coordinates": [ 86.123311, 55.410809 ] } },
{ "type": "Feature", "properties": { "Наименование": "Кемеровская городская детская клиническая больница №2", "Описание": "отделение реабилитации", "Рубрики": "Больницы", "Адрес": "улица Терешковой, 7", "Комментарий к адресу": null, "Почтовый индекс": 650002, "Микрорайон": null, "Район": "Рудничный район", "Город": "Кемерово", "Округ": "Кемеровский городской округ", "Регион": "Кемеровская область — Кузбасс", "Страна": "Россия", "Часы работы": "Пн: 00:00-24:00; Вт: 00:00-24:00; Ср: 00:00-24:00; Чт: 00:00-24:00; Пт: 00:00-24:00; Сб: 00:00-24:00; Вс: 00:00-24:00", "Часовой пояс": "+07:00", "Рейтинг": 3.3, "Количество отзывов": 7, "Телефон 1": "83842340254", "Телефон 2": "83842641424 (отделение реабилитации)", "Телефон 3": null, "E-mail": null, "Веб-сайт 1": "http://rutube.ru/channel/24759155/", "Веб-сайт 2": "http://dkb2.ru", "ВКонтакте": "https://vk.com/kgdkb_2", "WhatsApp": null, "Telegram": "https://t.me/detskaiabolnicakemerovo", "Широта": 55.386349, "Долгота": 86.114137, "2GIS URL": "https://2gis.com/firm/704670989591910" }, "geometry": { "type": "Point", "coordinates": [ 86.114137, 55.386349 ] } },
{ "type": "Feature", "properties": { "Наименование": "Кемеровская клиническая районная больница им. Б.В. Батиевского", "Описание": "педиатрическое отделение", "Рубрики": "Больницы", "Адрес": "проспект Шахтёров, 113 к2", "Комментарий к адресу": "1 этаж", "Почтовый индекс": 650002, "Микрорайон": "Радуга м-н", "Район": "Рудничный район", "Город": "Кемерово", "Округ": "Кемеровский городской округ", "Регион": "Кемеровская область — Кузбасс", "Страна": "Россия", "Часы работы": "Пн: 08:00-14:00; Вт: 08:00-14:00; Ср: 08:00-14:00; Чт: 08:00-14:00; Пт: 08:00-14:00; Сб: 08:00-13:00", "Часовой пояс": "+07:00", "Рейтинг": 2.8, "Количество отзывов": 5, "Телефон 1": "83842645872 (педиатрическое отделение)", "Телефон 2": null, "Телефон 3": null, "E-mail": null, "Веб-сайт 1": "http://crbkem.ru", "Веб-сайт 2": null, "ВКонтакте": "https://vk.com/public205485190", "WhatsApp": null, "Telegram": null, "Широта": 55.409674, "Долгота": 86.125071, "2GIS URL": "https://2gis.com/firm/704670989836904" }, "geometry": { "type": "Point", "coordinates": [ 86.125071, 55.409674 ] } },
{ "type": "Feature", "properties": { "Наименование": "Кузбасская клиническая больница скорой медицинской помощи им. М.А. Подгорбунского", "Описание": "клинико-диагностическая лаборатория", "Рубрики": "Больницы", "Адрес": "Николая Островского, 22 к3", "Комментарий к адресу": "1 этаж", "Почтовый индекс": 650000, "Микрорайон": null, "Район": "Центральный район", "Город": "Кемерово", "Округ": "Кемеровский городской округ", "Регион": "Кемеровская область — Кузбасс", "Страна": "Россия", "Часы работы": "Пн: 08:00-15:00; Вт: 08:00-15:00; Ср: 08:00-15:00; Чт: 08:00-15:00; Пт: 08:00-15:00", "Часовой пояс": "+07:00", "Рейтинг": null, "Количество отзывов": null, "Телефон 1": "83842465089", "Телефон 2": "83842465088", "Телефон 3": null, "E-mail": null, "Веб-сайт 1": "http://kkbsmp.ru", "Веб-сайт 2": null, "ВКонтакте": "https://vk.com/kkbsmp42", "WhatsApp": null, "Telegram": "https://t.me/kkbsmp", "Широта": 55.361303, "Долгота": 86.080958, "2GIS URL": "https://2gis.com/firm/70000001020342781" }, "geometry": { "type": "Point", "coordinates": [ 86.080958, 55.361303 ] } },
{ "type": "Feature", "properties": { "Наименование": "Кузбасская клиническая больница скорой медицинской помощи им. М.А. Подгорбунского", "Описание": "приемное отделение", "Рубрики": "Больницы", "Адрес": "Александрова, 7 к5", "Комментарий к адресу": "1 этаж", "Почтовый индекс": 650033, "Микрорайон": null, "Район": "Кировский район", "Город": "Кемерово", "Округ": "Кемеровский городской округ", "Регион": "Кемеровская область — Кузбасс", "Страна": "Россия", "Часы работы": "Пн: 00:00-24:00; Вт: 00:00-24:00; Ср: 00:00-24:00; Чт: 00:00-24:00; Пт: 00:00-24:00; Сб: 00:00-24:00; Вс: 00:00-24:00", "Часовой пояс": "+07:00", "Рейтинг": 3.0, "Количество отзывов": 106, "Телефон 1": "83842250616 (приемное отделение)", "Телефон 2": "83842452992 (контакт-центр)", "Телефон 3": "83842251577 (приемная гл. врача)", "E-mail": null, "Веб-сайт 1": "http://kkbsmp.ru", "Веб-сайт 2": null, "ВКонтакте": "https://vk.com/kkbsmp42", "WhatsApp": null, "Telegram": "https://t.me/kkbsmp", "Широта": 55.395453, "Долгота": 86.016078, "2GIS URL": "https://2gis.com/firm/704670989834122" }, "geometry": { "type": "Point", "coordinates": [ 86.016078, 55.395453 ] } },
{ "type": "Feature", "properties": { "Наименование": "Кузбасская клиническая больница скорой медицинской помощи им. М.А. Подгорбунского", "Описание": "отделение профилактических осмотров, физиотерапевтическое отделение", "Рубрики": "Больницы", "Адрес": "Александрова, 7 к2", "Комментарий к адресу": "1-2 этаж", "Почтовый индекс": 650033, "Микрорайон": null, "Район": "Кировский район", "Город": "Кемерово", "Округ": "Кемеровский городской округ", "Регион": "Кемеровская область — Кузбасс", "Страна": "Россия", "Часы работы": "Пн: 08:00-16:00; Вт: 08:00-16:00; Ср: 08:00-16:00; Чт: 08:00-16:00; Пт: 08:00-16:00", "Часовой пояс": "+07:00", "Рейтинг": 2.2, "Количество отзывов": 32, "Телефон 1": "83842252594", "Телефон 2": "83842252756", "Телефон 3": "83842251577 (приемная гл. врача)", "E-mail": null, "Веб-сайт 1": "http://kkbsmp.ru", "Веб-сайт 2": null, "ВКонтакте": "https://vk.com/kkbsmp42", "WhatsApp": null, "Telegram": "https://t.me/kkbsmp", "Широта": 55.396262, "Долгота": 86.017907, "2GIS URL": "https://2gis.com/firm/704216723060799" }, "geometry": { "type": "Point", "coordinates": [ 86.017907, 55.396262 ] } },
{ "type": "Feature", "properties": { "Наименование": "Кузбасская клиническая больница скорой медицинской помощи им. М.А. Подгорбунского", "Описание": "детское отделение респираторно-вирусных инфекций", "Рубрики": "Больницы", "Адрес": "переулок Ушакова, 3а к2", "Комментарий к адресу": null, "Почтовый индекс": 650001, "Микрорайон": null, "Район": "Кировский район", "Город": "Кемерово", "Округ": "Кемеровский городской округ", "Регион": "Кемеровская область — Кузбасс", "Страна": "Россия", "Часы работы": "Пн: 00:00-24:00; Вт: 00:00-24:00; Ср: 00:00-24:00; Чт: 00:00-24:00; Пт: 00:00-24:00; Сб: 00:00-24:00; Вс: 00:00-24:00", "Часовой пояс": "+07:00", "Рейтинг": 3.0, "Количество отзывов": 20, "Телефон 1": "83842255537", "Телефон 2": null, "Телефон 3": null, "E-mail": null, "Веб-сайт 1": "http://kkbsmp.ru", "Веб-сайт 2": null, "ВКонтакте": "https://vk.com/kkbsmp42", "WhatsApp": null, "Telegram": "https://t.me/kkbsmp", "Широта": 55.38801, "Долгота": 86.005664, "2GIS URL": "https://2gis.com/firm/704670989304230" }, "geometry": { "type": "Point", "coordinates": [ 86.005664, 55.38801 ] } },
{ "type": "Feature", "properties": { "Наименование": "Кузбасская клиническая больница скорой медицинской помощи им. М.А. Подгорбунского", "Описание": "отделение реанимации", "Рубрики": "Больницы", "Адрес": "Александрова, 9", "Комментарий к адресу": "1 этаж", "Почтовый индекс": 650033, "Микрорайон": null, "Район": "Кировский район", "Город": "Кемерово", "Округ": "Кемеровский городской округ", "Регион": "Кемеровская область — Кузбасс", "Страна": "Россия", "Часы работы": "Пн: 00:00-24:00; Вт: 00:00-24:00; Ср: 00:00-24:00; Чт: 00:00-24:00; Пт: 00:00-24:00; Сб: 00:00-24:00; Вс: 00:00-24:00", "Часовой пояс": "+07:00", "Рейтинг": 4.1, "Количество отзывов": 39, "Телефон 1": null, "Телефон 2": null, "Телефон 3": null, "E-mail": null, "Веб-сайт 1": "http://kkbsmp.ru", "Веб-сайт 2": null, "ВКонтакте": "https://vk.com/kkbsmp42", "WhatsApp": null, "Telegram": "https://t.me/kkbsmp", "Широта": 55.395827, "Долгота": 86.018549, "2GIS URL": "https://2gis.com/firm/704216723060093" }, "geometry": { "type": "Point", "coordinates": [ 86.018549, 55.395827 ] } },
{ "type": "Feature", "properties": { "Наименование": "Кузбасская клиническая больница скорой медицинской помощи им. М.А. Подгорбунского", "Описание": "терапевтический отдел №2", "Рубрики": "Больницы", "Адрес": "Александрова, 7 к4", "Комментарий к адресу": null, "Почтовый индекс": 650033, "Микрорайон": null, "Район": "Кировский район", "Город": "Кемерово", "Округ": "Кемеровский городской округ", "Регион": "Кемеровская область — Кузбасс", "Страна": "Россия", "Часы работы": "Пн: 08:00-16:00; Вт: 08:00-16:00; Ср: 08:00-16:00; Чт: 08:00-16:00; Пт: 08:00-16:00", "Часовой пояс": "+07:00", "Рейтинг": 1.0, "Количество отзывов": 1, "Телефон 1": "83842254612", "Телефон 2": null, "Телефон 3": null, "E-mail": null, "Веб-сайт 1": "http://гкб2.рф", "Веб-сайт 2": null, "ВКонтакте": "https://vk.com/kkbsmp42", "WhatsApp": null, "Telegram": "https://t.me/kkbsmp", "Широта": 55.396234, "Долгота": 86.016672, "2GIS URL": "https://2gis.com/firm/70000001054532788" }, "geometry": { "type": "Point", "coordinates": [ 86.016672, 55.396234 ] } },
{ "type": "Feature", "properties": { "Наименование": "Кузбасская клиническая больница скорой медицинской помощи им. М.А. Подгорбунского", "Описание": "ожоговое отделение", "Рубрики": "Больницы", "Адрес": "Александрова, 7 к6", "Комментарий к адресу": "1-2 этаж", "Почтовый индекс": 650033, "Микрорайон": null, "Район": "Кировский район", "Город": "Кемерово", "Округ": "Кемеровский городской округ", "Регион": "Кемеровская область — Кузбасс", "Страна": "Россия", "Часы работы": "Пн: 00:00-24:00; Вт: 00:00-24:00; Ср: 00:00-24:00; Чт: 00:00-24:00; Пт: 00:00-24:00; Сб: 00:00-24:00; Вс: 00:00-24:00", "Часовой пояс": "+07:00", "Рейтинг": 3.4, "Количество отзывов": 8, "Телефон 1": "83842250632", "Телефон 2": "83842251577 (приемная гл. врача)", "Телефон 3": "83842452992 (контакт-центр)", "E-mail": null, "Веб-сайт 1": "http://kkbsmp.ru", "Веб-сайт 2": null, "ВКонтакте": "https://vk.com/kkbsmp42", "WhatsApp": null, "Telegram": "https://t.me/kkbsmp", "Широта": 55.394946, "Долгота": 86.016641, "2GIS URL": "https://2gis.com/firm/704670989930172" }, "geometry": { "type": "Point", "coordinates": [ 86.016641, 55.394946 ] } },
{ "type": "Feature", "properties": { "Наименование": "Кузбасская областная детская клиническая больница им. Ю.А. Атаманова", "Описание": null, "Рубрики": "Больницы", "Адрес": "Ворошилова, 21", "Комментарий к адресу": "1-2 этаж", "Почтовый индекс": 650056, "Микрорайон": null, "Район": "Ленинский район", "Город": "Кемерово", "Округ": "Кемеровский городской округ", "Регион": "Кемеровская область — Кузбасс", "Страна": "Россия", "Часы работы": "Пн: 00:00-24:00; Вт: 00:00-24:00; Ср: 00:00-24:00; Чт: 00:00-24:00; Пт: 00:00-24:00; Сб: 00:00-24:00; Вс: 00:00-24:00", "Часовой пояс": "+07:00", "Рейтинг": 2.3, "Количество отзывов": 146, "Телефон 1": "83842396239 (приемная гл. врача)", "Телефон 2": "83842396737 (касса платных услуг)", "Телефон 3": null, "E-mail": null, "Веб-сайт 1": "http://odkbko.ru", "Веб-сайт 2": null, "ВКонтакте": "https://vk.com/kodkbatamanova", "WhatsApp": null, "Telegram": "https://t.me/kodkb", "Широта": 55.33312, "Долгота": 86.166571, "2GIS URL": "https://2gis.com/firm/704670989552838" }, "geometry": { "type": "Point", "coordinates": [ 86.166571, 55.33312 ] } },
{ "type": "Feature", "properties": { "Наименование": "Кузбасская областная детская клиническая больница им. Ю.А. Атаманова", "Описание": "ординаторская отделения раннего возраста", "Рубрики": "Больницы", "Адрес": "Гагарина, 134а", "Комментарий к адресу": null, "Почтовый индекс": 650036, "Микрорайон": null, "Район": "Центральный район", "Город": "Кемерово", "Округ": "Кемеровский городской округ", "Регион": "Кемеровская область — Кузбасс", "Страна": "Россия", "Часы работы": "Пн: 00:00-24:00; Вт: 00:00-24:00; Ср: 00:00-24:00; Чт: 00:00-24:00; Пт: 00:00-24:00; Сб: 00:00-24:00; Вс: 00:00-24:00 (посещение пациентов: пн-вс 10:00-12:00, 16:00-18:00)", "Часовой пояс": "+07:00", "Рейтинг": 2.7, "Количество отзывов": 32, "Телефон 1": "83842396239 (приемная гл. врача)", "Телефон 2": null, "Телефон 3": null, "E-mail": null, "Веб-сайт 1": "http://odkbko.ru", "Веб-сайт 2": null, "ВКонтакте": "https://vk.com/kodkbatamanova", "WhatsApp": null, "Telegram": "https://t.me/kodkb", "Широта": 55.340757, "Долгота": 86.134981, "2GIS URL": "https://2gis.com/firm/70000001040654294" }, "geometry": { "type": "Point", "coordinates": [ 86.134981, 55.340757 ] } },
{ "type": "Feature", "properties": { "Наименование": "Кемеровская инфекционная больница", "Описание": "приемное отделение", "Рубрики": "Больницы", "Адрес": "Волгоградская, 43Б к2", "Комментарий к адресу": null, "Почтовый индекс": 650036, "Микрорайон": null, "Район": "Ленинский район", "Город": "Кемерово", "Округ": "Кемеровский городской округ", "Регион": "Кемеровская область — Кузбасс", "Страна": "Россия", "Часы работы": "Пн: 00:00-24:00; Вт: 00:00-24:00; Ср: 00:00-24:00; Чт: 00:00-24:00; Пт: 00:00-24:00; Сб: 00:00-24:00; Вс: 00:00-24:00", "Часовой пояс": "+07:00", "Рейтинг": 2.8, "Количество отзывов": 12, "Телефон 1": "83842901576", "Телефон 2": null, "Телефон 3": null, "E-mail": null, "Веб-сайт 1": "http://kokib.ru", "Веб-сайт 2": null, "ВКонтакте": "https://vk.com/public211693444", "WhatsApp": null, "Telegram": null, "Широта": 55.330211, "Долгота": 86.15832, "2GIS URL": "https://2gis.com/firm/704670989584490" }, "geometry": { "type": "Point", "coordinates": [ 86.15832, 55.330211 ] } },
{ "type": "Feature", "properties": { "Наименование": "Кузбасская областная детская клиническая больница им. Ю.А. Атаманова", "Описание": "психоневрологическое отделение", "Рубрики": "Больницы", "Адрес": "Марковцева, 14а", "Комментарий к адресу": null, "Почтовый индекс": 650003, "Микрорайон": null, "Район": "Ленинский район", "Город": "Кемерово", "Округ": "Кемеровский городской округ", "Регион": "Кемеровская область — Кузбасс", "Страна": "Россия", "Часы работы": "Пн: 00:00-24:00; Вт: 00:00-24:00; Ср: 00:00-24:00; Чт: 00:00-24:00; Пт: 00:00-24:00; Сб: 00:00-24:00; Вс: 00:00-24:00", "Часовой пояс": "+07:00", "Рейтинг": 3.2, "Количество отзывов": 20, "Телефон 1": "83842731912", "Телефон 2": null, "Телефон 3": null, "E-mail": null, "Веб-сайт 1": "http://odkbko.ru", "Веб-сайт 2": null, "ВКонтакте": "https://vk.com/kodkbatamanova", "WhatsApp": null, "Telegram": "https://t.me/kodkb", "Широта": 55.335934, "Долгота": 86.180811, "2GIS URL": "https://2gis.com/firm/704670989297126" }, "geometry": { "type": "Point", "coordinates": [ 86.180811, 55.335934 ] } },
{ "type": "Feature", "properties": { "Наименование": "Кузбасская клиническая больница скорой медицинской помощи им. М.А. Подгорбунского", "Описание": "приемное отделение", "Рубрики": "Больницы", "Адрес": "Николая Островского, 22 к2", "Комментарий к адресу": null, "Почтовый индекс": 650000, "Микрорайон": null, "Район": "Центральный район", "Город": "Кемерово", "Округ": "Кемеровский городской округ", "Регион": "Кемеровская область — Кузбасс", "Страна": "Россия", "Часы работы": "Пн: 00:00-24:00; Вт: 00:00-24:00; Ср: 00:00-24:00; Чт: 00:00-24:00; Пт: 00:00-24:00; Сб: 00:00-24:00; Вс: 00:00-24:00", "Часовой пояс": "+07:00", "Рейтинг": 2.5, "Количество отзывов": 85, "Телефон 1": "83842465115 (приемное отделение)", "Телефон 2": "83842465146 (приемная гл. врача)", "Телефон 3": "83842366983 (телефон-факс)", "E-mail": null, "Веб-сайт 1": "http://kkbsmp.ru", "Веб-сайт 2": null, "ВКонтакте": "https://vk.com/kkbsmp42", "WhatsApp": null, "Telegram": "https://t.me/kkbsmp", "Широта": 55.360482, "Долгота": 86.080841, "2GIS URL": "https://2gis.com/firm/704215722758239" }, "geometry": { "type": "Point", "coordinates": [ 86.080841, 55.360482 ] } },
{ "type": "Feature", "properties": { "Наименование": "Клинический консультативно-диагностический центр им. И.А. Колпинского", "Описание": null, "Рубрики": "Больницы", "Адрес": "улица Весенняя, 9а", "Комментарий к адресу": null, "Почтовый индекс": 650000, "Микрорайон": null, "Район": "Центральный район", "Город": "Кемерово", "Округ": "Кемеровский городской округ", "Регион": "Кемеровская область — Кузбасс", "Страна": "Россия", "Часы работы": "Пн: 08:00-18:00; Вт: 08:00-18:00; Ср: 08:00-18:00; Чт: 08:00-18:00; Пт: 08:00-18:00", "Часовой пояс": "+07:00", "Рейтинг": 2.6, "Количество отзывов": 27, "Телефон 1": "83842367265 (регистратура)", "Телефон 2": "83842365873", "Телефон 3": null, "E-mail": null, "Веб-сайт 1": null, "Веб-сайт 2": null, "ВКонтакте": null, "WhatsApp": null, "Telegram": null, "Широта": 55.357406, "Долгота": 86.080113, "2GIS URL": "https://2gis.com/firm/704215722758228" }, "geometry": { "type": "Point", "coordinates": [ 86.080113, 55.357406 ] } },
{ "type": "Feature", "properties": { "Наименование": "Кузбасская клиническая больница скорой медицинской помощи им. М.А. Подгорбунского", "Описание": "приемное отделение", "Рубрики": "Больницы", "Адрес": "Николая Островского, 22 к7", "Комментарий к адресу": null, "Почтовый индекс": 650000, "Микрорайон": null, "Район": "Центральный район", "Город": "Кемерово", "Округ": "Кемеровский городской округ", "Регион": "Кемеровская область — Кузбасс", "Страна": "Россия", "Часы работы": "Пн: 00:00-24:00; Вт: 00:00-24:00; Ср: 00:00-24:00; Чт: 00:00-24:00; Пт: 00:00-24:00; Сб: 00:00-24:00; Вс: 00:00-24:00 (посещение пациентов: пн-вс 11:00-19:00, перерыв: 13:00-17:00)", "Часовой пояс": "+07:00", "Рейтинг": 2.4, "Количество отзывов": 72, "Телефон 1": null, "Телефон 2": null, "Телефон 3": null, "E-mail": null, "Веб-сайт 1": "http://kkbsmp.ru", "Веб-сайт 2": null, "ВКонтакте": "https://vk.com/kkbsmp42", "WhatsApp": null, "Telegram": "https://t.me/kkbsmp", "Широта": 55.359937, "Долгота": 86.081803, "2GIS URL": "https://2gis.com/firm/704215722917945" }, "geometry": { "type": "Point", "coordinates": [ 86.081803, 55.359937 ] } },
{ "type": "Feature", "properties": { "Наименование": "Кузбасская областная детская клиническая больница им. Ю.А. Атаманова", "Описание": null, "Рубрики": "Больницы", "Адрес": "проспект Ленина, 42а", "Комментарий к адресу": null, "Почтовый индекс": 650000, "Микрорайон": null, "Район": "Центральный район", "Город": "Кемерово", "Округ": "Кемеровский городской округ", "Регион": "Кемеровская область — Кузбасс", "Страна": "Россия", "Часы работы": "Пн: 00:00-24:00; Вт: 00:00-24:00; Ср: 00:00-24:00; Чт: 00:00-24:00; Пт: 00:00-24:00; Сб: 00:00-24:00; Вс: 00:00-24:00 (прием передач: пн-вс 11:00-13:00, 16:00-18:00; прием анализов: пн, вт, чт, пт 07:45-11:00 )", "Часовой пояс": "+07:00", "Рейтинг": 2.4, "Количество отзывов": 61, "Телефон 1": "83842680033 (единый контакт-центр)", "Телефон 2": null, "Телефон 3": null, "E-mail": null, "Веб-сайт 1": "http://odkbko.ru", "Веб-сайт 2": null, "ВКонтакте": "https://vk.com/kodkbatamanova", "WhatsApp": null, "Telegram": "https://t.me/kodkb", "Широта": 55.345546, "Долгота": 86.082328, "2GIS URL": "https://2gis.com/firm/704215722860206" }, "geometry": { "type": "Point", "coordinates": [ 86.082328, 55.345546 ] } },
{ "type": "Feature", "properties": { "Наименование": "Кемеровская областная клиническая офтальмологическая больница", "Описание": "отделение лазерной хирургии", "Рубрики": "Больницы", "Адрес": "Октябрьский проспект, 22а", "Комментарий к адресу": "7 этаж", "Почтовый индекс": 650066, "Микрорайон": null, "Район": "Центральный район", "Город": "Кемерово", "Округ": "Кемеровский городской округ", "Регион": "Кемеровская область — Кузбасс", "Страна": "Россия", "Часы работы": "Пн: 08:00-16:00; Вт: 08:00-16:00; Ср: 08:00-16:00; Чт: 08:00-16:00; Пт: 08:00-16:00", "Часовой пояс": "+07:00", "Рейтинг": 2.5, "Количество отзывов": 23, "Телефон 1": "83842390395", "Телефон 2": null, "Телефон 3": null, "E-mail": null, "Веб-сайт 1": "http://www.oftkokob.ru", "Веб-сайт 2": null, "ВКонтакте": null, "WhatsApp": null, "Telegram": null, "Широта": 55.350566, "Долгота": 86.121193, "2GIS URL": "https://2gis.com/firm/70000001026746213" }, "geometry": { "type": "Point", "coordinates": [ 86.121193, 55.350566 ] } },
{ "type": "Feature", "properties": { "Наименование": "Кузбасская клиническая больница скорой медицинской помощи им. М.А. Подгорбунского", "Описание": "отделение травматологии", "Рубрики": "Больницы", "Адрес": "Николая Островского, 22 к4", "Комментарий к адресу": null, "Почтовый индекс": 650000, "Микрорайон": null, "Район": "Центральный район", "Город": "Кемерово", "Округ": "Кемеровский городской округ", "Регион": "Кемеровская область — Кузбасс", "Страна": "Россия", "Часы работы": "Пн: 00:00-24:00; Вт: 00:00-24:00; Ср: 00:00-24:00; Чт: 00:00-24:00; Пт: 00:00-24:00; Сб: 00:00-24:00; Вс: 00:00-24:00", "Часовой пояс": "+07:00", "Рейтинг": 3.9, "Количество отзывов": 18, "Телефон 1": "83842465134", "Телефон 2": null, "Телефон 3": null, "E-mail": null, "Веб-сайт 1": "http://kkbsmp.ru", "Веб-сайт 2": null, "ВКонтакте": "https://vk.com/kkbsmp42", "WhatsApp": null, "Telegram": "https://t.me/kkbsmp", "Широта": 55.360681, "Долгота": 86.083, "2GIS URL": "https://2gis.com/firm/70000001020342841" }, "geometry": { "type": "Point", "coordinates": [ 86.083, 55.360681 ] } },
{ "type": "Feature", "properties": { "Наименование": "Эпилептологический центр", "Описание": null, "Рубрики": "Больницы", "Адрес": "Октябрьский проспект, 22", "Комментарий к адресу": "3 этаж", "Почтовый индекс": 650066, "Микрорайон": null, "Район": "Центральный район", "Город": "Кемерово", "Округ": "Кемеровский городской округ", "Регион": "Кемеровская область — Кузбасс", "Страна": "Россия", "Часы работы": "Пн: 08:00-14:00; Вт: 08:00-14:00; Ср: 08:00-14:00; Чт: 08:00-14:00; Пт: 08:00-14:00", "Часовой пояс": "+07:00", "Рейтинг": 1.3, "Количество отзывов": 3, "Телефон 1": "83842396020", "Телефон 2": null, "Телефон 3": null, "E-mail": null, "Веб-сайт 1": "http://www.okbkem.ru", "Веб-сайт 2": null, "ВКонтакте": "https://vk.com/kokb_kemerovo", "WhatsApp": null, "Telegram": "https://t.me/kokb_KuZBass", "Широта": 55.348799, "Долгота": 86.119129, "2GIS URL": "https://2gis.com/firm/704670989564463" }, "geometry": { "type": "Point", "coordinates": [ 86.119129, 55.348799 ] } },
{ "type": "Feature", "properties": { "Наименование": "Областная больница им. С.В. Беляева", "Описание": "отделение пульмонологии", "Рубрики": "Больницы", "Адрес": "Октябрьский проспект, 22 к3", "Комментарий к адресу": "1 этаж", "Почтовый индекс": 650066, "Микрорайон": null, "Район": "Центральный район", "Город": "Кемерово", "Округ": "Кемеровский городской округ", "Регион": "Кемеровская область — Кузбасс", "Страна": "Россия", "Часы работы": "Пн: 08:00-14:00; Вт: 08:00-14:00; Ср: 08:00-14:00; Чт: 08:00-14:00; Пт: 08:00-14:00", "Часовой пояс": "+07:00", "Рейтинг": null, "Количество отзывов": null, "Телефон 1": "83842396525", "Телефон 2": null, "Телефон 3": null, "E-mail": null, "Веб-сайт 1": "http://www.okbkem.ru", "Веб-сайт 2": null, "ВКонтакте": "https://vk.com/kokb_kemerovo", "WhatsApp": null, "Telegram": "https://t.me/kokb_KuZBass", "Широта": 55.349338, "Долгота": 86.119016, "2GIS URL": "https://2gis.com/firm/704670989564450" }, "geometry": { "type": "Point", "coordinates": [ 86.119016, 55.349338 ] } },
{ "type": "Feature", "properties": { "Наименование": "Кузбасская клиническая больница скорой медицинской помощи им. М.А. Подгорбунского", "Описание": "оториноларингологическое отделение", "Рубрики": "Больницы", "Адрес": "Николая Островского, 22 к1", "Комментарий к адресу": "5 этаж", "Почтовый индекс": 650000, "Микрорайон": null, "Район": "Центральный район", "Город": "Кемерово", "Округ": "Кемеровский городской округ", "Регион": "Кемеровская область — Кузбасс", "Страна": "Россия", "Часы работы": "Пн: 00:00-24:00; Вт: 00:00-24:00; Ср: 00:00-24:00; Чт: 00:00-24:00; Пт: 00:00-24:00; Сб: 00:00-24:00; Вс: 00:00-24:00", "Часовой пояс": "+07:00", "Рейтинг": 3.9, "Количество отзывов": 10, "Телефон 1": "83842465094", "Телефон 2": null, "Телефон 3": null, "E-mail": null, "Веб-сайт 1": "http://kkbsmp.ru", "Веб-сайт 2": null, "ВКонтакте": "https://vk.com/kkbsmp42", "WhatsApp": null, "Telegram": "https://t.me/kkbsmp", "Широта": 55.360599, "Долгота": 86.079426, "2GIS URL": "https://2gis.com/firm/704215722914625" }, "geometry": { "type": "Point", "coordinates": [ 86.079426, 55.360599 ] } },
{ "type": "Feature", "properties": { "Наименование": "Кузбасская клиническая больница скорой медицинской помощи им. М.А. Подгорбунского", "Описание": "терапевтическое отделение", "Рубрики": "Больницы", "Адрес": "Николая Островского, 22 к6", "Комментарий к адресу": "2 этаж", "Почтовый индекс": 650000, "Микрорайон": null, "Район": "Центральный район", "Город": "Кемерово", "Округ": "Кемеровский городской округ", "Регион": "Кемеровская область — Кузбасс", "Страна": "Россия", "Часы работы": "Пн: 00:00-24:00; Вт: 00:00-24:00; Ср: 00:00-24:00; Чт: 00:00-24:00; Пт: 00:00-24:00; Сб: 00:00-24:00; Вс: 00:00-24:00", "Часовой пояс": "+07:00", "Рейтинг": 5.0, "Количество отзывов": 2, "Телефон 1": null, "Телефон 2": null, "Телефон 3": null, "E-mail": null, "Веб-сайт 1": "http://kkbsmp.ru", "Веб-сайт 2": null, "ВКонтакте": "https://vk.com/kkbsmp42", "WhatsApp": null, "Telegram": "https://t.me/kkbsmp", "Широта": 55.360242, "Долгота": 86.083348, "2GIS URL": "https://2gis.com/firm/70000001020343661" }, "geometry": { "type": "Point", "coordinates": [ 86.083348, 55.360242 ] } },
{ "type": "Feature", "properties": { "Наименование": "Кузбасская клиническая больница скорой медицинской помощи им. М.А. Подгорбунского", "Описание": "отделение ортопедии №2", "Рубрики": "Больницы", "Адрес": "Николая Островского, 22 к4", "Комментарий к адресу": null, "Почтовый индекс": 650000, "Микрорайон": null, "Район": "Центральный район", "Город": "Кемерово", "Округ": "Кемеровский городской округ", "Регион": "Кемеровская область — Кузбасс", "Страна": "Россия", "Часы работы": "Пн: 00:00-24:00; Вт: 00:00-24:00; Ср: 00:00-24:00; Чт: 00:00-24:00; Пт: 00:00-24:00; Сб: 00:00-24:00; Вс: 00:00-24:00", "Часовой пояс": "+07:00", "Рейтинг": 5.0, "Количество отзывов": 2, "Телефон 1": "83842465114", "Телефон 2": null, "Телефон 3": null, "E-mail": null, "Веб-сайт 1": "http://kkbsmp.ru", "Веб-сайт 2": null, "ВКонтакте": "https://vk.com/kkbsmp42", "WhatsApp": null, "Telegram": "https://t.me/kkbsmp", "Широта": 55.360849, "Долгота": 86.082603, "2GIS URL": "https://2gis.com/firm/70000001020342826" }, "geometry": { "type": "Point", "coordinates": [ 86.082603, 55.360849 ] } },
{ "type": "Feature", "properties": { "Наименование": "Кузбасская клиническая больница скорой медицинской помощи им. М.А. Подгорбунского", "Описание": "бактериологическая лаборатория", "Рубрики": "Больницы", "Адрес": "Николая Островского, 22 к5", "Комментарий к адресу": "1, 3 этаж", "Почтовый индекс": 650000, "Микрорайон": null, "Район": "Центральный район", "Город": "Кемерово", "Округ": "Кемеровский городской округ", "Регион": "Кемеровская область — Кузбасс", "Страна": "Россия", "Часы работы": "Пн: 08:00-15:00; Вт: 08:00-15:00; Ср: 08:00-15:00; Чт: 08:00-15:00; Пт: 08:00-15:00", "Часовой пояс": "+07:00", "Рейтинг": 1.0, "Количество отзывов": 6, "Телефон 1": "83842465073", "Телефон 2": "83842465173", "Телефон 3": null, "E-mail": null, "Веб-сайт 1": "http://kkbsmp.ru", "Веб-сайт 2": null, "ВКонтакте": "https://vk.com/kkbsmp42", "WhatsApp": null, "Telegram": "https://t.me/kkbsmp", "Широта": 55.360497, "Долгота": 86.081885, "2GIS URL": "https://2gis.com/firm/70000001020343591" }, "geometry": { "type": "Point", "coordinates": [ 86.081885, 55.360497 ] } },
{ "type": "Feature", "properties": { "Наименование": "Областная больница им. С.В. Беляева", "Описание": "гинекологическое отделение", "Рубрики": "Больницы", "Адрес": "Октябрьский проспект, 22 к2", "Комментарий к адресу": "3 этаж", "Почтовый индекс": 650066, "Микрорайон": null, "Район": "Центральный район", "Город": "Кемерово", "Округ": "Кемеровский городской округ", "Регион": "Кемеровская область — Кузбасс", "Страна": "Россия", "Часы работы": "Пн: 08:00-16:00; Вт: 08:00-16:00; Ср: 08:00-16:00; Чт: 08:00-16:00; Пт: 08:00-16:00", "Часовой пояс": "+07:00", "Рейтинг": 4.3, "Количество отзывов": 7, "Телефон 1": "83842396413", "Телефон 2": null, "Телефон 3": null, "E-mail": null, "Веб-сайт 1": "http://www.okbkem.ru", "Веб-сайт 2": null, "ВКонтакте": "https://vk.com/kokb_kemerovo", "WhatsApp": null, "Telegram": "https://t.me/kokb_KuZBass", "Широта": 55.350045, "Долгота": 86.117406, "2GIS URL": "https://2gis.com/firm/704670989564420" }, "geometry": { "type": "Point", "coordinates": [ 86.117406, 55.350045 ] } },
{ "type": "Feature", "properties": { "Наименование": "Областная больница им. С.В. Беляева", "Описание": "отделение челюстно-лицевой хирургии", "Рубрики": "Больницы", "Адрес": "Октябрьский проспект, 22 к5", "Комментарий к адресу": "3 этаж", "Почтовый индекс": 650066, "Микрорайон": null, "Район": "Центральный район", "Город": "Кемерово", "Округ": "Кемеровский городской округ", "Регион": "Кемеровская область — Кузбасс", "Страна": "Россия", "Часы работы": "Пн: 08:00-15:00; Вт: 08:00-15:00; Ср: 08:00-15:00; Чт: 08:00-15:00; Пт: 08:00-15:00", "Часовой пояс": "+07:00", "Рейтинг": 2.4, "Количество отзывов": 14, "Телефон 1": "83842396426", "Телефон 2": null, "Телефон 3": null, "E-mail": null, "Веб-сайт 1": "http://www.okbkem.ru", "Веб-сайт 2": null, "ВКонтакте": "https://vk.com/kokb_kemerovo", "WhatsApp": null, "Telegram": "https://t.me/kokb_KuZBass", "Широта": 55.350681, "Долгота": 86.119252, "2GIS URL": "https://2gis.com/firm/704670989564430" }, "geometry": { "type": "Point", "coordinates": [ 86.119252, 55.350681 ] } },
{ "type": "Feature", "properties": { "Наименование": "Областная больница им. С.В. Беляева", "Описание": "приемное отделение", "Рубрики": "Больницы", "Адрес": "Октябрьский проспект, 22 к1", "Комментарий к адресу": "1 этаж", "Почтовый индекс": 650066, "Микрорайон": null, "Район": "Центральный район", "Город": "Кемерово", "Округ": "Кемеровский городской округ", "Регион": "Кемеровская область — Кузбасс", "Страна": "Россия", "Часы работы": "Пн: 00:00-24:00; Вт: 00:00-24:00; Ср: 00:00-24:00; Чт: 00:00-24:00; Пт: 00:00-24:00; Сб: 00:00-24:00; Вс: 00:00-24:00", "Часовой пояс": "+07:00", "Рейтинг": 3.3, "Количество отзывов": 25, "Телефон 1": "83842396501", "Телефон 2": "83842396502", "Телефон 3": null, "E-mail": null, "Веб-сайт 1": "http://www.okbkem.ru", "Веб-сайт 2": null, "ВКонтакте": "https://vk.com/kokb_kemerovo", "WhatsApp": null, "Telegram": "https://t.me/kokb_KuZBass", "Широта": 55.349335, "Долгота": 86.121148, "2GIS URL": "https://2gis.com/firm/704670989564447" }, "geometry": { "type": "Point", "coordinates": [ 86.121148, 55.349335 ] } },
{ "type": "Feature", "properties": { "Наименование": "Областная больница им. С.В. Беляева", "Описание": "детское приемное отделение", "Рубрики": "Больницы", "Адрес": "Октябрьский проспект, 22 к4", "Комментарий к адресу": "1 этаж", "Почтовый индекс": 650066, "Микрорайон": null, "Район": "Центральный район", "Город": "Кемерово", "Округ": "Кемеровский городской округ", "Регион": "Кемеровская область — Кузбасс", "Страна": "Россия", "Часы работы": "Пн: 00:00-24:00; Вт: 00:00-24:00; Ср: 00:00-24:00; Чт: 00:00-24:00; Пт: 00:00-24:00; Сб: 00:00-24:00; Вс: 00:00-24:00", "Часовой пояс": "+07:00", "Рейтинг": 2.3, "Количество отзывов": 4, "Телефон 1": "83842396448", "Телефон 2": null, "Телефон 3": null, "E-mail": null, "Веб-сайт 1": "http://www.okbkem.ru", "Веб-сайт 2": null, "ВКонтакте": "https://vk.com/kokb_kemerovo", "WhatsApp": null, "Telegram": "https://t.me/kokb_KuZBass", "Широта": 55.349974, "Долгота": 86.119361, "2GIS URL": "https://2gis.com/firm/704670989564431" }, "geometry": { "type": "Point", "coordinates": [ 86.119361, 55.349974 ] } },
{ "type": "Feature", "properties": { "Наименование": "Кузбасская областная детская клиническая больница им. Ю.А. Атаманова", "Описание": null, "Рубрики": "Больницы", "Адрес": "Ноградская, 10", "Комментарий к адресу": "медицинский центр Ювента", "Почтовый индекс": 650000, "Микрорайон": null, "Район": "Центральный район", "Город": "Кемерово", "Округ": "Кемеровский городской округ", "Регион": "Кемеровская область — Кузбасс", "Страна": "Россия", "Часы работы": "Пн: 08:00-20:00; Вт: 08:00-20:00; Ср: 08:00-20:00; Чт: 08:00-20:00; Пт: 08:00-20:00; Сб: 08:00-15:00", "Часовой пояс": "+07:00", "Рейтинг": null, "Количество отзывов": null, "Телефон 1": "83842349495", "Телефон 2": null, "Телефон 3": null, "E-mail": null, "Веб-сайт 1": "http://odkbko.ru", "Веб-сайт 2": null, "ВКонтакте": "https://vk.com/kodkbatamanova", "WhatsApp": null, "Telegram": "https://t.me/kodkb", "Широта": 55.356891, "Долгота": 86.072933, "2GIS URL": "https://2gis.com/firm/70000001083542752" }, "geometry": { "type": "Point", "coordinates": [ 86.072933, 55.356891 ] } },
{ "type": "Feature", "properties": { "Наименование": "Кузбасская областная детская клиническая больница им. Ю.А. Атаманова", "Описание": "дневной стационар неврологического профиля", "Рубрики": "Больницы", "Адрес": "Свободы, 19", "Комментарий к адресу": "1-2 этаж", "Почтовый индекс": 650070, "Микрорайон": "ФПК м-н", "Район": "Заводский район", "Город": "Кемерово", "Округ": "Кемеровский городской округ", "Регион": "Кемеровская область — Кузбасс", "Страна": "Россия", "Часы работы": "Пн: 08:00-15:00; Вт: 08:00-15:00; Ср: 08:00-15:00; Чт: 08:00-15:00; Пт: 08:00-15:00", "Часовой пояс": "+07:00", "Рейтинг": 4.0, "Количество отзывов": 14, "Телефон 1": "83842317424", "Телефон 2": null, "Телефон 3": null, "E-mail": null, "Веб-сайт 1": "http://odkbko.ru", "Веб-сайт 2": null, "ВКонтакте": "https://vk.com/kodkbatamanova", "WhatsApp": null, "Telegram": "https://t.me/kodkb", "Широта": 55.328048, "Долгота": 86.111847, "2GIS URL": "https://2gis.com/firm/70000001040654316" }, "geometry": { "type": "Point", "coordinates": [ 86.111847, 55.328048 ] } },
{ "type": "Feature", "properties": { "Наименование": "Кемеровская городская клиническая больница №4", "Описание": "паллиативное отделение", "Рубрики": "Больницы", "Адрес": "Базовая, 12а", "Комментарий к адресу": null, "Почтовый индекс": 650024, "Микрорайон": "Южный м-н", "Район": "Заводский район", "Город": "Кемерово", "Округ": "Кемеровский городской округ", "Регион": "Кемеровская область — Кузбасс", "Страна": "Россия", "Часы работы": "Пн: 08:00-18:00; Вт: 08:00-18:00; Ср: 08:00-18:00; Чт: 08:00-18:00; Пт: 08:00-18:00", "Часовой пояс": "+07:00", "Рейтинг": 3.0, "Количество отзывов": 4, "Телефон 1": "83842772745 (ординаторская)", "Телефон 2": null, "Телефон 3": null, "E-mail": null, "Веб-сайт 1": "http://kgkb4.ru", "Веб-сайт 2": null, "ВКонтакте": "https://vk.com/id644629701", "WhatsApp": null, "Telegram": "https://t.me/gauzgkb4", "Широта": 55.322181, "Долгота": 86.076287, "2GIS URL": "https://2gis.com/firm/70000001041394592" }, "geometry": { "type": "Point", "coordinates": [ 86.076287, 55.322181 ] } },
{ "type": "Feature", "properties": { "Наименование": "Кузбасская областная детская клиническая больница им. Ю.А. Атаманова", "Описание": null, "Рубрики": "Больницы", "Адрес": "Новоржевская, 5", "Комментарий к адресу": null, "Почтовый индекс": 650907, "Микрорайон": "Пионер м-н", "Район": "Заводский район", "Город": "Кемерово", "Округ": "Кемеровский городской округ", "Регион": "Кемеровская область — Кузбасс", "Страна": "Россия", "Часы работы": "Пн: 08:00-16:00; Вт: 08:00-16:00; Ср: 08:00-16:00; Чт: 08:00-16:00; Пт: 08:00-16:00; Сб: 09:00-14:00", "Часовой пояс": "+07:00", "Рейтинг": null, "Количество отзывов": null, "Телефон 1": "83842680033 (единый контакт-центр)", "Телефон 2": null, "Телефон 3": null, "E-mail": null, "Веб-сайт 1": "http://odkbko.ru", "Веб-сайт 2": null, "ВКонтакте": "https://vk.com/kodkbatamanova", "WhatsApp": null, "Telegram": "https://t.me/kodkb", "Широта": 55.318241, "Долгота": 85.94365, "2GIS URL": "https://2gis.com/firm/70000001083543293" }, "geometry": { "type": "Point", "coordinates": [ 85.94365, 55.318241 ] } },
{ "type": "Feature", "properties": { "Наименование": "Кемеровская городская клиническая больница №4", "Описание": "стационарное отделение №2", "Рубрики": "Больницы", "Адрес": "Масальская, 68", "Комментарий к адресу": null, "Почтовый индекс": 650905, "Микрорайон": "Ягуновский м-н", "Район": "Заводский район", "Город": "Кемерово", "Округ": "Кемеровский городской округ", "Регион": "Кемеровская область — Кузбасс", "Страна": "Россия", "Часы работы": "Пн: 08:00-18:00; Вт: 08:00-18:00; Ср: 08:00-18:00; Чт: 08:00-18:00; Пт: 08:00-18:00", "Часовой пояс": "+07:00", "Рейтинг": 1.7, "Количество отзывов": 29, "Телефон 1": "83842321655 (регистратура)", "Телефон 2": null, "Телефон 3": null, "E-mail": null, "Веб-сайт 1": "http://kgkb4.ru", "Веб-сайт 2": null, "ВКонтакте": "https://vk.com/id644629701", "WhatsApp": null, "Telegram": "https://t.me/gauzgkb4", "Широта": 55.278779, "Долгота": 85.993079, "2GIS URL": "https://2gis.com/firm/704215722806094" }, "geometry": { "type": "Point", "coordinates": [ 85.993079, 55.278779 ] } },
{ "type": "Feature", "properties": { "Наименование": "Кемеровская клиническая районная больница им. Б.В. Батиевского", "Описание": "стационар", "Рубрики": "Больницы", "Адрес": "Невьянская, 12", "Комментарий к адресу": null, "Почтовый индекс": 650021, "Микрорайон": "Предзаводской м-н", "Район": "Заводский район", "Город": "Кемерово", "Округ": "Кемеровский городской округ", "Регион": "Кемеровская область — Кузбасс", "Страна": "Россия", "Часы работы": "Пн: 00:00-24:00; Вт: 00:00-24:00; Ср: 00:00-24:00; Чт: 00:00-24:00; Пт: 00:00-24:00; Сб: 00:00-24:00; Вс: 00:00-24:00", "Часовой пояс": "+07:00", "Рейтинг": 3.0, "Количество отзывов": 27, "Телефон 1": "89000513503 (дежурный администратор)", "Телефон 2": "83842647640 (заведующий по амбулаторно-поликлинической службе)", "Телефон 3": "83842780239 (начальник отдела кадров)", "E-mail": null, "Веб-сайт 1": "http://crbkem.ru", "Веб-сайт 2": null, "ВКонтакте": "https://vk.com/public205485190", "WhatsApp": null, "Telegram": null, "Широта": 55.339414, "Долгота": 86.002205, "2GIS URL": "https://2gis.com/firm/70000001080123136" }, "geometry": { "type": "Point", "coordinates": [ 86.002205, 55.339414 ] } },
{ "type": "Feature", "properties": { "Наименование": "Кемеровская инфекционная больница", "Описание": "детское кишечное отделение", "Рубрики": "Больницы", "Адрес": "Волгоградская, 43Б к4", "Комментарий к адресу": "2 этаж", "Почтовый индекс": 650036, "Микрорайон": null, "Район": "Ленинский район", "Город": "Кемерово", "Округ": "Кемеровский городской округ", "Регион": "Кемеровская область — Кузбасс", "Страна": "Россия", "Часы работы": "Пн: 00:00-24:00; Вт: 00:00-24:00; Ср: 00:00-24:00; Чт: 00:00-24:00; Пт: 00:00-24:00; Сб: 00:00-24:00; Вс: 00:00-24:00", "Часовой пояс": "+07:00", "Рейтинг": 3.9, "Количество отзывов": 11, "Телефон 1": "83842901578 (доп.302)", "Телефон 2": null, "Телефон 3": null, "E-mail": null, "Веб-сайт 1": "http:\/\/kokib.ru", "Веб-сайт 2": null, "ВКонтакте": "https:\/\/vk.com\/public211693444", "WhatsApp": null, "Telegram": null, "Широта": 55.329661, "Долгота": 86.15651, "2GIS URL": "https:\/\/2gis.com\/firm\/704670989556771" }, "geometry": { "type": "Point", "coordinates": [ 86.15651, 55.329661 ] } },
{ "type": "Feature", "properties": { "Наименование": "Кузбасская областная детская клиническая больница им. Ю.А. Атаманова", "Описание": "приёмно-диагностическое отделение", "Рубрики": "Больницы", "Адрес": "Ворошилова, 21 к2", "Комментарий к адресу": "1 этаж", "Почтовый индекс": 650056, "Микрорайон": null, "Район": "Ленинский район", "Город": "Кемерово", "Округ": "Кемеровский городской округ", "Регион": "Кемеровская область — Кузбасс", "Страна": "Россия", "Часы работы": "Пн: 00:00-24:00; Вт: 00:00-24:00; Ср: 00:00-24:00; Чт: 00:00-24:00; Пт: 00:00-24:00; Сб: 00:00-24:00; Вс: 00:00-24:00", "Часовой пояс": "+07:00", "Рейтинг": 2.6, "Количество отзывов": 45, "Телефон 1": "83842396285", "Телефон 2": null, "Телефон 3": null, "E-mail": null, "Веб-сайт 1": "http:\/\/odkbko.ru", "Веб-сайт 2": null, "ВКонтакте": "https:\/\/vk.com\/kodkbatamanova", "WhatsApp": null, "Telegram": "https:\/\/t.me\/kodkb", "Широта": 55.33364, "Долгота": 86.165067, "2GIS URL": "https:\/\/2gis.com\/firm\/704670989552840" }, "geometry": { "type": "Point", "coordinates": [ 86.165067, 55.33364 ] } },
{ "type": "Feature", "properties": { "Наименование": "Кемеровская областная клиническая офтальмологическая больница", "Описание": "детское хирургическое отделение", "Рубрики": "Больницы", "Адрес": "Октябрьский проспект, 22а", "Комментарий к адресу": "3 этаж", "Почтовый индекс": 650066, "Микрорайон": null, "Район": "Центральный район", "Город": "Кемерово", "Округ": "Кемеровский городской округ", "Регион": "Кемеровская область — Кузбасс", "Страна": "Россия", "Часы работы": "Пн: 00:00-24:00; Вт: 00:00-24:00; Ср: 00:00-24:00; Чт: 00:00-24:00; Пт: 00:00-24:00; Сб: 00:00-24:00; Вс: 00:00-24:00", "Часовой пояс": "+07:00", "Рейтинг": 5.0, "Количество отзывов": 1, "Телефон 1": "83842390396", "Телефон 2": "83842390397", "Телефон 3": null, "E-mail": null, "Веб-сайт 1": "http:\/\/www.oftkokob.ru", "Веб-сайт 2": null, "ВКонтакте": null, "WhatsApp": null, "Telegram": null, "Широта": 55.350183, "Долгота": 86.12121, "2GIS URL": "https:\/\/2gis.com\/firm\/704670989573572" }, "geometry": { "type": "Point", "coordinates": [ 86.12121, 55.350183 ] } },
{ "type": "Feature", "properties": { "Наименование": "Кузбасская областная детская клиническая больница им. Ю.А. Атаманова", "Описание": "реабилитационный центр", "Рубрики": "Реабилитационные центры", "Адрес": "Волгоградская, 50", "Комментарий к адресу": null, "Почтовый индекс": 650056, "Микрорайон": null, "Район": "Ленинский район", "Город": "Кемерово", "Округ": "Кемеровский городской округ", "Регион": "Кемеровская область — Кузбасс", "Страна": "Россия", "Часы работы": "Пн: 08:00-15:30; Вт: 08:00-15:30; Ср: 08:00-15:30; Чт: 08:00-15:30; Пт: 08:00-15:30", "Часовой пояс": "+07:00", "Рейтинг": 2.9, "Количество отзывов": 63, "Телефон 1": "83842396815 (регистратура)", "Телефон 2": "83842396281", "Телефон 3": null, "E-mail": null, "Веб-сайт 1": "http:\/\/odkbko.ru", "Веб-сайт 2": null, "ВКонтакте": null, "WhatsApp": null, "Telegram": null, "Широта": 55.331093, "Долгота": 86.162842, "2GIS URL": "https:\/\/2gis.com\/firm\/704215722760320" }, "geometry": { "type": "Point", "coordinates": [ 86.162842, 55.331093 ] } }
]
}
