{
"type": "FeatureCollection",
"name": "mall",
"crs": { "type": "name", "properties": { "name": "urn:ogc:def:crs:OGC:1.3:CRS84" } },
"features": [
{ "type": "Feature", "properties": { "Наименование": "Радуга", "Описание": "торгово-развлекательный центр", "Рубрики": "Торгово-развлекательные центры / Моллы", "Адрес": "проспект Шахтёров, 54", "Комментарий к адресу": null, "Почтовый индекс": 650002, "Микрорайон": "МЖК м-н", "Район": "Рудничный район", "Город": "Кемерово", "Округ": "Кемеровский городской округ", "Регион": "Кемеровская область — Кузбасс", "Страна": "Россия", "Часы работы": "Пн: 10:00-21:00; Вт: 10:00-21:00; Ср: 10:00-21:00; Чт: 10:00-21:00; Пт: 10:00-21:00; Сб: 10:00-21:00; Вс: 10:00-21:00 (администрация: пн-пт 9:00-18:00; сб, вс выходной)", "Часовой пояс": "+07:00", "Рейтинг": 3.8, "Количество отзывов": 134, "Телефон 1": "83842452371", "Телефон 2": null, "Телефон 3": null, "Веб-сайт": "http://pervymall.ru", "ВКонтакте": "https://vk.com/raduga_kem", "WhatsApp": null, "Telegram": null, "Широта": 55.399229, "Долгота": 86.118213, "2GIS URL": "https://2gis.com/firm/704215722977853" }, "geometry": { "type": "Point", "coordinates": [ 86.118213, 55.399229 ] } },
{ "type": "Feature", "properties": { "Наименование": "Кировский", "Описание": "торговый центр", "Рубрики": "Торгово-развлекательные центры / Моллы", "Адрес": "Леонова, 24а", "Комментарий к адресу": null, "Почтовый индекс": 650033, "Микрорайон": null, "Район": "Кировский район", "Город": "Кемерово", "Округ": "Кемеровский городской округ", "Регион": "Кемеровская область — Кузбасс", "Страна": "Россия", "Часы работы": "Пн: 08:00-23:00; Вт: 08:00-23:00; Ср: 08:00-23:00; Чт: 08:00-23:00; Пт: 08:00-23:00; Сб: 08:00-23:00; Вс: 08:00-23:00", "Часовой пояс": "+07:00", "Рейтинг": 5.0, "Количество отзывов": 2, "Телефон 1": null, "Телефон 2": null, "Телефон 3": null, "Веб-сайт": null, "ВКонтакте": null, "WhatsApp": null, "Telegram": null, "Широта": 55.397738, "Долгота": 86.021731, "2GIS URL": "https://2gis.com/firm/70000001045541747" }, "geometry": { "type": "Point", "coordinates": [ 86.021731, 55.397738 ] } },
{ "type": "Feature", "properties": { "Наименование": "Лапландия", "Описание": "торгово-развлекательный центр", "Рубрики": "Торгово-развлекательные центры / Моллы", "Адрес": "Октябрьский проспект, 34", "Комментарий к адресу": null, "Почтовый индекс": 650066, "Микрорайон": null, "Район": "Центральный район", "Город": "Кемерово", "Округ": "Кемеровский городской округ", "Регион": "Кемеровская область — Кузбасс", "Страна": "Россия", "Часы работы": "Пн: 10:00-21:00; Вт: 10:00-21:00; Ср: 10:00-21:00; Чт: 10:00-21:00; Пт: 10:00-21:00; Сб: 10:00-21:00; Вс: 10:00-21:00", "Часовой пояс": "+07:00", "Рейтинг": 3.3, "Количество отзывов": 360, "Телефон 1": "83842639631", "Телефон 2": "88002343134", "Телефон 3": null, "Веб-сайт": "http://laplandiya-mall.ru", "ВКонтакте": "https://vk.com/laplandiya_mall", "WhatsApp": null, "Telegram": null, "Широта": 55.349763, "Долгота": 86.133974, "2GIS URL": "https://2gis.com/firm/704215722808670" }, "geometry": { "type": "Point", "coordinates": [ 86.133974, 55.349763 ] } },
{ "type": "Feature", "properties": { "Наименование": "Летоcити", "Описание": "торгово-развлекательный центр", "Рубрики": "Торгово-развлекательные центры / Моллы", "Адрес": "Московский проспект, 19", "Комментарий к адресу": "1 этаж", "Почтовый индекс": 650065, "Микрорайон": null, "Район": "Ленинский район", "Город": "Кемерово", "Округ": "Кемеровский городской округ", "Регион": "Кемеровская область — Кузбасс", "Страна": "Россия", "Часы работы": "Пн: 10:00-21:00; Вт: 10:00-21:00; Ср: 10:00-21:00; Чт: 10:00-21:00; Пт: 10:00-21:00; Сб: 10:00-21:00; Вс: 10:00-21:00", "Часовой пояс": "+07:00", "Рейтинг": 4.2, "Количество отзывов": 150, "Телефон 1": "83842494011", "Телефон 2": "83842339505 (отдел аренды )", "Телефон 3": null, "Веб-сайт": "http://letocity.ru", "ВКонтакте": "https://vk.com/letocity_trc", "WhatsApp": null, "Telegram": "https://t.me/letocity_trc", "Широта": 55.356302, "Долгота": 86.157409, "2GIS URL": "https://2gis.com/firm/70000001041082246" }, "geometry": { "type": "Point", "coordinates": [ 86.157409, 55.356302 ] } },
{ "type": "Feature", "properties": { "Наименование": "Спутник", "Описание": "торгово-развлекательный центр", "Рубрики": "Торгово-развлекательные центры / Моллы", "Адрес": "улица Терешковой, 22а", "Комментарий к адресу": null, "Почтовый индекс": 650023, "Микрорайон": null, "Район": "Центральный район", "Город": "Кемерово", "Округ": "Кемеровский городской округ", "Регион": "Кемеровская область — Кузбасс", "Страна": "Россия", "Часы работы": "Пн: 08:00-22:00; Вт: 08:00-22:00; Ср: 08:00-22:00; Чт: 08:00-22:00; Пт: 08:00-22:00; Сб: 08:00-22:00; Вс: 08:00-22:00 (администрация: пн-пт 8:30-17:30, перерыв: 12:30-13:30)", "Часовой пояс": "+07:00", "Рейтинг": 3.5, "Количество отзывов": 54, "Телефон 1": "88005503525", "Телефон 2": null, "Телефон 3": null, "Веб-сайт": "http://kkinvest.ru", "ВКонтакте": "https://vk.com/sputnik_kemerovo", "WhatsApp": null, "Telegram": null, "Широта": 55.347822, "Долгота": 86.137221, "2GIS URL": "https://2gis.com/firm/704215722758151" }, "geometry": { "type": "Point", "coordinates": [ 86.137221, 55.347822 ] } },
{ "type": "Feature", "properties": { "Наименование": "Променад 2", "Описание": "торгово-развлекательный комплекс", "Рубрики": "Торгово-развлекательные центры / Моллы", "Адрес": "проспект Химиков, 39", "Комментарий к адресу": "3 этаж", "Почтовый индекс": 650003, "Микрорайон": null, "Район": "Ленинский район", "Город": "Кемерово", "Округ": "Кемеровский городской округ", "Регион": "Кемеровская область — Кузбасс", "Страна": "Россия", "Часы работы": "Пн: 08:00-21:00; Вт: 08:00-21:00; Ср: 08:00-21:00; Чт: 08:00-21:00; Пт: 08:00-21:00; Сб: 08:00-21:00; Вс: 08:00-21:00 (администрация: пн-пт 9:00-17:30, перерыв: 12:30-13:00)", "Часовой пояс": "+07:00", "Рейтинг": 3.0, "Количество отзывов": 64, "Телефон 1": null, "Телефон 2": null, "Телефон 3": null, "Веб-сайт": "http://www.promenad42.ru", "ВКонтакте": null, "WhatsApp": null, "Telegram": null, "Широта": 55.343994, "Долгота": 86.180711, "2GIS URL": "https://2gis.com/firm/704215722774359" }, "geometry": { "type": "Point", "coordinates": [ 86.180711, 55.343994 ] } },
{ "type": "Feature", "properties": { "Наименование": "Я", "Описание": "торговый центр", "Рубрики": "Торгово-развлекательные центры / Моллы", "Адрес": "Кузнецкий проспект, 33Б", "Комментарий к адресу": null, "Почтовый индекс": 650000, "Микрорайон": null, "Район": "Центральный район", "Город": "Кемерово", "Округ": "Кемеровский городской округ", "Регион": "Кемеровская область — Кузбасс", "Страна": "Россия", "Часы работы": "Пн: 09:00-21:00; Вт: 09:00-21:00; Ср: 09:00-21:00; Чт: 09:00-21:00; Пт: 09:00-21:00; Сб: 09:00-21:00; Вс: 09:00-21:00 (администрация: пн-пт 9:00-17:30; сб, вс выходной)", "Часовой пояс": "+07:00", "Рейтинг": 3.8, "Количество отзывов": 157, "Телефон 1": "83842775080", "Телефон 2": null, "Телефон 3": null, "Веб-сайт": "http://tc-ya.ru", "ВКонтакте": "https://vk.com/ya_kemerovo", "WhatsApp": null, "Telegram": null, "Широта": 55.359304, "Долгота": 86.067191, "2GIS URL": "https://2gis.com/firm/704215722779927" }, "geometry": { "type": "Point", "coordinates": [ 86.067191, 55.359304 ] } },
{ "type": "Feature", "properties": { "Наименование": "Облака", "Описание": "торговый центр", "Рубрики": "Торгово-развлекательные центры / Моллы", "Адрес": "Кузнецкий проспект, 33/1", "Комментарий к адресу": "1-2 этаж", "Почтовый индекс": 650000, "Микрорайон": null, "Район": "Центральный район", "Город": "Кемерово", "Округ": "Кемеровский городской округ", "Регион": "Кемеровская область — Кузбасс", "Страна": "Россия", "Часы работы": "Пн: 10:00-21:00; Вт: 10:00-21:00; Ср: 10:00-21:00; Чт: 10:00-21:00; Пт: 10:00-21:00; Сб: 10:00-21:00; Вс: 10:00-21:00", "Часовой пояс": "+07:00", "Рейтинг": 3.8, "Количество отзывов": 122, "Телефон 1": "83842334848 (отдел аренды)", "Телефон 2": "89050667244 (администрация)", "Телефон 3": null, "Веб-сайт": "http://www.oblaka42.ru", "ВКонтакте": "https://vk.com/42oblaka", "WhatsApp": null, "Telegram": null, "Широта": 55.358786, "Долгота": 86.064736, "2GIS URL": "https://2gis.com/firm/70000001007543095" }, "geometry": { "type": "Point", "coordinates": [ 86.064736, 55.358786 ] } },
{ "type": "Feature", "properties": { "Наименование": "Променад 3", "Описание": "торгово-развлекательный комплекс", "Рубрики": "Торгово-развлекательные центры / Моллы", "Адрес": "проспект Ленина, 59а", "Комментарий к адресу": null, "Почтовый индекс": 650004, "Микрорайон": null, "Район": "Заводский район", "Город": "Кемерово", "Округ": "Кемеровский городской округ", "Регион": "Кемеровская область — Кузбасс", "Страна": "Россия", "Часы работы": "Пн: 08:00-21:00; Вт: 10:00-21:00; Ср: 10:00-21:00; Чт: 10:00-21:00; Пт: 10:00-21:00; Сб: 10:00-21:00; Вс: 10:00-21:00 (администрация: пн-пт 9:00-17:30, перерыв: 12:30-13:00)", "Часовой пояс": "+07:00", "Рейтинг": 3.5, "Количество отзывов": 68, "Телефон 1": null, "Телефон 2": null, "Телефон 3": null, "Веб-сайт": "http://www.promenad42.ru", "ВКонтакте": null, "WhatsApp": null, "Telegram": null, "Широта": 55.343528, "Долгота": 86.09651, "2GIS URL": "https://2gis.com/firm/704215722862998" }, "geometry": { "type": "Point", "coordinates": [ 86.09651, 55.343528 ] } },
{ "type": "Feature", "properties": { "Наименование": "Променад 1", "Описание": "торгово-развлекательный комплекс", "Рубрики": "Торгово-развлекательные центры / Моллы", "Адрес": "проспект Ленина, 90/1", "Комментарий к адресу": null, "Почтовый индекс": 650066, "Микрорайон": null, "Район": "Центральный район", "Город": "Кемерово", "Округ": "Кемеровский городской округ", "Регион": "Кемеровская область — Кузбасс", "Страна": "Россия", "Часы работы": "Пн: 08:00-21:00; Вт: 08:00-21:00; Ср: 08:00-21:00; Чт: 08:00-21:00; Пт: 08:00-21:00; Сб: 08:00-21:00; Вс: 08:00-21:00 (администрация: пн-пт 9:00-17:30, перерыв: 12:30-13:00; сб, вс выходной)", "Часовой пояс": "+07:00", "Рейтинг": 3.0, "Количество отзывов": 38, "Телефон 1": null, "Телефон 2": null, "Телефон 3": null, "Веб-сайт": "http://promenad42.ru", "ВКонтакте": null, "WhatsApp": null, "Telegram": null, "Широта": 55.345262, "Долгота": 86.127422, "2GIS URL": "https://2gis.com/firm/704215722760983" }, "geometry": { "type": "Point", "coordinates": [ 86.127422, 55.345262 ] } },
{ "type": "Feature", "properties": { "Наименование": "Кемеровский центральный универмаг", "Описание": "торговый центр", "Рубрики": "Торгово-развлекательные центры / Моллы", "Адрес": "улица Кирова, 37", "Комментарий к адресу": "10 бутик; 4 этаж", "Почтовый индекс": 650000, "Микрорайон": null, "Район": "Центральный район", "Город": "Кемерово", "Округ": "Кемеровский городской округ", "Регион": "Кемеровская область — Кузбасс", "Страна": "Россия", "Часы работы": "Пн: 10:00-20:00; Вт: 10:00-20:00; Ср: 10:00-20:00; Чт: 10:00-20:00; Пт: 10:00-20:00; Сб: 10:00-20:00; Вс: 10:00-19:00", "Часовой пояс": "+07:00", "Рейтинг": 3.1, "Количество отзывов": 57, "Телефон 1": "89134080233 (отдел аренды помещений)", "Телефон 2": "89133054320 (администратор)", "Телефон 3": null, "Веб-сайт": "http://www.univermag.org", "ВКонтакте": null, "WhatsApp": null, "Telegram": null, "Широта": 55.356684, "Долгота": 86.074152, "2GIS URL": "https://2gis.com/firm/704215722757690" }, "geometry": { "type": "Point", "coordinates": [ 86.074152, 55.356684 ] } },
{ "type": "Feature", "properties": { "Наименование": "СитиПарк", "Описание": "торговый центр", "Рубрики": "Торгово-развлекательные центры / Моллы; Аренда помещений", "Адрес": "Кузнецкий проспект, 33а", "Комментарий к адресу": null, "Почтовый индекс": 650000, "Микрорайон": null, "Район": "Центральный район", "Город": "Кемерово", "Округ": "Кемеровский городской округ", "Регион": "Кемеровская область — Кузбасс", "Страна": "Россия", "Часы работы": "Пн: 10:00-21:00; Вт: 10:00-21:00; Ср: 10:00-21:00; Чт: 10:00-21:00; Пт: 10:00-21:00; Сб: 10:00-21:00; Вс: 10:00-21:00 (администрация: пн-пт 9:00-18:00; сб-вс выходной)", "Часовой пояс": "+07:00", "Рейтинг": 4.0, "Количество отзывов": 56, "Телефон 1": "83842650496", "Телефон 2": "83842330333 (отдел аренды)", "Телефон 3": "89029830333 (отдел аренды)", "Веб-сайт": null, "ВКонтакте": null, "WhatsApp": "https://wa.me/79029830333", "Telegram": null, "Широта": 55.357299, "Долгота": 86.066776, "2GIS URL": "https://2gis.com/firm/70000001020653052" }, "geometry": { "type": "Point", "coordinates": [ 86.066776, 55.357299 ] } },
{ "type": "Feature", "properties": { "Наименование": "Гринвич", "Описание": "торгово-развлекательный комплекс", "Рубрики": "Торгово-развлекательные центры / Моллы; Аренда помещений", "Адрес": "Молодёжный проспект, 2", "Комментарий к адресу": "3 этаж", "Почтовый индекс": 650070, "Микрорайон": "ФПК м-н", "Район": "Заводский район", "Город": "Кемерово", "Округ": "Кемеровский городской округ", "Регион": "Кемеровская область — Кузбасс", "Страна": "Россия", "Часы работы": "Пн: 10:00-21:00; Вт: 10:00-21:00; Ср: 10:00-21:00; Чт: 10:00-21:00; Пт: 10:00-21:00; Сб: 10:00-21:00; Вс: 10:00-21:00 (администрация: пн-чт 8:30-17:00, перерыв: 12:00-13:00; пт 8:30-16:00, перерыв: 12:00-13:00)", "Часовой пояс": "+07:00", "Рейтинг": 4.0, "Количество отзывов": 127, "Телефон 1": "83842311448 (администрация)", "Телефон 2": "83842379087 (отдел аренды)", "Телефон 3": "83842568003 (киноцентр)", "Веб-сайт": "http://grinvich.info", "ВКонтакте": "https://vk.com/grinvich.sale", "WhatsApp": null, "Telegram": null, "Широта": 55.328722, "Долгота": 86.123829, "2GIS URL": "https://2gis.com/firm/704215722796106" }, "geometry": { "type": "Point", "coordinates": [ 86.123829, 55.328722 ] } },
{ "type": "Feature", "properties": { "Наименование": "Дабл парк", "Описание": "торговый центр", "Рубрики": "Торгово-развлекательные центры / Моллы", "Адрес": "Молодёжный проспект, 14а", "Комментарий к адресу": null, "Почтовый индекс": 650070, "Микрорайон": "ФПК м-н", "Район": "Заводский район", "Город": "Кемерово", "Округ": "Кемеровский городской округ", "Регион": "Кемеровская область — Кузбасс", "Страна": "Россия", "Часы работы": "Пн: 09:00-21:00; Вт: 09:00-21:00; Ср: 09:00-21:00; Чт: 09:00-21:00; Пт: 09:00-21:00; Сб: 09:00-21:00; Вс: 09:00-21:00", "Часовой пояс": "+07:00", "Рейтинг": 3.7, "Количество отзывов": 6, "Телефон 1": "89133300164", "Телефон 2": null, "Телефон 3": null, "Веб-сайт": "http://doublepark.ru", "ВКонтакте": "https://vk.com/doublepark42", "WhatsApp": "https://wa.me/79133300164", "Telegram": null, "Широта": 55.325489, "Долгота": 86.115038, "2GIS URL": "https://2gis.com/firm/70000001060497643" }, "geometry": { "type": "Point", "coordinates": [ 86.115038, 55.325489 ] } },
{ "type": "Feature", "properties": { "Наименование": "Дабл парк", "Описание": "торговый центр", "Рубрики": "Торгово-развлекательные центры / Моллы", "Адрес": "Молодёжный проспект, 14", "Комментарий к адресу": null, "Почтовый индекс": 650070, "Микрорайон": "ФПК м-н", "Район": "Заводский район", "Город": "Кемерово", "Округ": "Кемеровский городской округ", "Регион": "Кемеровская область — Кузбасс", "Страна": "Россия", "Часы работы": "Пн: 07:30-23:00; Вт: 07:30-23:00; Ср: 07:30-23:00; Чт: 07:30-23:00; Пт: 07:30-23:00; Сб: 07:30-23:00; Вс: 07:30-23:00", "Часовой пояс": "+07:00", "Рейтинг": 3.1, "Количество отзывов": 25, "Телефон 1": "89134100307", "Телефон 2": null, "Телефон 3": null, "Веб-сайт": "http://doublepark.ru", "ВКонтакте": "https://vk.com/doublepark42", "WhatsApp": "https://wa.me/79133300164", "Telegram": null, "Широта": 55.325678, "Долгота": 86.115627, "2GIS URL": "https://2gis.com/firm/70000001060500662" }, "geometry": { "type": "Point", "coordinates": [ 86.115627, 55.325678 ] } },
{ "type": "Feature", "properties": { "Наименование": "Лотос", "Описание": null, "Рубрики": null, "Адрес": null, "Комментарий к адресу": null, "Почтовый индекс": null, "Микрорайон": null, "Район": null, "Город": null, "Округ": null, "Регион": null, "Страна": null, "Часы работы": null, "Часовой пояс": null, "Рейтинг": null, "Количество отзывов": null, "Телефон 1": null, "Телефон 2": null, "Телефон 3": null, "Веб-сайт": null, "ВКонтакте": null, "WhatsApp": null, "Telegram": null, "Широта": null, "Долгота": null, "2GIS URL": null }, "geometry": { "type": "Point", "coordinates": [ 86.10845742950778, 55.522054428393197 ] } },
{ "type": "Feature", "properties": { "Наименование": "Кедровый", "Описание": null, "Рубрики": null, "Адрес": null, "Комментарий к адресу": null, "Почтовый индекс": null, "Микрорайон": null, "Район": null, "Город": null, "Округ": null, "Регион": null, "Страна": null, "Часы работы": null, "Часовой пояс": null, "Рейтинг": null, "Количество отзывов": null, "Телефон 1": null, "Телефон 2": null, "Телефон 3": null, "Веб-сайт": null, "ВКонтакте": null, "WhatsApp": null, "Telegram": null, "Широта": null, "Долгота": null, "2GIS URL": null }, "geometry": { "type": "Point", "coordinates": [ 86.10631748357541, 55.522415623920217 ] } },
{ "type": "Feature", "properties": { "Наименование": "Агора", "Описание": null, "Рубрики": null, "Адрес": null, "Комментарий к адресу": null, "Почтовый индекс": null, "Микрорайон": null, "Район": null, "Город": null, "Округ": null, "Регион": null, "Страна": null, "Часы работы": null, "Часовой пояс": null, "Рейтинг": null, "Количество отзывов": null, "Телефон 1": null, "Телефон 2": null, "Телефон 3": null, "Веб-сайт": null, "ВКонтакте": null, "WhatsApp": null, "Telegram": null, "Широта": null, "Долгота": null, "2GIS URL": null }, "geometry": { "type": "Point", "coordinates": [ 86.110342152530748, 55.507042433203814 ] } },
{ "type": "Feature", "properties": { "Наименование": "7-я", "Описание": null, "Рубрики": null, "Адрес": null, "Комментарий к адресу": null, "Почтовый индекс": null, "Микрорайон": null, "Район": null, "Город": null, "Округ": null, "Регион": null, "Страна": null, "Часы работы": null, "Часовой пояс": null, "Рейтинг": null, "Количество отзывов": null, "Телефон 1": null, "Телефон 2": null, "Телефон 3": null, "Веб-сайт": null, "ВКонтакте": null, "WhatsApp": null, "Telegram": null, "Широта": null, "Долгота": null, "2GIS URL": null }, "geometry": { "type": "Point", "coordinates": [ 86.237384263799868, 55.419959064523276 ] } },
{ "type": "Feature", "properties": { "Наименование": "Кедровый", "Описание": null, "Рубрики": null, "Адрес": null, "Комментарий к адресу": null, "Почтовый индекс": null, "Микрорайон": null, "Район": null, "Город": null, "Округ": null, "Регион": null, "Страна": null, "Часы работы": null, "Часовой пояс": null, "Рейтинг": null, "Количество отзывов": null, "Телефон 1": null, "Телефон 2": null, "Телефон 3": null, "Веб-сайт": null, "ВКонтакте": null, "WhatsApp": null, "Telegram": null, "Широта": null, "Долгота": null, "2GIS URL": null }, "geometry": { "type": "Point", "coordinates": [ 86.233948570789181, 55.429908135196882 ] } },
{ "type": "Feature", "properties": { "Наименование": "Сокол", "Описание": null, "Рубрики": null, "Адрес": null, "Комментарий к адресу": null, "Почтовый индекс": null, "Микрорайон": null, "Район": null, "Город": null, "Округ": null, "Регион": null, "Страна": null, "Часы работы": null, "Часовой пояс": null, "Рейтинг": null, "Количество отзывов": null, "Телефон 1": null, "Телефон 2": null, "Телефон 3": null, "Веб-сайт": null, "ВКонтакте": null, "WhatsApp": null, "Telegram": null, "Широта": null, "Долгота": null, "2GIS URL": null }, "geometry": { "type": "Point", "coordinates": [ 86.171301162805875, 55.339092713888448 ] } },
{ "type": "Feature", "properties": { "Наименование": "Бульвар", "Описание": null, "Рубрики": null, "Адрес": null, "Комментарий к адресу": null, "Почтовый индекс": null, "Микрорайон": null, "Район": null, "Город": null, "Округ": null, "Регион": null, "Страна": null, "Часы работы": null, "Часовой пояс": null, "Рейтинг": null, "Количество отзывов": null, "Телефон 1": null, "Телефон 2": null, "Телефон 3": null, "Веб-сайт": null, "ВКонтакте": null, "WhatsApp": null, "Telegram": null, "Широта": null, "Долгота": null, "2GIS URL": null }, "geometry": { "type": "Point", "coordinates": [ 86.174874283536994, 55.336725582022019 ] } },
{ "type": "Feature", "properties": { "Наименование": "Галерея Гранд", "Описание": null, "Рубрики": null, "Адрес": null, "Комментарий к адресу": null, "Почтовый индекс": null, "Микрорайон": null, "Район": null, "Город": null, "Округ": null, "Регион": null, "Страна": null, "Часы работы": null, "Часовой пояс": null, "Рейтинг": null, "Количество отзывов": null, "Телефон 1": null, "Телефон 2": null, "Телефон 3": null, "Веб-сайт": null, "ВКонтакте": null, "WhatsApp": null, "Telegram": null, "Широта": null, "Долгота": null, "2GIS URL": null }, "geometry": { "type": "Point", "coordinates": [ 86.160542535549595, 55.348024013148908 ] } },
{ "type": "Feature", "properties": { "Наименование": "Семёрка", "Описание": null, "Рубрики": null, "Адрес": null, "Комментарий к адресу": null, "Почтовый индекс": null, "Микрорайон": null, "Район": null, "Город": null, "Округ": null, "Регион": null, "Страна": null, "Часы работы": null, "Часовой пояс": null, "Рейтинг": null, "Количество отзывов": null, "Телефон 1": null, "Телефон 2": null, "Телефон 3": null, "Веб-сайт": null, "ВКонтакте": null, "WhatsApp": null, "Telegram": null, "Широта": null, "Долгота": null, "2GIS URL": null }, "geometry": { "type": "Point", "coordinates": [ 86.064853577069343, 55.343938193653671 ] } },
{ "type": "Feature", "properties": { "Наименование": "Кузнецкий", "Описание": null, "Рубрики": null, "Адрес": null, "Комментарий к адресу": null, "Почтовый индекс": null, "Микрорайон": null, "Район": null, "Город": null, "Округ": null, "Регион": null, "Страна": null, "Часы работы": null, "Часовой пояс": null, "Рейтинг": null, "Количество отзывов": null, "Телефон 1": null, "Телефон 2": null, "Телефон 3": null, "Веб-сайт": null, "ВКонтакте": null, "WhatsApp": null, "Telegram": null, "Широта": null, "Долгота": null, "2GIS URL": null }, "geometry": { "type": "Point", "coordinates": [ 86.062733263668463, 55.345903011923667 ] } },
{ "type": "Feature", "properties": { "Наименование": "Арго", "Описание": null, "Рубрики": null, "Адрес": null, "Комментарий к адресу": null, "Почтовый индекс": null, "Микрорайон": null, "Район": null, "Город": null, "Округ": null, "Регион": null, "Страна": null, "Часы работы": null, "Часовой пояс": null, "Рейтинг": null, "Количество отзывов": null, "Телефон 1": null, "Телефон 2": null, "Телефон 3": null, "Веб-сайт": null, "ВКонтакте": null, "WhatsApp": null, "Telegram": null, "Широта": null, "Долгота": null, "2GIS URL": null }, "geometry": { "type": "Point", "coordinates": [ 86.061280456338253, 55.343324167955139 ] } },
{ "type": "Feature", "properties": { "Наименование": "Легенда", "Описание": null, "Рубрики": null, "Адрес": null, "Комментарий к адресу": null, "Почтовый индекс": null, "Микрорайон": null, "Район": null, "Город": null, "Округ": null, "Регион": null, "Страна": null, "Часы работы": null, "Часовой пояс": null, "Рейтинг": null, "Количество отзывов": null, "Телефон 1": null, "Телефон 2": null, "Телефон 3": null, "Веб-сайт": null, "ВКонтакте": null, "WhatsApp": null, "Telegram": null, "Широта": null, "Долгота": null, "2GIS URL": null }, "geometry": { "type": "Point", "coordinates": [ 86.062772528731443, 55.339963604172404 ] } },
{ "type": "Feature", "properties": { "Наименование": "Ретро", "Описание": null, "Рубрики": null, "Адрес": null, "Комментарий к адресу": null, "Почтовый индекс": null, "Микрорайон": null, "Район": null, "Город": null, "Округ": null, "Регион": null, "Страна": null, "Часы работы": null, "Часовой пояс": null, "Рейтинг": null, "Количество отзывов": null, "Телефон 1": null, "Телефон 2": null, "Телефон 3": null, "Веб-сайт": null, "ВКонтакте": null, "WhatsApp": null, "Telegram": null, "Широта": null, "Долгота": null, "2GIS URL": null }, "geometry": { "type": "Point", "coordinates": [ 86.075749632046112, 55.336323602185388 ] } },
{ "type": "Feature", "properties": { "Наименование": "Юг", "Описание": null, "Рубрики": null, "Адрес": null, "Комментарий к адресу": null, "Почтовый индекс": null, "Микрорайон": null, "Район": null, "Город": null, "Округ": null, "Регион": null, "Страна": null, "Часы работы": null, "Часовой пояс": null, "Рейтинг": null, "Количество отзывов": null, "Телефон 1": null, "Телефон 2": null, "Телефон 3": null, "Веб-сайт": null, "ВКонтакте": null, "WhatsApp": null, "Telegram": null, "Широта": null, "Долгота": null, "2GIS URL": null }, "geometry": { "type": "Point", "coordinates": [ 86.066483077183022, 55.327412001887964 ] } },
{ "type": "Feature", "properties": { "Наименование": "Лён", "Описание": null, "Рубрики": null, "Адрес": null, "Комментарий к адресу": null, "Почтовый индекс": null, "Микрорайон": null, "Район": null, "Город": null, "Округ": null, "Регион": null, "Страна": null, "Часы работы": null, "Часовой пояс": null, "Рейтинг": null, "Количество отзывов": null, "Телефон 1": null, "Телефон 2": null, "Телефон 3": null, "Веб-сайт": null, "ВКонтакте": null, "WhatsApp": null, "Telegram": null, "Широта": null, "Долгота": null, "2GIS URL": null }, "geometry": { "type": "Point", "coordinates": [ 86.114347188954596, 55.329422312341421 ] } },
{ "type": "Feature", "properties": { "Наименование": "Апельсин", "Описание": null, "Рубрики": null, "Адрес": null, "Комментарий к адресу": null, "Почтовый индекс": null, "Микрорайон": null, "Район": null, "Город": null, "Округ": null, "Регион": null, "Страна": null, "Часы работы": null, "Часовой пояс": null, "Рейтинг": null, "Количество отзывов": null, "Телефон 1": null, "Телефон 2": null, "Телефон 3": null, "Веб-сайт": null, "ВКонтакте": null, "WhatsApp": null, "Telegram": null, "Широта": null, "Долгота": null, "2GIS URL": null }, "geometry": { "type": "Point", "coordinates": [ 86.072824384854144, 55.384710509031805 ] } },
{ "type": "Feature", "properties": { "Наименование": "Север", "Описание": null, "Рубрики": null, "Адрес": null, "Комментарий к адресу": null, "Почтовый индекс": null, "Микрорайон": null, "Район": null, "Город": null, "Округ": null, "Регион": null, "Страна": null, "Часы работы": null, "Часовой пояс": null, "Рейтинг": null, "Количество отзывов": null, "Телефон 1": null, "Телефон 2": null, "Телефон 3": null, "Веб-сайт": null, "ВКонтакте": null, "WhatsApp": null, "Telegram": null, "Широта": null, "Долгота": null, "2GIS URL": null }, "geometry": { "type": "Point", "coordinates": [ 86.117419680132784, 55.401608545093751 ] } }
]
}
