{
"type": "FeatureCollection",
"name": "marketplace",
"crs": { "type": "name", "properties": { "name": "urn:ogc:def:crs:OGC:1.3:CRS84" } },
"features": [
{ "type": "Feature", "properties": { "Наименование": "Сельский центр фермерской торговли", "Описание": null, "Рубрики": "Рынки", "Адрес": "проспект Шахтёров, 111", "Комментарий к адресу": null, "Почтовый индекс": 650002, "Микрорайон": "Радуга м-н", "Район": "Рудничный район", "Город": "Кемерово", "Округ": "Кемеровский городской округ", "Регион": "Кемеровская область — Кузбасс", "Страна": "Россия", "Часы работы": "Пн: 09:00-20:00; Вт: 09:00-20:00; Ср: 09:00-20:00; Чт: 09:00-20:00; Пт: 09:00-20:00; Сб: 09:00-19:00; Вс: 09:00-18:00", "Часовой пояс": "+07:00", "Рейтинг": 2.3, "Количество отзывов": 80, "Телефон 1": "83842661375", "Телефон 2": "83842542929 (администрация)", "Веб-сайт": null, "ВКонтакте": null, "WhatsApp": null, "Широта": 55.408684, "Долгота": 86.123925, "2GIS URL": "https://2gis.com/firm/704215722900642" }, "geometry": { "type": "Point", "coordinates": [ 86.123925, 55.408684 ] } },
{ "type": "Feature", "properties": { "Наименование": "Дачный сезон", "Описание": "летняя ярмарка", "Рубрики": "Рынки", "Адрес": null, "Комментарий к адресу": null, "Почтовый индекс": 650042, "Микрорайон": null, "Район": "Рудничный район", "Город": "Кемерово", "Округ": "Кемеровский городской округ", "Регион": "Кемеровская область — Кузбасс", "Страна": "Россия", "Часы работы": null, "Часовой пояс": "+07:00", "Рейтинг": null, "Количество отзывов": null, "Телефон 1": null, "Телефон 2": null, "Веб-сайт": null, "ВКонтакте": null, "WhatsApp": "https://wa.me/79134151213", "Широта": 55.374569, "Долгота": 86.159589, "2GIS URL": "https://2gis.com/firm/70000001076728860" }, "geometry": { "type": "Point", "coordinates": [ 86.159589, 55.374569 ] } },
{ "type": "Feature", "properties": { "Наименование": "Сотка", "Описание": "оптовый рынок", "Рубрики": "Рынки", "Адрес": "Тухачевского, 100 блок 3", "Комментарий к адресу": null, "Почтовый индекс": 650070, "Микрорайон": null, "Район": "Ленинский район", "Город": "Кемерово", "Округ": "Кемеровский городской округ", "Регион": "Кемеровская область — Кузбасс", "Страна": "Россия", "Часы работы": "Пн: 07:00-16:00; Вт: 07:00-16:00; Ср: 07:00-16:00; Чт: 07:00-16:00; Пт: 07:00-16:00; Сб: 07:00-15:00; Вс: 09:00-14:00", "Часовой пояс": "+07:00", "Рейтинг": 3.8, "Количество отзывов": 16, "Телефон 1": null, "Телефон 2": null, "Веб-сайт": null, "ВКонтакте": null, "WhatsApp": null, "Широта": 55.317993, "Долгота": 86.141373, "2GIS URL": "https://2gis.com/firm/704215722977852" }, "geometry": { "type": "Point", "coordinates": [ 86.141373, 55.317993 ] } },
{ "type": "Feature", "properties": { "Наименование": "Дружба", "Описание": "рынок", "Рубрики": "Рынки", "Адрес": "Тухачевского, 58а блок 1", "Комментарий к адресу": null, "Почтовый индекс": 650070, "Микрорайон": null, "Район": "Ленинский район", "Город": "Кемерово", "Округ": "Кемеровский городской округ", "Регион": "Кемеровская область — Кузбасс", "Страна": "Россия", "Часы работы": "Пн: 09:00-17:00; Вт: 09:00-17:00; Ср: 09:00-17:00; Чт: 09:00-17:00; Пт: 09:00-17:00; Сб: 09:00-17:00; Вс: 09:00-17:00", "Часовой пояс": "+07:00", "Рейтинг": 3.2, "Количество отзывов": 45, "Телефон 1": "83842313519 (администрация)", "Телефон 2": "83842313025 (отдел бухгалтерии )", "Веб-сайт": null, "ВКонтакте": null, "WhatsApp": null, "Широта": 55.311184, "Долгота": 86.145033, "2GIS URL": "https://2gis.com/firm/704215722758214" }, "geometry": { "type": "Point", "coordinates": [ 86.145033, 55.311184 ] } },
{ "type": "Feature", "properties": { "Наименование": "Социальный", "Описание": "торговый комплекс", "Рубрики": "Рынки", "Адрес": "улица Сибиряков-Гвардейцев, 277", "Комментарий к адресу": null, "Почтовый индекс": 650036, "Микрорайон": null, "Район": "Ленинский район", "Город": "Кемерово", "Округ": "Кемеровский городской округ", "Регион": "Кемеровская область — Кузбасс", "Страна": "Россия", "Часы работы": "Пн: 09:00-19:00; Вт: 09:00-19:00; Ср: 09:00-19:00; Чт: 09:00-19:00; Пт: 09:00-19:00; Сб: 09:00-18:00; Вс: 09:00-17:30", "Часовой пояс": "+07:00", "Рейтинг": 2.8, "Количество отзывов": 18, "Телефон 1": "83842542929 (единая справочная)", "Телефон 2": null, "Веб-сайт": null, "ВКонтакте": null, "WhatsApp": null, "Широта": 55.337099, "Долгота": 86.145307, "2GIS URL": "https://2gis.com/firm/704215722758259" }, "geometry": { "type": "Point", "coordinates": [ 86.145307, 55.337099 ] } },
{ "type": "Feature", "properties": { "Наименование": "Сотка", "Описание": "оптовый рынок", "Рубрики": "Рынки", "Адрес": "Тухачевского, 100 блок 2", "Комментарий к адресу": "1 этаж", "Почтовый индекс": 650070, "Микрорайон": null, "Район": "Ленинский район", "Город": "Кемерово", "Округ": "Кемеровский городской округ", "Регион": "Кемеровская область — Кузбасс", "Страна": "Россия", "Часы работы": "Пн: 07:00-16:00; Вт: 07:00-16:00; Ср: 07:00-16:00; Чт: 07:00-16:00; Пт: 07:00-16:00; Сб: 07:00-15:00; Вс: 09:00-14:00", "Часовой пояс": "+07:00", "Рейтинг": 1.8, "Количество отзывов": 2, "Телефон 1": null, "Телефон 2": null, "Веб-сайт": null, "ВКонтакте": null, "WhatsApp": null, "Широта": 55.318825, "Долгота": 86.141027, "2GIS URL": "https://2gis.com/firm/704215723392044" }, "geometry": { "type": "Point", "coordinates": [ 86.141027, 55.318825 ] } },
{ "type": "Feature", "properties": { "Наименование": "Колос", "Описание": "рынок", "Рубрики": "Рынки", "Адрес": "Марковцева, 26", "Комментарий к адресу": null, "Почтовый индекс": 650003, "Микрорайон": null, "Район": "Ленинский район", "Город": "Кемерово", "Округ": "Кемеровский городской округ", "Регион": "Кемеровская область — Кузбасс", "Страна": "Россия", "Часы работы": "Вт: 08:30-18:00; Ср: 08:30-18:00; Чт: 08:30-18:00; Пт: 08:30-18:00; Сб: 08:30-18:00; Вс: 08:30-18:00 (администрация: вт-пт 8:30-17:30; сб 8:30-15:00, перерыв: 13:00-14:00; рынок: вт-вс 9:00-19:00)", "Часовой пояс": "+07:00", "Рейтинг": 3.2, "Количество отзывов": 15, "Телефон 1": "83842770816 (единая справочная - пн-пт 8:30-17:30)", "Телефон 2": "89236108827 (единая справочная - вт-пт 9:00-17:00)", "Веб-сайт": null, "ВКонтакте": "https://vk.com/club126864320", "WhatsApp": null, "Широта": 55.337059, "Долгота": 86.196664, "2GIS URL": "https://2gis.com/firm/704215723376691" }, "geometry": { "type": "Point", "coordinates": [ 86.196664, 55.337059 ] } },
{ "type": "Feature", "properties": { "Наименование": "Колос", "Описание": "рынок", "Рубрики": "Рынки", "Адрес": "Марковцева, 26а", "Комментарий к адресу": null, "Почтовый индекс": 650003, "Микрорайон": null, "Район": "Ленинский район", "Город": "Кемерово", "Округ": "Кемеровский городской округ", "Регион": "Кемеровская область — Кузбасс", "Страна": "Россия", "Часы работы": "Вт: 09:00-18:00; Ср: 09:00-18:00; Чт: 09:00-18:00; Пт: 09:00-18:00; Сб: 09:00-18:00; Вс: 09:00-18:00 (администрация: вт-пт 8:30-17:30; сб 8:30-15:00, перерыв: 13:00-14:00)", "Часовой пояс": "+07:00", "Рейтинг": 2.9, "Количество отзывов": 26, "Телефон 1": "83842770816 (единая справочная - пн-пт 8:30-17:30)", "Телефон 2": "89236108827 (единая справочная - вт-пт 9:00-17:00)", "Веб-сайт": null, "ВКонтакте": null, "WhatsApp": null, "Широта": 55.337774, "Долгота": 86.196304, "2GIS URL": "https://2gis.com/firm/704215722841587" }, "geometry": { "type": "Point", "coordinates": [ 86.196304, 55.337774 ] } },
{ "type": "Feature", "properties": { "Наименование": "Дружба", "Описание": "рынок", "Рубрики": "Рынки", "Адрес": "Тухачевского, 58а блок 5", "Комментарий к адресу": null, "Почтовый индекс": 650070, "Микрорайон": null, "Район": "Ленинский район", "Город": "Кемерово", "Округ": "Кемеровский городской округ", "Регион": "Кемеровская область — Кузбасс", "Страна": "Россия", "Часы работы": "Пн: 09:00-17:00; Вт: 09:00-17:00; Ср: 09:00-17:00; Чт: 09:00-17:00; Пт: 09:00-17:00; Сб: 09:00-17:00; Вс: 09:00-17:00", "Часовой пояс": "+07:00", "Рейтинг": 5.0, "Количество отзывов": 1, "Телефон 1": "83842313591 (единый номер: пн-вс 9:00:17:00)", "Телефон 2": "83842313063", "Веб-сайт": null, "ВКонтакте": null, "WhatsApp": null, "Широта": 55.311561, "Долгота": 86.146259, "2GIS URL": "https://2gis.com/firm/70000001039414264" }, "geometry": { "type": "Point", "coordinates": [ 86.146259, 55.311561 ] } },
{ "type": "Feature", "properties": { "Наименование": "Октябрьский", "Описание": "экомаркет", "Рубрики": "Рынки", "Адрес": "Октябрьский проспект, 34", "Комментарий к адресу": "-1 этаж", "Почтовый индекс": 650066, "Микрорайон": null, "Район": "Центральный район", "Город": "Кемерово", "Округ": "Кемеровский городской округ", "Регион": "Кемеровская область — Кузбасс", "Страна": "Россия", "Часы работы": "Пн: 10:00-21:00; Вт: 10:00-21:00; Ср: 10:00-21:00; Чт: 10:00-21:00; Пт: 10:00-21:00; Сб: 10:00-21:00; Вс: 10:00-21:00", "Часовой пояс": "+07:00", "Рейтинг": 5.0, "Количество отзывов": 1, "Телефон 1": null, "Телефон 2": null, "Веб-сайт": null, "ВКонтакте": null, "WhatsApp": null, "Широта": 55.349941, "Долгота": 86.13321, "2GIS URL": "https://2gis.com/firm/70000001077064080" }, "geometry": { "type": "Point", "coordinates": [ 86.13321, 55.349941 ] } },
{ "type": "Feature", "properties": { "Наименование": "Дружба", "Описание": "рынок", "Рубрики": "Рынки", "Адрес": "Тухачевского, 58а блок 3", "Комментарий к адресу": null, "Почтовый индекс": 650070, "Микрорайон": null, "Район": "Ленинский район", "Город": "Кемерово", "Округ": "Кемеровский городской округ", "Регион": "Кемеровская область — Кузбасс", "Страна": "Россия", "Часы работы": "Пн: 09:00-17:00; Вт: 09:00-17:00; Ср: 09:00-17:00; Чт: 09:00-17:00; Пт: 09:00-17:00; Сб: 09:00-17:00; Вс: 09:00-17:00", "Часовой пояс": "+07:00", "Рейтинг": null, "Количество отзывов": null, "Телефон 1": "83842313591 (единый номер: пн-вс 9:00:17:00)", "Телефон 2": "83842313063", "Веб-сайт": null, "ВКонтакте": null, "WhatsApp": null, "Широта": 55.311154, "Долгота": 86.14628, "2GIS URL": "https://2gis.com/firm/70000001039411789" }, "geometry": { "type": "Point", "coordinates": [ 86.14628, 55.311154 ] } },
{ "type": "Feature", "properties": { "Наименование": "Дружба", "Описание": "рынок", "Рубрики": "Рынки", "Адрес": "Тухачевского, 58а блок 6", "Комментарий к адресу": null, "Почтовый индекс": 650070, "Микрорайон": null, "Район": "Ленинский район", "Город": "Кемерово", "Округ": "Кемеровский городской округ", "Регион": "Кемеровская область — Кузбасс", "Страна": "Россия", "Часы работы": "Пн: 09:00-17:00; Вт: 09:00-17:00; Ср: 09:00-17:00; Чт: 09:00-17:00; Пт: 09:00-17:00; Сб: 09:00-17:00; Вс: 09:00-17:00", "Часовой пояс": "+07:00", "Рейтинг": null, "Количество отзывов": null, "Телефон 1": "83842313591 (единый номер: пн-вс 9:00:17:00)", "Телефон 2": "83842313063", "Веб-сайт": null, "ВКонтакте": null, "WhatsApp": null, "Широта": 55.311714, "Долгота": 86.146183, "2GIS URL": "https://2gis.com/firm/70000001039411782" }, "geometry": { "type": "Point", "coordinates": [ 86.146183, 55.311714 ] } },
{ "type": "Feature", "properties": { "Наименование": "Дружба", "Описание": "рынок", "Рубрики": "Рынки", "Адрес": "Тухачевского, 58а блок 2", "Комментарий к адресу": null, "Почтовый индекс": 650070, "Микрорайон": null, "Район": "Ленинский район", "Город": "Кемерово", "Округ": "Кемеровский городской округ", "Регион": "Кемеровская область — Кузбасс", "Страна": "Россия", "Часы работы": "Пн: 09:00-17:00; Вт: 09:00-17:00; Ср: 09:00-17:00; Чт: 09:00-17:00; Пт: 09:00-17:00; Сб: 09:00-17:00; Вс: 09:00-17:00", "Часовой пояс": "+07:00", "Рейтинг": 1.0, "Количество отзывов": 1, "Телефон 1": "83842313591 (единый номер: пн-вс 9:00:17:00)", "Телефон 2": "83842313063", "Веб-сайт": null, "ВКонтакте": null, "WhatsApp": null, "Широта": 55.311134, "Долгота": 86.145914, "2GIS URL": "https://2gis.com/firm/70000001039414249" }, "geometry": { "type": "Point", "coordinates": [ 86.145914, 55.311134 ] } },
{ "type": "Feature", "properties": { "Наименование": "Дружба", "Описание": "рынок", "Рубрики": "Рынки", "Адрес": "Тухачевского, 58а блок 4", "Комментарий к адресу": null, "Почтовый индекс": 650070, "Микрорайон": null, "Район": "Ленинский район", "Город": "Кемерово", "Округ": "Кемеровский городской округ", "Регион": "Кемеровская область — Кузбасс", "Страна": "Россия", "Часы работы": "Пн: 09:00-17:00; Вт: 09:00-17:00; Ср: 09:00-17:00; Чт: 09:00-17:00; Пт: 09:00-17:00; Сб: 09:00-17:00; Вс: 09:00-17:00", "Часовой пояс": "+07:00", "Рейтинг": null, "Количество отзывов": null, "Телефон 1": "83842313591 (единый номер: пн-вс 9:00:17:00)", "Телефон 2": "83842313063", "Веб-сайт": null, "ВКонтакте": null, "WhatsApp": null, "Широта": 55.311415, "Долгота": 86.146265, "2GIS URL": "https://2gis.com/firm/70000001039411784" }, "geometry": { "type": "Point", "coordinates": [ 86.146265, 55.311415 ] } },
{ "type": "Feature", "properties": { "Наименование": "Базарчик у дома", "Описание": null, "Рубрики": "Рынки", "Адрес": "проспект Химиков, 39", "Комментарий к адресу": "1 этаж", "Почтовый индекс": 650003, "Микрорайон": null, "Район": "Ленинский район", "Город": "Кемерово", "Округ": "Кемеровский городской округ", "Регион": "Кемеровская область — Кузбасс", "Страна": "Россия", "Часы работы": "Пн: 09:00-21:00; Вт: 09:00-21:00; Ср: 09:00-21:00; Чт: 09:00-21:00; Пт: 09:00-21:00; Сб: 09:00-21:00; Вс: 09:00-21:00", "Часовой пояс": "+07:00", "Рейтинг": 1.5, "Количество отзывов": 4, "Телефон 1": "89029830333", "Телефон 2": "83842330333", "Веб-сайт": null, "ВКонтакте": null, "WhatsApp": null, "Широта": 55.343825, "Долгота": 86.181701, "2GIS URL": "https://2gis.com/firm/70000001066570862" }, "geometry": { "type": "Point", "coordinates": [ 86.181701, 55.343825 ] } },
{ "type": "Feature", "properties": { "Наименование": "Сотка", "Описание": "оптовый рынок", "Рубрики": "Рынки", "Адрес": "Тухачевского, 100 блок 6", "Комментарий к адресу": "1 этаж", "Почтовый индекс": 650070, "Микрорайон": null, "Район": "Ленинский район", "Город": "Кемерово", "Округ": "Кемеровский городской округ", "Регион": "Кемеровская область — Кузбасс", "Страна": "Россия", "Часы работы": "Пн: 07:00-16:00; Вт: 07:00-16:00; Ср: 07:00-16:00; Чт: 07:00-16:00; Пт: 07:00-16:00; Сб: 07:00-15:00; Вс: 09:00-14:00", "Часовой пояс": "+07:00", "Рейтинг": 5.0, "Количество отзывов": 1, "Телефон 1": null, "Телефон 2": null, "Веб-сайт": null, "ВКонтакте": null, "WhatsApp": null, "Широта": 55.317295, "Долгота": 86.14049, "2GIS URL": "https://2gis.com/firm/704215723392045" }, "geometry": { "type": "Point", "coordinates": [ 86.14049, 55.317295 ] } },
{ "type": "Feature", "properties": { "Наименование": "Социальный", "Описание": "торговый комплекс", "Рубрики": "Рынки", "Адрес": "улица Сибиряков-Гвардейцев, 277 к1", "Комментарий к адресу": null, "Почтовый индекс": 650036, "Микрорайон": null, "Район": "Ленинский район", "Город": "Кемерово", "Округ": "Кемеровский городской округ", "Регион": "Кемеровская область — Кузбасс", "Страна": "Россия", "Часы работы": "Пн: 09:00-19:00; Вт: 09:00-19:00; Ср: 09:00-19:00; Чт: 09:00-19:00; Пт: 09:00-19:00; Сб: 09:00-18:00; Вс: 09:00-17:30", "Часовой пояс": "+07:00", "Рейтинг": 2.1, "Количество отзывов": 12, "Телефон 1": "83842542929 (единая справочная)", "Телефон 2": null, "Веб-сайт": null, "ВКонтакте": null, "WhatsApp": null, "Широта": 55.336846, "Долгота": 86.145764, "2GIS URL": "https://2gis.com/firm/704216723135344" }, "geometry": { "type": "Point", "coordinates": [ 86.145764, 55.336846 ] } },
{ "type": "Feature", "properties": { "Наименование": "Дружба", "Описание": "рынок", "Рубрики": "Рынки", "Адрес": "Тухачевского, 58а блок 7", "Комментарий к адресу": null, "Почтовый индекс": 650070, "Микрорайон": null, "Район": "Ленинский район", "Город": "Кемерово", "Округ": "Кемеровский городской округ", "Регион": "Кемеровская область — Кузбасс", "Страна": "Россия", "Часы работы": "Пн: 09:00-17:00; Вт: 09:00-17:00; Ср: 09:00-17:00; Чт: 09:00-17:00; Пт: 09:00-17:00; Сб: 09:00-17:00; Вс: 09:00-17:00", "Часовой пояс": "+07:00", "Рейтинг": 5.0, "Количество отзывов": 2, "Телефон 1": "83842313591 (единый номер: пн-вс 9:00:17:00)", "Телефон 2": "83842313063", "Веб-сайт": null, "ВКонтакте": null, "WhatsApp": null, "Широта": 55.311783, "Долгота": 86.146008, "2GIS URL": "https://2gis.com/firm/70000001039414203" }, "geometry": { "type": "Point", "coordinates": [ 86.146008, 55.311783 ] } },
{ "type": "Feature", "properties": { "Наименование": "Щегловский базар", "Описание": null, "Рубрики": "Рынки", "Адрес": "Кузнецкий проспект, 33/1", "Комментарий к адресу": "1 этаж", "Почтовый индекс": 650000, "Микрорайон": null, "Район": "Центральный район", "Город": "Кемерово", "Округ": "Кемеровский городской округ", "Регион": "Кемеровская область — Кузбасс", "Страна": "Россия", "Часы работы": "Пн: 09:00-21:00; Вт: 09:00-21:00; Ср: 09:00-21:00; Чт: 09:00-21:00; Пт: 09:00-21:00; Сб: 09:00-21:00; Вс: 09:00-21:00", "Часовой пояс": "+07:00", "Рейтинг": 3.0, "Количество отзывов": 138, "Телефон 1": "83842334848 (отдел аренды)", "Телефон 2": "89050667244 (администрация)", "Веб-сайт": "http://42bazar.ru", "ВКонтакте": "https://vk.com/shcheglovsky", "WhatsApp": null, "Широта": 55.358435, "Долгота": 86.065988, "2GIS URL": "https://2gis.com/firm/70000001028143067" }, "geometry": { "type": "Point", "coordinates": [ 86.065988, 55.358435 ] } },
{ "type": "Feature", "properties": { "Наименование": "Кузбасские продукты", "Описание": "центральный крытый рынок", "Рубрики": "Рынки", "Адрес": "Коломейцева, 10", "Комментарий к адресу": null, "Почтовый индекс": 650000, "Микрорайон": null, "Район": "Центральный район", "Город": "Кемерово", "Округ": "Кемеровский городской округ", "Регион": "Кемеровская область — Кузбасс", "Страна": "Россия", "Часы работы": "Пн: 08:00-18:00; Вт: 08:00-18:00; Ср: 08:00-18:00; Чт: 08:00-18:00; Пт: 08:00-18:00; Сб: 08:00-18:00; Вс: 08:00-18:00 (администрация: вт-вс 9:00-18:00, перерыв: 13:00-14:00)", "Часовой пояс": "+07:00", "Рейтинг": 3.1, "Количество отзывов": 26, "Телефон 1": null, "Телефон 2": null, "Веб-сайт": null, "ВКонтакте": null, "WhatsApp": null, "Широта": 55.351332, "Долгота": 86.087516, "2GIS URL": "https://2gis.com/firm/704215722758167" }, "geometry": { "type": "Point", "coordinates": [ 86.087516, 55.351332 ] } },
{ "type": "Feature", "properties": { "Наименование": "Губернский сельский рынок", "Описание": null, "Рубрики": "Рынки", "Адрес": "переулок Щетинкина, 16", "Комментарий к адресу": null, "Почтовый индекс": 650010, "Микрорайон": null, "Район": "Заводский район", "Город": "Кемерово", "Округ": "Кемеровский городской округ", "Регион": "Кемеровская область — Кузбасс", "Страна": "Россия", "Часы работы": "Вт: 09:00-17:00; Ср: 09:00-17:00; Чт: 09:00-17:00; Пт: 09:00-17:00; Сб: 09:00-17:00; Вс: 09:00-17:00", "Часовой пояс": "+07:00", "Рейтинг": 3.3, "Количество отзывов": 40, "Телефон 1": "83842750369", "Телефон 2": "83842755866", "Веб-сайт": null, "ВКонтакте": "https://vk.com/g.rynok", "WhatsApp": null, "Широта": 55.359115, "Долгота": 86.057551, "2GIS URL": "https://2gis.com/firm/704215722758775" }, "geometry": { "type": "Point", "coordinates": [ 86.057551, 55.359115 ] } },
{ "type": "Feature", "properties": { "Наименование": "Щегловский базар", "Описание": null, "Рубрики": "Рынки", "Адрес": "Автозаводская улица, 6", "Комментарий к адресу": null, "Почтовый индекс": 650055, "Микрорайон": null, "Район": "Заводский район", "Город": "Кемерово", "Округ": "Кемеровский городской округ", "Регион": "Кемеровская область — Кузбасс", "Страна": "Россия", "Часы работы": "Пн: 09:00-21:00; Вт: 09:00-21:00; Ср: 09:00-21:00; Чт: 09:00-21:00; Пт: 09:00-21:00; Сб: 09:00-21:00; Вс: 09:00-21:00", "Часовой пояс": "+07:00", "Рейтинг": 2.3, "Количество отзывов": 19, "Телефон 1": "83842334848 (отдел аренды)", "Телефон 2": "89050776433", "Веб-сайт": "http://42bazar.ru", "ВКонтакте": "https://vk.com/shcheglovsky", "WhatsApp": null, "Широта": 55.326731, "Долгота": 86.071299, "2GIS URL": "https://2gis.com/firm/70000001047150722" }, "geometry": { "type": "Point", "coordinates": [ 86.071299, 55.326731 ] } },
{ "type": "Feature", "properties": { "Наименование": "Фермерские продукты Кузбасса", "Описание": "торговый комплекс", "Рубрики": "Рынки", "Адрес": "Молодёжный проспект, 9/2", "Комментарий к адресу": null, "Почтовый индекс": 650070, "Микрорайон": "ФПК м-н", "Район": "Заводский район", "Город": "Кемерово", "Округ": "Кемеровский городской округ", "Регион": "Кемеровская область — Кузбасс", "Страна": "Россия", "Часы работы": "Пн: 08:00-23:00; Вт: 08:00-23:00; Ср: 08:00-23:00; Чт: 08:00-23:00; Пт: 08:00-23:00; Сб: 08:00-23:00; Вс: 08:00-23:00", "Часовой пояс": "+07:00", "Рейтинг": null, "Количество отзывов": null, "Телефон 1": "89050797888", "Телефон 2": null, "Веб-сайт": null, "ВКонтакте": null, "WhatsApp": null, "Широта": 55.326319, "Долгота": 86.124614, "2GIS URL": "https://2gis.com/firm/70000001023728936" }, "geometry": { "type": "Point", "coordinates": [ 86.124614, 55.326319 ] } }
]
}
