{
"type": "FeatureCollection",
"name": "park",
"crs": { "type": "name", "properties": { "name": "urn:ogc:def:crs:OGC:1.3:CRS84" } },
"features": [
{ "type": "Feature", "properties": { "full_id": "r16720159", "osm_id": "16720159", "osm_type": "relation", "leisure": "park", "natural": null, "operator": null, "barrier": null, "website": null, "opening_hours": null, "official_name": null, "alt_name": null, "place": null, "name:en": null, "tourism": null, "type": "multipolygon", "name": "Подарок", "landuse": "grass" }, "geometry": { "type": "MultiPolygon", "coordinates": [ [ [ [ 86.107073, 55.3276263 ], [ 86.1070855, 55.3274958 ], [ 86.1070921, 55.3273784 ], [ 86.107288, 55.3273798 ], [ 86.1078484, 55.3273837 ], [ 86.1078439, 55.3271783 ], [ 86.1076063, 55.3271742 ], [ 86.1076082, 55.3270655 ], [ 86.107608, 55.3270123 ], [ 86.1076079, 55.3269748 ], [ 86.1075915, 55.3269831 ], [ 86.1073415, 55.3271097 ], [ 86.1071925, 55.3271851 ], [ 86.1066294, 55.3274801 ], [ 86.1065408, 55.3275265 ], [ 86.1065371, 55.3275982 ], [ 86.106624, 55.3276386 ], [ 86.107073, 55.3276263 ] ] ] ] } },
{ "type": "Feature", "properties": { "full_id": "w34085469", "osm_id": "34085469", "osm_type": "way", "leisure": "park", "natural": null, "operator": null, "barrier": null, "website": null, "opening_hours": null, "official_name": null, "alt_name": null, "place": null, "name:en": null, "tourism": "theme_park", "type": null, "name": "Парк «Антошка»", "landuse": null }, "geometry": { "type": "MultiPolygon", "coordinates": [ [ [ [ 86.089316, 55.3447084 ], [ 86.0909581, 55.3469604 ], [ 86.0933524, 55.3463779 ], [ 86.0932249, 55.3462639 ], [ 86.0931674, 55.3461753 ], [ 86.0931305, 55.346058 ], [ 86.0917751, 55.3453051 ], [ 86.0916738, 55.3451576 ], [ 86.0916048, 55.3449652 ], [ 86.0915524, 55.3446977 ], [ 86.089316, 55.3447084 ] ] ] ] } },
{ "type": "Feature", "properties": { "full_id": "w34085494", "osm_id": "34085494", "osm_type": "way", "leisure": "park", "natural": null, "operator": null, "barrier": null, "website": null, "opening_hours": null, "official_name": null, "alt_name": null, "place": null, "name:en": "Zhukov park", "tourism": null, "type": null, "name": "Парк Жукова", "landuse": null }, "geometry": { "type": "MultiPolygon", "coordinates": [ [ [ [ 86.0912979, 55.3471684 ], [ 86.0913615, 55.3474908 ], [ 86.0918781, 55.3478989 ], [ 86.093819, 55.3494147 ], [ 86.09595, 55.3508692 ], [ 86.0983124, 55.3496737 ], [ 86.0981931, 55.3496377 ], [ 86.0980645, 55.3496053 ], [ 86.0977643, 55.3495587 ], [ 86.0973705, 55.3494333 ], [ 86.0968768, 55.3492253 ], [ 86.0961878, 55.348907 ], [ 86.0958009, 55.3486987 ], [ 86.0949503, 55.3480927 ], [ 86.0946221, 55.3477886 ], [ 86.0935508, 55.346619 ], [ 86.0912979, 55.3471684 ] ] ] ] } },
{ "type": "Feature", "properties": { "full_id": "w75661351", "osm_id": "75661351", "osm_type": "way", "leisure": "park", "natural": null, "operator": null, "barrier": null, "website": null, "opening_hours": null, "official_name": null, "alt_name": null, "place": null, "name:en": null, "tourism": null, "type": null, "name": null, "landuse": null }, "geometry": { "type": "MultiPolygon", "coordinates": [ [ [ [ 86.0910802, 55.3544457 ], [ 86.0907107, 55.3539144 ], [ 86.0920826, 55.3532471 ], [ 86.0924106, 55.3535186 ], [ 86.0926759, 55.3540411 ], [ 86.0926804, 55.3542966 ], [ 86.0925279, 55.3543755 ], [ 86.0914981, 55.3543709 ], [ 86.0910802, 55.3544457 ] ] ] ] } },
{ "type": "Feature", "properties": { "full_id": "w75661359", "osm_id": "75661359", "osm_type": "way", "leisure": "park", "natural": null, "operator": null, "barrier": null, "website": null, "opening_hours": null, "official_name": null, "alt_name": null, "place": null, "name:en": null, "tourism": null, "type": null, "name": null, "landuse": null }, "geometry": { "type": "MultiPolygon", "coordinates": [ [ [ [ 86.0815167, 55.3565564 ], [ 86.0819082, 55.3564555 ], [ 86.0838937, 55.3587086 ], [ 86.0835175, 55.358824 ], [ 86.0815167, 55.3565564 ] ] ] ] } },
{ "type": "Feature", "properties": { "full_id": "w75661370", "osm_id": "75661370", "osm_type": "way", "leisure": "park", "natural": null, "operator": null, "barrier": null, "website": null, "opening_hours": null, "official_name": null, "alt_name": null, "place": null, "name:en": null, "tourism": null, "type": null, "name": null, "landuse": null }, "geometry": { "type": "MultiPolygon", "coordinates": [ [ [ [ 86.0837888, 55.3590746 ], [ 86.0841953, 55.3589493 ], [ 86.0851909, 55.3600646 ], [ 86.0848019, 55.3601843 ], [ 86.0837888, 55.3590746 ] ] ] ] } },
{ "type": "Feature", "properties": { "full_id": "w75664107", "osm_id": "75664107", "osm_type": "way", "leisure": "park", "natural": null, "operator": null, "barrier": null, "website": null, "opening_hours": null, "official_name": null, "alt_name": null, "place": null, "name:en": null, "tourism": null, "type": null, "name": null, "landuse": null }, "geometry": { "type": "MultiPolygon", "coordinates": [ [ [ [ 86.0761375, 55.357883 ], [ 86.0763947, 55.3578177 ], [ 86.0778636, 55.3599142 ], [ 86.0776029, 55.3599781 ], [ 86.0761375, 55.357883 ] ] ] ] } },
{ "type": "Feature", "properties": { "full_id": "w75681978", "osm_id": "75681978", "osm_type": "way", "leisure": "park", "natural": null, "operator": null, "barrier": null, "website": null, "opening_hours": null, "official_name": null, "alt_name": null, "place": null, "name:en": null, "tourism": null, "type": null, "name": null, "landuse": null }, "geometry": { "type": "MultiPolygon", "coordinates": [ [ [ [ 86.1683912, 55.3410182 ], [ 86.1697675, 55.3414248 ], [ 86.1698901, 55.3412916 ], [ 86.1708593, 55.3402386 ], [ 86.1711275, 55.3399472 ], [ 86.172455, 55.3385048 ], [ 86.1731157, 55.3377869 ], [ 86.1732538, 55.3376368 ], [ 86.173715, 55.3371356 ], [ 86.173986, 55.3368413 ], [ 86.1750161, 55.3357219 ], [ 86.1760936, 55.3345512 ], [ 86.176949, 55.3336219 ], [ 86.1770165, 55.3335485 ], [ 86.1756489, 55.3331207 ], [ 86.1755805, 55.3331952 ], [ 86.1753293, 55.3334686 ], [ 86.1748709, 55.3339673 ], [ 86.1745517, 55.3343147 ], [ 86.1740093, 55.3349049 ], [ 86.1736708, 55.3352733 ], [ 86.1731364, 55.3358548 ], [ 86.1729559, 55.3360512 ], [ 86.1727724, 55.3362509 ], [ 86.1718663, 55.3372369 ], [ 86.171728, 55.3373874 ], [ 86.1710282, 55.3381489 ], [ 86.1697487, 55.3395411 ], [ 86.1696493, 55.3396493 ], [ 86.168508, 55.3408902 ], [ 86.1683912, 55.3410182 ] ] ] ] } },
{ "type": "Feature", "properties": { "full_id": "w75681979", "osm_id": "75681979", "osm_type": "way", "leisure": "park", "natural": null, "operator": null, "barrier": null, "website": null, "opening_hours": null, "official_name": null, "alt_name": null, "place": null, "name:en": null, "tourism": null, "type": null, "name": null, "landuse": null }, "geometry": { "type": "MultiPolygon", "coordinates": [ [ [ [ 86.1607197, 55.3493701 ], [ 86.1607982, 55.3493235 ], [ 86.1609113, 55.3493051 ], [ 86.1609917, 55.3492925 ], [ 86.1610964, 55.3492905 ], [ 86.1612694, 55.3492945 ], [ 86.1614199, 55.3493923 ], [ 86.1616037, 55.3494608 ], [ 86.1618083, 55.3494988 ], [ 86.1619336, 55.3495377 ], [ 86.162011, 55.3496031 ], [ 86.1620566, 55.3497679 ], [ 86.1620219, 55.3498363 ], [ 86.1590083, 55.3530407 ], [ 86.1576514, 55.3526357 ], [ 86.1607197, 55.3493701 ] ] ] ] } },
{ "type": "Feature", "properties": { "full_id": "w75681980", "osm_id": "75681980", "osm_type": "way", "leisure": "park", "natural": null, "operator": null, "barrier": null, "website": null, "opening_hours": null, "official_name": null, "alt_name": null, "place": null, "name:en": null, "tourism": null, "type": null, "name": null, "landuse": null }, "geometry": { "type": "MultiPolygon", "coordinates": [ [ [ [ 86.1617685, 55.3482578 ], [ 86.1617643, 55.3483527 ], [ 86.1617938, 55.3484091 ], [ 86.1618662, 55.3484991 ], [ 86.1619969, 55.3485675 ], [ 86.1621464, 55.348579 ], [ 86.1622896, 55.3486058 ], [ 86.1624219, 55.348647 ], [ 86.1627551, 55.3487022 ], [ 86.1629019, 55.3487146 ], [ 86.1630129, 55.3487063 ], [ 86.1631432, 55.3486399 ], [ 86.1670503, 55.3443811 ], [ 86.1696943, 55.3415014 ], [ 86.1683157, 55.3410971 ], [ 86.1617685, 55.3482578 ] ] ] ] } },
{ "type": "Feature", "properties": { "full_id": "w75681981", "osm_id": "75681981", "osm_type": "way", "leisure": "park", "natural": null, "operator": null, "barrier": null, "website": null, "opening_hours": null, "official_name": null, "alt_name": null, "place": null, "name:en": null, "tourism": null, "type": null, "name": null, "landuse": null }, "geometry": { "type": "MultiPolygon", "coordinates": [ [ [ [ 86.1575893, 55.3527001 ], [ 86.1589437, 55.3531047 ], [ 86.1587608, 55.3532876 ], [ 86.1560917, 55.3561584 ], [ 86.1558514, 55.3563463 ], [ 86.1556917, 55.3564477 ], [ 86.1555765, 55.3564866 ], [ 86.1554509, 55.3564979 ], [ 86.1553184, 55.3564959 ], [ 86.155247, 55.3564456 ], [ 86.1551632, 55.356402 ], [ 86.155069, 55.3563659 ], [ 86.1549663, 55.3563382 ], [ 86.1548575, 55.3563195 ], [ 86.154745, 55.3563103 ], [ 86.1546314, 55.3563106 ], [ 86.1545191, 55.3563206 ], [ 86.1545737, 55.3560986 ], [ 86.154652, 55.3559254 ], [ 86.1560385, 55.3543997 ], [ 86.1575893, 55.3527001 ] ] ] ] } },
{ "type": "Feature", "properties": { "full_id": "w75684502", "osm_id": "75684502", "osm_type": "way", "leisure": "park", "natural": null, "operator": null, "barrier": null, "website": null, "opening_hours": null, "official_name": null, "alt_name": null, "place": null, "name:en": null, "tourism": null, "type": null, "name": null, "landuse": null }, "geometry": { "type": "MultiPolygon", "coordinates": [ [ [ [ 86.0778234, 55.3502927 ], [ 86.078251, 55.3501926 ], [ 86.0813726, 55.3546364 ], [ 86.0810335, 55.3547145 ], [ 86.0778234, 55.3502927 ] ] ] ] } },
{ "type": "Feature", "properties": { "full_id": "w75717280", "osm_id": "75717280", "osm_type": "way", "leisure": "park", "natural": null, "operator": null, "barrier": null, "website": null, "opening_hours": null, "official_name": null, "alt_name": null, "place": "square", "name:en": null, "tourism": null, "type": null, "name": "площадь Волкова", "landuse": null }, "geometry": { "type": "MultiPolygon", "coordinates": [ [ [ [ 86.0752259, 55.3485586 ], [ 86.0752095, 55.347795 ], [ 86.0764397, 55.3478007 ], [ 86.0764252, 55.3484682 ], [ 86.0752259, 55.3485586 ] ] ] ] } },
{ "type": "Feature", "properties": { "full_id": "w75717282", "osm_id": "75717282", "osm_type": "way", "leisure": "park", "natural": null, "operator": null, "barrier": null, "website": null, "opening_hours": null, "official_name": null, "alt_name": null, "place": null, "name:en": null, "tourism": null, "type": null, "name": null, "landuse": null }, "geometry": { "type": "MultiPolygon", "coordinates": [ [ [ [ 86.076725, 55.3486829 ], [ 86.0770531, 55.3486085 ], [ 86.0779591, 55.3498986 ], [ 86.077631, 55.3499731 ], [ 86.076725, 55.3486829 ] ] ] ] } },
{ "type": "Feature", "properties": { "full_id": "w75802252", "osm_id": "75802252", "osm_type": "way", "leisure": "park", "natural": null, "operator": null, "barrier": null, "website": null, "opening_hours": null, "official_name": null, "alt_name": null, "place": null, "name:en": null, "tourism": null, "type": null, "name": null, "landuse": null }, "geometry": { "type": "MultiPolygon", "coordinates": [ [ [ [ 86.0924812, 55.3528995 ], [ 86.0930257, 55.3533334 ], [ 86.0938017, 55.3531653 ], [ 86.0955776, 55.3527804 ], [ 86.0953474, 55.3524839 ], [ 86.0959198, 55.3523403 ], [ 86.0958411, 55.3522527 ], [ 86.0952923, 55.3518565 ], [ 86.0950476, 55.3516731 ], [ 86.0924812, 55.3528995 ] ] ] ] } },
{ "type": "Feature", "properties": { "full_id": "w75802258", "osm_id": "75802258", "osm_type": "way", "leisure": "park", "natural": null, "operator": null, "barrier": null, "website": null, "opening_hours": null, "official_name": null, "alt_name": null, "place": null, "name:en": null, "tourism": null, "type": null, "name": null, "landuse": null }, "geometry": { "type": "MultiPolygon", "coordinates": [ [ [ [ 86.0871557, 55.3569567 ], [ 86.087496, 55.3569601 ], [ 86.0874796, 55.3574888 ], [ 86.0871393, 55.3574854 ], [ 86.0871557, 55.3569567 ] ] ] ] } },
{ "type": "Feature", "properties": { "full_id": "w75802259", "osm_id": "75802259", "osm_type": "way", "leisure": "park", "natural": null, "operator": null, "barrier": null, "website": null, "opening_hours": null, "official_name": null, "alt_name": null, "place": null, "name:en": null, "tourism": null, "type": null, "name": null, "landuse": null }, "geometry": { "type": "MultiPolygon", "coordinates": [ [ [ [ 86.0871658, 55.3555507 ], [ 86.0874985, 55.3555522 ], [ 86.0874812, 55.3568422 ], [ 86.0871485, 55.3568408 ], [ 86.0871658, 55.3555507 ] ] ] ] } },
{ "type": "Feature", "properties": { "full_id": "w76235993", "osm_id": "76235993", "osm_type": "way", "leisure": "park", "natural": null, "operator": null, "barrier": null, "website": "http://parkchudes.info/", "opening_hours": "Mo-Su 07:00-22:00", "official_name": "Кемеровский городской сад", "alt_name": "Горсад", "place": null, "name:en": null, "tourism": "theme_park", "type": null, "name": "Парк Чудес", "landuse": null }, "geometry": { "type": "MultiPolygon", "coordinates": [ [ [ [ 86.0754564, 55.3642674 ], [ 86.0756968, 55.3643597 ], [ 86.0757757, 55.3646704 ], [ 86.0755487, 55.3648485 ], [ 86.0746162, 55.3650857 ], [ 86.075322, 55.3656725 ], [ 86.0757294, 55.3655554 ], [ 86.0797203, 55.363241 ], [ 86.0826164, 55.3617712 ], [ 86.0797638, 55.3616862 ], [ 86.0795333, 55.3616793 ], [ 86.0793086, 55.3615715 ], [ 86.0787471, 55.3607798 ], [ 86.0780553, 55.3609682 ], [ 86.0778387, 55.361144 ], [ 86.0762394, 55.3635805 ], [ 86.0754564, 55.3642674 ] ] ] ] } },
{ "type": "Feature", "properties": { "full_id": "w77006470", "osm_id": "77006470", "osm_type": "way", "leisure": "park", "natural": null, "operator": null, "barrier": null, "website": null, "opening_hours": null, "official_name": null, "alt_name": null, "place": null, "name:en": null, "tourism": null, "type": null, "name": null, "landuse": "grass" }, "geometry": { "type": "MultiPolygon", "coordinates": [ [ [ [ 86.0825776, 55.3492418 ], [ 86.082678, 55.3492186 ], [ 86.0832047, 55.3499542 ], [ 86.0831043, 55.3499774 ], [ 86.0825776, 55.3492418 ] ] ] ] } },
{ "type": "Feature", "properties": { "full_id": "w86324759", "osm_id": "86324759", "osm_type": "way", "leisure": "park", "natural": null, "operator": null, "barrier": null, "website": null, "opening_hours": null, "official_name": null, "alt_name": null, "place": null, "name:en": null, "tourism": null, "type": null, "name": null, "landuse": null }, "geometry": { "type": "MultiPolygon", "coordinates": [ [ [ [ 86.08836, 55.3575116 ], [ 86.0883754, 55.3572806 ], [ 86.089072, 55.3572888 ], [ 86.0892584, 55.3576111 ], [ 86.0894691, 55.3578935 ], [ 86.0894544, 55.3579813 ], [ 86.088936, 55.358206 ], [ 86.0887129, 55.3580432 ], [ 86.088581, 55.3578231 ], [ 86.08836, 55.3575116 ] ] ] ] } },
{ "type": "Feature", "properties": { "full_id": "w87204934", "osm_id": "87204934", "osm_type": "way", "leisure": "park", "natural": null, "operator": null, "barrier": null, "website": null, "opening_hours": null, "official_name": null, "alt_name": "Сквер «Орбита»", "place": null, "name:en": null, "tourism": null, "type": null, "name": "Сквер детей и молодежи", "landuse": null }, "geometry": { "type": "MultiPolygon", "coordinates": [ [ [ [ 86.0899084, 55.3570076 ], [ 86.0921545, 55.3570089 ], [ 86.092297, 55.3570888 ], [ 86.0921407, 55.3571679 ], [ 86.0914469, 55.3575192 ], [ 86.0904811, 55.3579558 ], [ 86.0901966, 55.3577503 ], [ 86.0900556, 55.3575738 ], [ 86.0900018, 55.357465 ], [ 86.0899399, 55.3572953 ], [ 86.0899084, 55.3570076 ] ] ] ] } },
{ "type": "Feature", "properties": { "full_id": "w87205107", "osm_id": "87205107", "osm_type": "way", "leisure": "park", "natural": null, "operator": null, "barrier": null, "website": null, "opening_hours": null, "official_name": null, "alt_name": null, "place": null, "name:en": null, "tourism": null, "type": null, "name": "Сквер Юности", "landuse": null }, "geometry": { "type": "MultiPolygon", "coordinates": [ [ [ [ 86.0721721, 55.3498547 ], [ 86.0721903, 55.3488019 ], [ 86.0744097, 55.3488162 ], [ 86.074397, 55.3498576 ], [ 86.0721721, 55.3498547 ] ] ] ] } },
{ "type": "Feature", "properties": { "full_id": "w87205402", "osm_id": "87205402", "osm_type": "way", "leisure": "park", "natural": null, "operator": null, "barrier": null, "website": null, "opening_hours": null, "official_name": null, "alt_name": null, "place": null, "name:en": null, "tourism": null, "type": null, "name": "Сквер искусств", "landuse": null }, "geometry": { "type": "MultiPolygon", "coordinates": [ [ [ [ 86.0668027, 55.348396 ], [ 86.0668193, 55.3476864 ], [ 86.0718247, 55.3477242 ], [ 86.0718081, 55.3484337 ], [ 86.0668027, 55.348396 ] ] ] ] } },
{ "type": "Feature", "properties": { "full_id": "w87492838", "osm_id": "87492838", "osm_type": "way", "leisure": "park", "natural": null, "operator": null, "barrier": null, "website": null, "opening_hours": null, "official_name": null, "alt_name": null, "place": null, "name:en": null, "tourism": null, "type": null, "name": null, "landuse": null }, "geometry": { "type": "MultiPolygon", "coordinates": [ [ [ [ 86.1074287, 55.3504429 ], [ 86.1074613, 55.3505602 ], [ 86.10781, 55.3506575 ], [ 86.1079236, 55.3505869 ], [ 86.1079697, 55.3486149 ], [ 86.1072468, 55.348613 ], [ 86.1074287, 55.3504429 ] ] ] ] } },
{ "type": "Feature", "properties": { "full_id": "w87492839", "osm_id": "87492839", "osm_type": "way", "leisure": "park", "natural": null, "operator": null, "barrier": null, "website": null, "opening_hours": null, "official_name": null, "alt_name": null, "place": null, "name:en": null, "tourism": null, "type": null, "name": null, "landuse": null }, "geometry": { "type": "MultiPolygon", "coordinates": [ [ [ [ 86.1072519, 55.3482944 ], [ 86.107981, 55.3482978 ], [ 86.1080258, 55.3451716 ], [ 86.1072967, 55.3451682 ], [ 86.1072519, 55.3482944 ] ] ] ] } },
{ "type": "Feature", "properties": { "full_id": "w97149957", "osm_id": "97149957", "osm_type": "way", "leisure": "park", "natural": null, "operator": null, "barrier": null, "website": null, "opening_hours": null, "official_name": null, "alt_name": null, "place": null, "name:en": null, "tourism": null, "type": null, "name": "Берёзовая роща", "landuse": null }, "geometry": { "type": "MultiPolygon", "coordinates": [ [ [ [ 86.0113325, 55.3855412 ], [ 86.0130408, 55.3853887 ], [ 86.0138101, 55.3853295 ], [ 86.0139863, 55.3854524 ], [ 86.0141706, 55.3859849 ], [ 86.0147956, 55.3861943 ], [ 86.0152764, 55.3865266 ], [ 86.0147636, 55.3869863 ], [ 86.01502, 55.3871365 ], [ 86.0158453, 55.3870227 ], [ 86.0167587, 55.3871319 ], [ 86.0179131, 55.3871938 ], [ 86.0192752, 55.3884947 ], [ 86.0203821, 55.3895458 ], [ 86.0132867, 55.3896965 ], [ 86.0113061, 55.3897382 ], [ 86.0111826, 55.3894498 ], [ 86.0100579, 55.3894754 ], [ 86.008173, 55.3897443 ], [ 86.008062, 55.3894781 ], [ 86.0077051, 55.3888327 ], [ 86.0080415, 55.3886719 ], [ 86.0083574, 55.3884552 ], [ 86.0085298, 55.388156 ], [ 86.0086082, 55.3880198 ], [ 86.0083261, 55.3870185 ], [ 86.0071402, 55.3871751 ], [ 86.0069248, 55.3873655 ], [ 86.0064679, 55.3864628 ], [ 86.0064272, 55.386362 ], [ 86.0062709, 55.3859745 ], [ 86.0099297, 55.3856819 ], [ 86.0113325, 55.3855412 ] ] ] ] } },
{ "type": "Feature", "properties": { "full_id": "w97319759", "osm_id": "97319759", "osm_type": "way", "leisure": "park", "natural": null, "operator": null, "barrier": null, "website": null, "opening_hours": null, "official_name": null, "alt_name": null, "place": null, "name:en": null, "tourism": null, "type": null, "name": null, "landuse": null }, "geometry": { "type": "MultiPolygon", "coordinates": [ [ [ [ 86.113888, 55.3408953 ], [ 86.1138904, 55.339601 ], [ 86.1157462, 55.3396021 ], [ 86.1157438, 55.3408965 ], [ 86.113888, 55.3408953 ] ] ] ] } },
{ "type": "Feature", "properties": { "full_id": "w98119821", "osm_id": "98119821", "osm_type": "way", "leisure": "park", "natural": null, "operator": null, "barrier": null, "website": null, "opening_hours": null, "official_name": null, "alt_name": null, "place": null, "name:en": null, "tourism": null, "type": null, "name": null, "landuse": null }, "geometry": { "type": "MultiPolygon", "coordinates": [ [ [ [ 86.0750447, 55.355432 ], [ 86.0758048, 55.3553481 ], [ 86.0762011, 55.3548582 ], [ 86.0763734, 55.3545912 ], [ 86.0754334, 55.3545953 ], [ 86.0750438, 55.3548146 ], [ 86.0750447, 55.355432 ] ] ] ] } },
{ "type": "Feature", "properties": { "full_id": "w98177922", "osm_id": "98177922", "osm_type": "way", "leisure": "park", "natural": null, "operator": null, "barrier": null, "website": null, "opening_hours": null, "official_name": null, "alt_name": null, "place": null, "name:en": null, "tourism": null, "type": null, "name": null, "landuse": null }, "geometry": { "type": "MultiPolygon", "coordinates": [ [ [ [ 86.0588192, 55.3586286 ], [ 86.0599625, 55.3588012 ], [ 86.0604786, 55.3576959 ], [ 86.0593353, 55.3575233 ], [ 86.0588192, 55.3586286 ] ] ] ] } },
{ "type": "Feature", "properties": { "full_id": "w98234586", "osm_id": "98234586", "osm_type": "way", "leisure": "park", "natural": null, "operator": null, "barrier": null, "website": null, "opening_hours": null, "official_name": null, "alt_name": null, "place": null, "name:en": null, "tourism": null, "type": null, "name": "Парк предпринимателей Кузбасса", "landuse": null }, "geometry": { "type": "MultiPolygon", "coordinates": [ [ [ [ 86.0753971, 55.3540347 ], [ 86.0768342, 55.3540304 ], [ 86.0768306, 55.3536397 ], [ 86.0753934, 55.353644 ], [ 86.0753971, 55.3540347 ] ] ] ] } },
{ "type": "Feature", "properties": { "full_id": "w129176848", "osm_id": "129176848", "osm_type": "way", "leisure": "park", "natural": null, "operator": null, "barrier": null, "website": null, "opening_hours": null, "official_name": null, "alt_name": null, "place": null, "name:en": null, "tourism": null, "type": null, "name": null, "landuse": null }, "geometry": { "type": "MultiPolygon", "coordinates": [ [ [ [ 86.099871, 55.3475348 ], [ 86.1007359, 55.3471657 ], [ 86.1008189, 55.3448939 ], [ 86.1005722, 55.3448939 ], [ 86.10054, 55.3458151 ], [ 86.097743, 55.3457782 ], [ 86.0977773, 55.3459901 ], [ 86.0979767, 55.3461047 ], [ 86.0982762, 55.3459615 ], [ 86.0995969, 55.3468684 ], [ 86.09926, 55.3471048 ], [ 86.099871, 55.3475348 ] ] ] ] } },
{ "type": "Feature", "properties": { "full_id": "w130109188", "osm_id": "130109188", "osm_type": "way", "leisure": "park", "natural": null, "operator": null, "barrier": null, "website": null, "opening_hours": null, "official_name": null, "alt_name": null, "place": null, "name:en": null, "tourism": null, "type": null, "name": "Кузбасский парк", "landuse": null }, "geometry": { "type": "MultiPolygon", "coordinates": [ [ [ [ 86.1834799, 55.3457283 ], [ 86.1865333, 55.3466347 ], [ 86.1866273, 55.3469577 ], [ 86.1864913, 55.3471912 ], [ 86.1866399, 55.3471969 ], [ 86.1865646, 55.3474228 ], [ 86.186548, 55.3476506 ], [ 86.1862238, 55.3477211 ], [ 86.1862177, 55.3479385 ], [ 86.1853589, 55.3492704 ], [ 86.1785836, 55.3471383 ], [ 86.1797102, 55.3460798 ], [ 86.1798878, 55.3459129 ], [ 86.1819506, 55.346513 ], [ 86.1824091, 55.346163 ], [ 86.1829279, 55.3463117 ], [ 86.1834799, 55.3457283 ] ] ] ] } },
{ "type": "Feature", "properties": { "full_id": "w130766116", "osm_id": "130766116", "osm_type": "way", "leisure": "park", "natural": null, "operator": null, "barrier": "fence", "website": null, "opening_hours": null, "official_name": null, "alt_name": "Комсомольский парк", "place": null, "name:en": null, "tourism": null, "type": null, "name": "Парк им. Веры Волошиной", "landuse": null }, "geometry": { "type": "MultiPolygon", "coordinates": [ [ [ [ 86.1313367, 55.3445744 ], [ 86.1283803, 55.3445518 ], [ 86.1273515, 55.344544 ], [ 86.1273544, 55.3444228 ], [ 86.1273707, 55.343733 ], [ 86.1265053, 55.3437264 ], [ 86.1264901, 55.344371 ], [ 86.1264858, 55.3445498 ], [ 86.1252411, 55.3445403 ], [ 86.125245, 55.3443755 ], [ 86.1252878, 55.3425667 ], [ 86.1253533, 55.3397935 ], [ 86.1278909, 55.3398129 ], [ 86.1294197, 55.3398246 ], [ 86.1314487, 55.3398401 ], [ 86.1313367, 55.3445744 ] ] ] ] } },
{ "type": "Feature", "properties": { "full_id": "w132999086", "osm_id": "132999086", "osm_type": "way", "leisure": "park", "natural": null, "operator": null, "barrier": null, "website": null, "opening_hours": null, "official_name": null, "alt_name": null, "place": null, "name:en": null, "tourism": null, "type": null, "name": null, "landuse": null }, "geometry": { "type": "MultiPolygon", "coordinates": [ [ [ [ 86.1273083, 55.3289211 ], [ 86.1257744, 55.3284593 ], [ 86.125761, 55.3292537 ], [ 86.1272949, 55.329261 ], [ 86.1273083, 55.3289211 ] ] ] ] } },
{ "type": "Feature", "properties": { "full_id": "w134228106", "osm_id": "134228106", "osm_type": "way", "leisure": "park", "natural": null, "operator": null, "barrier": null, "website": null, "opening_hours": null, "official_name": null, "alt_name": null, "place": null, "name:en": null, "tourism": null, "type": null, "name": null, "landuse": null }, "geometry": { "type": "MultiPolygon", "coordinates": [ [ [ [ 86.2338783, 55.4194903 ], [ 86.2367864, 55.419494 ], [ 86.2367878, 55.419161 ], [ 86.2338797, 55.4191572 ], [ 86.2338783, 55.4194903 ] ] ] ] } },
{ "type": "Feature", "properties": { "full_id": "w139952133", "osm_id": "139952133", "osm_type": "way", "leisure": "park", "natural": null, "operator": null, "barrier": null, "website": null, "opening_hours": null, "official_name": null, "alt_name": null, "place": null, "name:en": null, "tourism": null, "type": null, "name": null, "landuse": null }, "geometry": { "type": "MultiPolygon", "coordinates": [ [ [ [ 86.1035404, 55.5186982 ], [ 86.1040404, 55.5186872 ], [ 86.1040831, 55.518782 ], [ 86.1043951, 55.5187886 ], [ 86.1043966, 55.5183252 ], [ 86.103516, 55.5183446 ], [ 86.1035404, 55.5186982 ] ] ] ] } },
{ "type": "Feature", "properties": { "full_id": "w139952549", "osm_id": "139952549", "osm_type": "way", "leisure": "park", "natural": null, "operator": null, "barrier": null, "website": null, "opening_hours": null, "official_name": null, "alt_name": null, "place": null, "name:en": null, "tourism": null, "type": null, "name": null, "landuse": null }, "geometry": { "type": "MultiPolygon", "coordinates": [ [ [ [ 86.0999807, 55.5181656 ], [ 86.0999595, 55.5168943 ], [ 86.0993655, 55.5168975 ], [ 86.0993867, 55.5181688 ], [ 86.0999807, 55.5181656 ] ] ] ] } },
{ "type": "Feature", "properties": { "full_id": "w139952550", "osm_id": "139952550", "osm_type": "way", "leisure": "park", "natural": null, "operator": null, "barrier": null, "website": null, "opening_hours": null, "official_name": null, "alt_name": null, "place": null, "name:en": null, "tourism": null, "type": null, "name": null, "landuse": null }, "geometry": { "type": "MultiPolygon", "coordinates": [ [ [ [ 86.100182, 55.5182097 ], [ 86.1009515, 55.5182075 ], [ 86.1009463, 55.5176532 ], [ 86.1009456, 55.5175763 ], [ 86.1006826, 55.5175771 ], [ 86.1006769, 55.5169682 ], [ 86.1006765, 55.516926 ], [ 86.1001701, 55.5169275 ], [ 86.100182, 55.5182097 ] ] ] ] } },
{ "type": "Feature", "properties": { "full_id": "w168666099", "osm_id": "168666099", "osm_type": "way", "leisure": "park", "natural": null, "operator": null, "barrier": null, "website": null, "opening_hours": null, "official_name": null, "alt_name": null, "place": null, "name:en": null, "tourism": null, "type": null, "name": null, "landuse": null }, "geometry": { "type": "MultiPolygon", "coordinates": [ [ [ [ 85.9830869, 55.2807315 ], [ 85.9842154, 55.2814576 ], [ 85.9862306, 55.2804416 ], [ 85.9851021, 55.2797154 ], [ 85.9830869, 55.2807315 ] ] ] ] } },
{ "type": "Feature", "properties": { "full_id": "w184275695", "osm_id": "184275695", "osm_type": "way", "leisure": "park", "natural": null, "operator": null, "barrier": null, "website": null, "opening_hours": null, "official_name": null, "alt_name": null, "place": null, "name:en": null, "tourism": null, "type": null, "name": null, "landuse": null }, "geometry": { "type": "MultiPolygon", "coordinates": [ [ [ [ 86.1638623, 55.4976848 ], [ 86.1633417, 55.496762 ], [ 86.1662355, 55.4962382 ], [ 86.1667561, 55.497161 ], [ 86.1638623, 55.4976848 ] ] ] ] } },
{ "type": "Feature", "properties": { "full_id": "w184275698", "osm_id": "184275698", "osm_type": "way", "leisure": "park", "natural": null, "operator": null, "barrier": null, "website": null, "opening_hours": null, "official_name": null, "alt_name": null, "place": null, "name:en": null, "tourism": null, "type": null, "name": null, "landuse": null }, "geometry": { "type": "MultiPolygon", "coordinates": [ [ [ [ 86.1681801, 55.498454 ], [ 86.1674344, 55.4971656 ], [ 86.1676911, 55.4971174 ], [ 86.1684139, 55.4984145 ], [ 86.1681801, 55.498454 ] ] ] ] } },
{ "type": "Feature", "properties": { "full_id": "w188589829", "osm_id": "188589829", "osm_type": "way", "leisure": "park", "natural": null, "operator": null, "barrier": null, "website": null, "opening_hours": null, "official_name": null, "alt_name": null, "place": null, "name:en": null, "tourism": null, "type": null, "name": null, "landuse": null }, "geometry": { "type": "MultiPolygon", "coordinates": [ [ [ [ 85.9976509, 55.3917506 ], [ 85.9975259, 55.3915101 ], [ 86.0006818, 55.3909676 ], [ 86.0008212, 55.3912235 ], [ 85.9994185, 55.3914567 ], [ 85.9976509, 55.3917506 ] ] ] ] } },
{ "type": "Feature", "properties": { "full_id": "w188589843", "osm_id": "188589843", "osm_type": "way", "leisure": "park", "natural": null, "operator": null, "barrier": null, "website": null, "opening_hours": null, "official_name": null, "alt_name": null, "place": null, "name:en": null, "tourism": null, "type": null, "name": null, "landuse": null }, "geometry": { "type": "MultiPolygon", "coordinates": [ [ [ [ 86.0009836, 55.391162 ], [ 86.0008465, 55.3908996 ], [ 86.0076838, 55.3897666 ], [ 86.0077509, 55.3899051 ], [ 86.0078179, 55.3900469 ], [ 86.0023724, 55.3909354 ], [ 86.0009836, 55.391162 ] ] ] ] } },
{ "type": "Feature", "properties": { "full_id": "w188589866", "osm_id": "188589866", "osm_type": "way", "leisure": "park", "natural": null, "operator": null, "barrier": null, "website": null, "opening_hours": "24/7", "official_name": null, "alt_name": null, "place": null, "name:en": null, "tourism": null, "type": null, "name": null, "landuse": null }, "geometry": { "type": "MultiPolygon", "coordinates": [ [ [ [ 86.0197386, 55.3962561 ], [ 86.0201946, 55.3961038 ], [ 86.0214176, 55.3972949 ], [ 86.0218522, 55.3971517 ], [ 86.0222384, 55.3975478 ], [ 86.0210113, 55.3979258 ], [ 86.0202482, 55.3971487 ], [ 86.0205486, 55.397039 ], [ 86.0197386, 55.3962561 ] ] ] ] } },
{ "type": "Feature", "properties": { "full_id": "w224700526", "osm_id": "224700526", "osm_type": "way", "leisure": "park", "natural": null, "operator": null, "barrier": null, "website": null, "opening_hours": null, "official_name": null, "alt_name": null, "place": null, "name:en": null, "tourism": null, "type": null, "name": "Сквер Победы", "landuse": null }, "geometry": { "type": "MultiPolygon", "coordinates": [ [ [ [ 86.238459, 55.4180787 ], [ 86.2397999, 55.4180834 ], [ 86.2397788, 55.4180048 ], [ 86.2397247, 55.4179261 ], [ 86.2396166, 55.4178069 ], [ 86.2394793, 55.4176983 ], [ 86.2393379, 55.4176357 ], [ 86.2391154, 55.4175696 ], [ 86.2389115, 55.4175271 ], [ 86.2385205, 55.4175248 ], [ 86.2384769, 55.4175354 ], [ 86.2384623, 55.4175519 ], [ 86.238459, 55.4180787 ] ] ] ] } },
{ "type": "Feature", "properties": { "full_id": "w225525441", "osm_id": "225525441", "osm_type": "way", "leisure": "park", "natural": null, "operator": null, "barrier": null, "website": null, "opening_hours": null, "official_name": null, "alt_name": null, "place": null, "name:en": null, "tourism": null, "type": null, "name": null, "landuse": null }, "geometry": { "type": "MultiPolygon", "coordinates": [ [ [ [ 86.235012, 55.415271 ], [ 86.2350171, 55.415078 ], [ 86.2356302, 55.4150832 ], [ 86.2356251, 55.4152762 ], [ 86.235012, 55.415271 ] ] ] ] } },
{ "type": "Feature", "properties": { "full_id": "w225525443", "osm_id": "225525443", "osm_type": "way", "leisure": "park", "natural": null, "operator": null, "barrier": null, "website": null, "opening_hours": null, "official_name": null, "alt_name": null, "place": null, "name:en": null, "tourism": null, "type": null, "name": "Детский автогородок", "landuse": null }, "geometry": { "type": "MultiPolygon", "coordinates": [ [ [ [ 86.2363152, 55.4151248 ], [ 86.236316, 55.4150835 ], [ 86.2363357, 55.4141091 ], [ 86.236937, 55.4148536 ], [ 86.2369401, 55.4151287 ], [ 86.2363152, 55.4151248 ] ] ] ] } },
{ "type": "Feature", "properties": { "full_id": "w225525444", "osm_id": "225525444", "osm_type": "way", "leisure": "park", "natural": null, "operator": null, "barrier": null, "website": null, "opening_hours": null, "official_name": null, "alt_name": null, "place": null, "name:en": null, "tourism": null, "type": null, "name": null, "landuse": null }, "geometry": { "type": "MultiPolygon", "coordinates": [ [ [ [ 86.2337917, 55.4157426 ], [ 86.2347395, 55.4157405 ], [ 86.2347372, 55.4153946 ], [ 86.2337893, 55.4153967 ], [ 86.2337917, 55.4157426 ] ] ] ] } },
{ "type": "Feature", "properties": { "full_id": "w225543200", "osm_id": "225543200", "osm_type": "way", "leisure": "park", "natural": null, "operator": null, "barrier": null, "website": null, "opening_hours": null, "official_name": null, "alt_name": null, "place": null, "name:en": null, "tourism": null, "type": null, "name": "Парк детства", "landuse": null }, "geometry": { "type": "MultiPolygon", "coordinates": [ [ [ [ 86.2367082, 55.4155964 ], [ 86.2366327, 55.4155556 ], [ 86.2365684, 55.4155221 ], [ 86.2364505, 55.4154747 ], [ 86.2363511, 55.4154277 ], [ 86.2362358, 55.4153729 ], [ 86.2362454, 55.4153368 ], [ 86.2364027, 55.4153422 ], [ 86.23651, 55.4153935 ], [ 86.2367107, 55.4153994 ], [ 86.2368001, 55.415342 ], [ 86.2367991, 55.4152708 ], [ 86.2367127, 55.415225 ], [ 86.2365373, 55.4152262 ], [ 86.2363882, 55.4152963 ], [ 86.236246, 55.4152911 ], [ 86.2362572, 55.4151658 ], [ 86.2363152, 55.4151248 ], [ 86.2369401, 55.4151287 ], [ 86.2372021, 55.4151579 ], [ 86.2373929, 55.4154229 ], [ 86.2367082, 55.4155964 ] ] ] ] } },
{ "type": "Feature", "properties": { "full_id": "w244141653", "osm_id": "244141653", "osm_type": "way", "leisure": "park", "natural": null, "operator": null, "barrier": null, "website": null, "opening_hours": null, "official_name": null, "alt_name": null, "place": null, "name:en": null, "tourism": null, "type": null, "name": null, "landuse": null }, "geometry": { "type": "MultiPolygon", "coordinates": [ [ [ [ 86.0908075, 55.3844663 ], [ 86.0882639, 55.3825246 ], [ 86.0897478, 55.3850629 ], [ 86.0900049, 55.3851453 ], [ 86.0908075, 55.3844663 ] ] ] ] } },
{ "type": "Feature", "properties": { "full_id": "w244141654", "osm_id": "244141654", "osm_type": "way", "leisure": "park", "natural": null, "operator": null, "barrier": null, "website": null, "opening_hours": null, "official_name": null, "alt_name": null, "place": null, "name:en": null, "tourism": null, "type": null, "name": null, "landuse": null }, "geometry": { "type": "MultiPolygon", "coordinates": [ [ [ [ 86.0903048, 55.3852846 ], [ 86.0905664, 55.385408 ], [ 86.0903147, 55.3856912 ], [ 86.0916376, 55.385823 ], [ 86.0918499, 55.384979 ], [ 86.0910798, 55.3846341 ], [ 86.0903048, 55.3852846 ] ] ] ] } },
{ "type": "Feature", "properties": { "full_id": "w284778480", "osm_id": "284778480", "osm_type": "way", "leisure": "park", "natural": null, "operator": null, "barrier": null, "website": null, "opening_hours": null, "official_name": null, "alt_name": null, "place": null, "name:en": null, "tourism": null, "type": null, "name": "Лесная сказка", "landuse": null }, "geometry": { "type": "MultiPolygon", "coordinates": [ [ [ [ 86.2390728, 55.4211427 ], [ 86.2408788, 55.4201596 ], [ 86.240808, 55.4201205 ], [ 86.2409841, 55.4200177 ], [ 86.2410644, 55.4199717 ], [ 86.2403398, 55.4195491 ], [ 86.2391345, 55.4195469 ], [ 86.2391285, 55.4198795 ], [ 86.2385671, 55.4198762 ], [ 86.2385683, 55.4198078 ], [ 86.2384723, 55.4198072 ], [ 86.2377381, 55.4198031 ], [ 86.2375918, 55.4198958 ], [ 86.2375894, 55.4202648 ], [ 86.2376104, 55.4202917 ], [ 86.2390728, 55.4211427 ] ] ] ] } },
{ "type": "Feature", "properties": { "full_id": "w319232645", "osm_id": "319232645", "osm_type": "way", "leisure": "park", "natural": null, "operator": null, "barrier": null, "website": null, "opening_hours": null, "official_name": null, "alt_name": null, "place": null, "name:en": null, "tourism": null, "type": null, "name": null, "landuse": null }, "geometry": { "type": "MultiPolygon", "coordinates": [ [ [ [ 86.2324934, 55.4237918 ], [ 86.2330625, 55.4239024 ], [ 86.2331914, 55.4236888 ], [ 86.2326223, 55.4235782 ], [ 86.2324934, 55.4237918 ] ] ] ] } },
{ "type": "Feature", "properties": { "full_id": "w365459422", "osm_id": "365459422", "osm_type": "way", "leisure": "park", "natural": null, "operator": "реж", "barrier": null, "website": null, "opening_hours": null, "official_name": null, "alt_name": null, "place": null, "name:en": null, "tourism": null, "type": null, "name": "Сквер Новорождённых", "landuse": null }, "geometry": { "type": "MultiPolygon", "coordinates": [ [ [ [ 86.1111512, 55.3271731 ], [ 86.1109479, 55.3269982 ], [ 86.1109346, 55.3261172 ], [ 86.1132225, 55.3261341 ], [ 86.1135123, 55.3261383 ], [ 86.1143671, 55.3261561 ], [ 86.1143618, 55.3268469 ], [ 86.1140491, 55.327013 ], [ 86.1127071, 55.3269685 ], [ 86.1120548, 55.326979 ], [ 86.1116641, 55.3270314 ], [ 86.1111512, 55.3271731 ] ] ] ] } },
{ "type": "Feature", "properties": { "full_id": "w378926988", "osm_id": "378926988", "osm_type": "way", "leisure": "park", "natural": null, "operator": null, "barrier": null, "website": null, "opening_hours": null, "official_name": null, "alt_name": null, "place": null, "name:en": null, "tourism": null, "type": null, "name": "Аллея Победы", "landuse": null }, "geometry": { "type": "MultiPolygon", "coordinates": [ [ [ [ 85.9994003, 55.3875187 ], [ 85.999922, 55.3874634 ], [ 86.0010962, 55.3872619 ], [ 86.0060886, 55.3864051 ], [ 86.0059265, 55.3861061 ], [ 86.0058653, 55.3859758 ], [ 86.0053363, 55.385943 ], [ 86.0002557, 55.3863846 ], [ 85.9989241, 55.3866413 ], [ 85.9994003, 55.3875187 ] ] ] ] } },
{ "type": "Feature", "properties": { "full_id": "w431112485", "osm_id": "431112485", "osm_type": "way", "leisure": "park", "natural": "wood", "operator": null, "barrier": null, "website": null, "opening_hours": null, "official_name": null, "alt_name": null, "place": null, "name:en": null, "tourism": null, "type": null, "name": null, "landuse": null }, "geometry": { "type": "MultiPolygon", "coordinates": [ [ [ [ 86.1481558, 55.3501098 ], [ 86.1477644, 55.3499939 ], [ 86.1476029, 55.3539661 ], [ 86.1480132, 55.3539433 ], [ 86.1481558, 55.3501098 ] ] ] ] } },
{ "type": "Feature", "properties": { "full_id": "w484158036", "osm_id": "484158036", "osm_type": "way", "leisure": "park", "natural": null, "operator": null, "barrier": null, "website": null, "opening_hours": null, "official_name": null, "alt_name": null, "place": null, "name:en": null, "tourism": null, "type": null, "name": "парк у ТУЦР", "landuse": null }, "geometry": { "type": "MultiPolygon", "coordinates": [ [ [ [ 86.0674449, 55.3529678 ], [ 86.0674556, 55.3527238 ], [ 86.0688396, 55.3524249 ], [ 86.0690005, 55.3526323 ], [ 86.0684319, 55.3526262 ], [ 86.0683997, 55.3530654 ], [ 86.0690005, 55.3530776 ], [ 86.0689684, 55.3533277 ], [ 86.0685607, 55.3532728 ], [ 86.0674449, 55.3529678 ] ] ] ] } },
{ "type": "Feature", "properties": { "full_id": "w526555884", "osm_id": "526555884", "osm_type": "way", "leisure": "park", "natural": null, "operator": null, "barrier": null, "website": null, "opening_hours": null, "official_name": null, "alt_name": null, "place": null, "name:en": null, "tourism": null, "type": null, "name": null, "landuse": null }, "geometry": { "type": "MultiPolygon", "coordinates": [ [ [ [ 86.1085844, 55.3521342 ], [ 86.1102582, 55.3521472 ], [ 86.1102417, 55.3530371 ], [ 86.1085619, 55.353024 ], [ 86.1085738, 55.3525555 ], [ 86.1085844, 55.3521342 ] ] ] ] } },
{ "type": "Feature", "properties": { "full_id": "w573218833", "osm_id": "573218833", "osm_type": "way", "leisure": "park", "natural": null, "operator": null, "barrier": null, "website": null, "opening_hours": null, "official_name": null, "alt_name": null, "place": null, "name:en": null, "tourism": null, "type": null, "name": "Парк Ангелов", "landuse": null }, "geometry": { "type": "MultiPolygon", "coordinates": [ [ [ [ 86.0769317, 55.344216 ], [ 86.076936, 55.3441727 ], [ 86.0769534, 55.3433399 ], [ 86.0771942, 55.3433395 ], [ 86.0773647, 55.3432821 ], [ 86.0775737, 55.3431984 ], [ 86.0774458, 55.3430829 ], [ 86.0795563, 55.3430594 ], [ 86.0795258, 55.3442127 ], [ 86.0769317, 55.344216 ] ] ] ] } },
{ "type": "Feature", "properties": { "full_id": "w638533506", "osm_id": "638533506", "osm_type": "way", "leisure": "park", "natural": null, "operator": null, "barrier": null, "website": null, "opening_hours": null, "official_name": null, "alt_name": null, "place": null, "name:en": null, "tourism": null, "type": null, "name": "Счастливое детство", "landuse": null }, "geometry": { "type": "MultiPolygon", "coordinates": [ [ [ [ 86.2305761, 55.4161689 ], [ 86.2304537, 55.4162524 ], [ 86.2304525, 55.4166676 ], [ 86.2307279, 55.4166674 ], [ 86.2317545, 55.4166703 ], [ 86.2317203, 55.4163975 ], [ 86.2317554, 55.416175 ], [ 86.2305761, 55.4161689 ] ] ] ] } },
{ "type": "Feature", "properties": { "full_id": "w643858256", "osm_id": "643858256", "osm_type": "way", "leisure": "park", "natural": null, "operator": null, "barrier": null, "website": null, "opening_hours": null, "official_name": null, "alt_name": null, "place": null, "name:en": null, "tourism": null, "type": null, "name": "Парк", "landuse": null }, "geometry": { "type": "MultiPolygon", "coordinates": [ [ [ [ 86.1787883, 55.3380486 ], [ 86.1791176, 55.3381445 ], [ 86.1793087, 55.3379676 ], [ 86.1789469, 55.3378705 ], [ 86.1789367, 55.3378821 ], [ 86.1787883, 55.3380486 ] ] ] ] } },
{ "type": "Feature", "properties": { "full_id": "w646463499", "osm_id": "646463499", "osm_type": "way", "leisure": "park", "natural": null, "operator": null, "barrier": null, "website": null, "opening_hours": null, "official_name": null, "alt_name": null, "place": null, "name:en": null, "tourism": null, "type": null, "name": "Березовая роща", "landuse": null }, "geometry": { "type": "MultiPolygon", "coordinates": [ [ [ [ 86.1059809, 55.4108758 ], [ 86.1061097, 55.41143 ], [ 86.1043233, 55.4118777 ], [ 86.1037869, 55.4114879 ], [ 86.1045915, 55.4112656 ], [ 86.1059809, 55.4108758 ] ] ] ] } },
{ "type": "Feature", "properties": { "full_id": "w809038323", "osm_id": "809038323", "osm_type": "way", "leisure": "park", "natural": null, "operator": null, "barrier": null, "website": null, "opening_hours": null, "official_name": null, "alt_name": null, "place": null, "name:en": null, "tourism": null, "type": null, "name": "Пятачек", "landuse": null }, "geometry": { "type": "MultiPolygon", "coordinates": [ [ [ [ 86.1100202, 55.3280085 ], [ 86.1100514, 55.3277781 ], [ 86.1100928, 55.3274721 ], [ 86.1101009, 55.3274292 ], [ 86.1101019, 55.3273829 ], [ 86.1102895, 55.3274026 ], [ 86.1103859, 55.3274677 ], [ 86.1103241, 55.327698 ], [ 86.1102677, 55.3278035 ], [ 86.1102114, 55.3279092 ], [ 86.1101467, 55.3279765 ], [ 86.1100202, 55.3280085 ] ] ] ] } },
{ "type": "Feature", "properties": { "full_id": "w809038324", "osm_id": "809038324", "osm_type": "way", "leisure": "park", "natural": null, "operator": null, "barrier": null, "website": null, "opening_hours": null, "official_name": null, "alt_name": null, "place": null, "name:en": null, "tourism": null, "type": null, "name": "Мини парк", "landuse": null }, "geometry": { "type": "MultiPolygon", "coordinates": [ [ [ [ 86.1095389, 55.3280571 ], [ 86.1097798, 55.3281121 ], [ 86.1099193, 55.3281105 ], [ 86.1100106, 55.3277647 ], [ 86.1099971, 55.3273201 ], [ 86.1096323, 55.3273186 ], [ 86.1094166, 55.3273186 ], [ 86.1094112, 55.3273535 ], [ 86.1093988, 55.327433 ], [ 86.1093814, 55.3275447 ], [ 86.1093853, 55.3276467 ], [ 86.1094771, 55.3280084 ], [ 86.1095389, 55.3280571 ] ] ] ] } },
{ "type": "Feature", "properties": { "full_id": "w809038336", "osm_id": "809038336", "osm_type": "way", "leisure": "park", "natural": null, "operator": null, "barrier": null, "website": null, "opening_hours": null, "official_name": null, "alt_name": null, "place": null, "name:en": null, "tourism": null, "type": null, "name": null, "landuse": null }, "geometry": { "type": "MultiPolygon", "coordinates": [ [ [ [ 86.1127153, 55.3260324 ], [ 86.1126463, 55.3260351 ], [ 86.1126696, 55.3253177 ], [ 86.112735, 55.325153 ], [ 86.1130619, 55.3251397 ], [ 86.1130432, 55.3260351 ], [ 86.112891, 55.3260338 ], [ 86.1127153, 55.3260324 ] ] ] ] } },
{ "type": "Feature", "properties": { "full_id": "w809038350", "osm_id": "809038350", "osm_type": "way", "leisure": "park", "natural": null, "operator": null, "barrier": null, "website": null, "opening_hours": null, "official_name": null, "alt_name": null, "place": null, "name:en": null, "tourism": null, "type": null, "name": null, "landuse": null }, "geometry": { "type": "MultiPolygon", "coordinates": [ [ [ [ 86.1162517, 55.3266271 ], [ 86.1155647, 55.3262206 ], [ 86.1166512, 55.3256223 ], [ 86.1167689, 55.3255575 ], [ 86.1180199, 55.3260856 ], [ 86.1179282, 55.3261527 ], [ 86.1176679, 55.3261465 ], [ 86.1173493, 55.3262391 ], [ 86.1162517, 55.3266271 ] ] ] ] } },
{ "type": "Feature", "properties": { "full_id": "w928295971", "osm_id": "928295971", "osm_type": "way", "leisure": "park", "natural": null, "operator": null, "barrier": null, "website": null, "opening_hours": null, "official_name": null, "alt_name": null, "place": null, "name:en": null, "tourism": null, "type": null, "name": null, "landuse": null }, "geometry": { "type": "MultiPolygon", "coordinates": [ [ [ [ 86.1102363, 55.5080896 ], [ 86.1121394, 55.5080896 ], [ 86.1121863, 55.5080691 ], [ 86.1122105, 55.5080403 ], [ 86.1122037, 55.5080099 ], [ 86.1121702, 55.5079848 ], [ 86.1106682, 55.5076932 ], [ 86.1102363, 55.5080896 ] ] ] ] } },
{ "type": "Feature", "properties": { "full_id": "w1154471783", "osm_id": "1154471783", "osm_type": "way", "leisure": "park", "natural": null, "operator": null, "barrier": null, "website": null, "opening_hours": null, "official_name": null, "alt_name": null, "place": null, "name:en": null, "tourism": null, "type": null, "name": "Мемориальный комплекс \"Героям-сибирякам\"", "landuse": null }, "geometry": { "type": "MultiPolygon", "coordinates": [ [ [ [ 86.15033, 55.3600044 ], [ 86.1507671, 55.3595314 ], [ 86.1521673, 55.3580006 ], [ 86.1525026, 55.3575523 ], [ 86.1524686, 55.3574779 ], [ 86.1523425, 55.3570394 ], [ 86.1523417, 55.3569924 ], [ 86.1525316, 55.3569658 ], [ 86.1535183, 55.3568719 ], [ 86.1535413, 55.3569297 ], [ 86.1535904, 55.3570073 ], [ 86.1536559, 55.3570808 ], [ 86.1537367, 55.3571493 ], [ 86.1538316, 55.3572116 ], [ 86.1539386, 55.3572665 ], [ 86.1539838, 55.3572845 ], [ 86.1540566, 55.3573136 ], [ 86.1541122, 55.3573304 ], [ 86.1541838, 55.3573521 ], [ 86.1542557, 55.3573671 ], [ 86.1543415, 55.3573849 ], [ 86.1544121, 55.3573949 ], [ 86.1544582, 55.3574015 ], [ 86.1546012, 55.3574116 ], [ 86.1547063, 55.3574117 ], [ 86.1547454, 55.3574117 ], [ 86.1546152, 55.3583254 ], [ 86.1526613, 55.360445 ], [ 86.1524872, 55.3606399 ], [ 86.15033, 55.3600044 ] ] ] ] } },
{ "type": "Feature", "properties": { "full_id": "w1189405775", "osm_id": "1189405775", "osm_type": "way", "leisure": "park", "natural": null, "operator": null, "barrier": null, "website": null, "opening_hours": null, "official_name": null, "alt_name": null, "place": null, "name:en": null, "tourism": null, "type": null, "name": "Сквер Памяти защитников блокадного Ленинграда", "landuse": null }, "geometry": { "type": "MultiPolygon", "coordinates": [ [ [ [ 86.1670772, 55.3567203 ], [ 86.168293, 55.3570807 ], [ 86.1689176, 55.3564 ], [ 86.1677018, 55.3560395 ], [ 86.1670772, 55.3567203 ] ] ] ] } },
{ "type": "Feature", "properties": { "full_id": "w1216787381", "osm_id": "1216787381", "osm_type": "way", "leisure": "park", "natural": null, "operator": null, "barrier": null, "website": null, "opening_hours": null, "official_name": null, "alt_name": null, "place": null, "name:en": null, "tourism": null, "type": null, "name": null, "landuse": null }, "geometry": { "type": "MultiPolygon", "coordinates": [ [ [ [ 86.053601, 55.4107805 ], [ 86.0545981, 55.4097596 ], [ 86.0552479, 55.4099664 ], [ 86.0542228, 55.4109872 ], [ 86.0538923, 55.4108727 ], [ 86.053601, 55.4107805 ] ] ] ] } },
{ "type": "Feature", "properties": { "full_id": "r1324284", "osm_id": "1324284", "osm_type": "relation", "leisure": null, "natural": null, "operator": null, "barrier": null, "website": "https:\/\/kembor.ru", "opening_hours": null, "official_name": "Особо охраняемая природная территория местного значения «Природный комплекс Рудничный бор»", "alt_name": "Сосновый бор", "place": null, "name:en": null, "tourism": null, "type": "boundary", "name": "Природный комплекс «Рудничный бор»", "landuse": "forest" }, "geometry": { "type": "MultiPolygon", "coordinates": [ [ [ [ 86.0854045, 55.3773043 ], [ 86.0869998, 55.3785799 ], [ 86.0881295, 55.379326 ], [ 86.0878733, 55.3794956 ], [ 86.0880585, 55.3822586 ], [ 86.0891082, 55.3827673 ], [ 86.0899501, 55.3834487 ], [ 86.0904814, 55.3835392 ], [ 86.0917182, 55.3834756 ], [ 86.0924628, 55.3839233 ], [ 86.0925931, 55.383998 ], [ 86.0932069, 55.3837875 ], [ 86.0939118, 55.3840285 ], [ 86.0933564, 55.3846571 ], [ 86.0943479, 55.3846639 ], [ 86.0953643, 55.3845468 ], [ 86.0953387, 55.3844877 ], [ 86.0963749, 55.3843672 ], [ 86.0965064, 55.3849274 ], [ 86.0982271, 55.3848752 ], [ 86.0980556, 55.384063 ], [ 86.1002764, 55.3842607 ], [ 86.1020832, 55.3846919 ], [ 86.1018821, 55.3849531 ], [ 86.1036589, 55.3853922 ], [ 86.1057838, 55.3858313 ], [ 86.1064684, 55.3860723 ], [ 86.1084665, 55.3865281 ], [ 86.1093415, 55.3865203 ], [ 86.109755, 55.3862819 ], [ 86.1122322, 55.3856947 ], [ 86.1141879, 55.3855791 ], [ 86.1141642, 55.3854572 ], [ 86.1171499, 55.3850711 ], [ 86.1173185, 55.3850216 ], [ 86.1186184, 55.3846397 ], [ 86.1239432, 55.3799445 ], [ 86.1239464, 55.3795586 ], [ 86.1237252, 55.3792049 ], [ 86.1235317, 55.3786894 ], [ 86.1237084, 55.3779858 ], [ 86.1242894, 55.3776013 ], [ 86.1251927, 55.3775071 ], [ 86.1253332, 55.3772403 ], [ 86.1260046, 55.3769917 ], [ 86.1260238, 55.3765106 ], [ 86.1263779, 55.3765015 ], [ 86.126409, 55.376162 ], [ 86.1260061, 55.3761559 ], [ 86.1259031, 55.3754103 ], [ 86.1259361, 55.3750905 ], [ 86.1260954, 55.374808 ], [ 86.1264874, 55.3741713 ], [ 86.1264508, 55.3736477 ], [ 86.1263934, 55.3734172 ], [ 86.1264329, 55.3728458 ], [ 86.126188, 55.3728464 ], [ 86.1261891, 55.3729938 ], [ 86.1255736, 55.3729914 ], [ 86.1255671, 55.3729539 ], [ 86.1248233, 55.3730294 ], [ 86.1245012, 55.3721025 ], [ 86.1257778, 55.3719484 ], [ 86.1256787, 55.3715814 ], [ 86.1197023, 55.3717953 ], [ 86.1193014, 55.3710348 ], [ 86.11581, 55.3711678 ], [ 86.1156752, 55.3708969 ], [ 86.1136007, 55.3708085 ], [ 86.1124013, 55.3707293 ], [ 86.110868, 55.370788 ], [ 86.1044507, 55.3708567 ], [ 86.1035036, 55.3707974 ], [ 86.1026102, 55.3706694 ], [ 86.1011226, 55.3703891 ], [ 86.1006413, 55.3701402 ], [ 86.100736, 55.3699692 ], [ 86.0991208, 55.369861 ], [ 86.0986852, 55.3699992 ], [ 86.0971452, 55.3699287 ], [ 86.0971847, 55.3697314 ], [ 86.0916994, 55.3696324 ], [ 86.0909097, 55.3696868 ], [ 86.0889101, 55.3699974 ], [ 86.0882717, 55.3700667 ], [ 86.086033, 55.3700976 ], [ 86.083771, 55.3709538 ], [ 86.0814027, 55.3721716 ], [ 86.0811721, 55.3723935 ], [ 86.0806247, 55.3726329 ], [ 86.0802494, 55.372836 ], [ 86.0801828, 55.3730145 ], [ 86.0804002, 55.3732206 ], [ 86.0805329, 55.3732457 ], [ 86.080713, 55.3733307 ], [ 86.0808262, 55.3734444 ], [ 86.0822389, 55.3755352 ], [ 86.0824454, 55.375789 ], [ 86.0827428, 55.3760286 ], [ 86.0832051, 55.3762736 ], [ 86.0836856, 55.3764823 ], [ 86.084294, 55.3766295 ], [ 86.0846883, 55.3767484 ], [ 86.0854045, 55.3773043 ] ] ] ] } },
{ "type": "Feature", "properties": { "full_id": "r1324285", "osm_id": "1324285", "osm_type": "relation", "leisure": null, "natural": null, "operator": null, "barrier": null, "website": null, "opening_hours": null, "official_name": null, "alt_name": null, "place": null, "name:en": null, "tourism": null, "type": "multipolygon", "name": null, "landuse": "forest" }, "geometry": { "type": "MultiPolygon", "coordinates": [ [ [ [ 86.135219, 55.4088256 ], [ 86.1365337, 55.4103947 ], [ 86.1367282, 55.4104286 ], [ 86.1376711, 55.4101313 ], [ 86.1383296, 55.4096895 ], [ 86.1389133, 55.4090777 ], [ 86.1392575, 55.408466 ], [ 86.1399908, 55.4077947 ], [ 86.140365, 55.4073784 ], [ 86.1409935, 55.4071575 ], [ 86.1410534, 55.4068261 ], [ 86.1414276, 55.4063163 ], [ 86.1419214, 55.4060529 ], [ 86.1423255, 55.405832 ], [ 86.1422657, 55.4052032 ], [ 86.14258, 55.404243 ], [ 86.142999, 55.4037416 ], [ 86.1435527, 55.4033762 ], [ 86.1446752, 55.4028918 ], [ 86.1452738, 55.4025944 ], [ 86.1453344, 55.4025213 ], [ 86.1455133, 55.4023055 ], [ 86.145648, 55.4019826 ], [ 86.1454085, 55.4017191 ], [ 86.1445106, 55.4015407 ], [ 86.1440915, 55.4014047 ], [ 86.1439868, 55.4011157 ], [ 86.1440766, 55.4008438 ], [ 86.1437623, 55.4006823 ], [ 86.142480296537855, 55.399842529334578 ], [ 86.1424761, 55.3997431 ], [ 86.1424125, 55.3992488 ], [ 86.1423674, 55.3989668 ], [ 86.1423857, 55.3989022 ], [ 86.1425486, 55.3983266 ], [ 86.1422941, 55.3982453 ], [ 86.1415823, 55.3980179 ], [ 86.140616, 55.3980751 ], [ 86.1402133, 55.3985095 ], [ 86.1397503, 55.3985095 ], [ 86.1399394, 55.3981963 ], [ 86.1406485, 55.397831 ], [ 86.1409701, 55.3974798 ], [ 86.1408629, 55.3972269 ], [ 86.1398816, 55.3977748 ], [ 86.1385788, 55.398229 ], [ 86.1384798, 55.3979762 ], [ 86.1374656, 55.3976484 ], [ 86.1360225, 55.3978872 ], [ 86.1353958, 55.3978732 ], [ 86.1327984, 55.3985662 ], [ 86.1310832, 55.3991843 ], [ 86.1312069, 55.3994137 ], [ 86.1317099, 55.3996432 ], [ 86.1321469, 55.3995542 ], [ 86.1327571, 55.3998632 ], [ 86.1332107, 55.4001723 ], [ 86.1336369, 55.4011085 ], [ 86.1336477, 55.4011322 ], [ 86.1333508, 55.401769 ], [ 86.132419, 55.4022606 ], [ 86.1316621, 55.4031241 ], [ 86.1315202, 55.403286 ], [ 86.131512, 55.4035622 ], [ 86.1321568, 55.4048043 ], [ 86.1322046, 55.4048965 ], [ 86.1332024, 55.4060483 ], [ 86.1331777, 55.4065726 ], [ 86.1339993, 55.4077324 ], [ 86.134108153229704, 55.407744871598155 ], [ 86.135219, 55.4088256 ] ] ] ] } }
]
}
