{
"type": "FeatureCollection",
"name": "police",
"crs": { "type": "name", "properties": { "name": "urn:ogc:def:crs:OGC:1.3:CRS84" } },
"features": [
{ "type": "Feature", "properties": { "Наименование": "Отдел полиции Кедровка", "Описание": "Управление МВД России по г. Кемерово", "Рубрики": "Отделения полиции", "Адрес": "Стахановская, 29", "Комментарий к адресу": null, "Почтовый индекс": 650903, "Микрорайон": "Кедровка м-н", "Район": "Рудничный район", "Город": "Кемерово", "Округ": "Кемеровский городской округ", "Регион": "Кемеровская область — Кузбасс", "Страна": "Россия", "Часы работы": "Пн: 00:00-24:00; Вт: 00:00-24:00; Ср: 00:00-24:00; Чт: 00:00-24:00; Пт: 00:00-24:00; Сб: 00:00-24:00; Вс: 00:00-24:00", "Часовой пояс": "+07:00", "Рейтинг": null, "Количество отзывов": null, "Телефон 1": "83842776817", "Телефон 2": null, "Телефон 3": null, "Веб-сайт 1": null, "Веб-сайт 2": null, "Веб-сайт 3": null, "Twitter": null, "ВКонтакте": null, "Telegram": null, "YouTube": null, "Широта": 55.518391, "Долгота": 86.102151, "2GIS URL": "https://2gis.com/firm/704215722907619" }, "geometry": { "type": "Point", "coordinates": [ 86.102151, 55.518391 ] } },
{ "type": "Feature", "properties": { "Наименование": "Отдел полиции Рудничный", "Описание": "Управление МВД России по г. Кемерово", "Рубрики": "Отделения полиции", "Адрес": "Институтская, 3", "Комментарий к адресу": null, "Почтовый индекс": 650002, "Микрорайон": "Радуга м-н", "Район": "Рудничный район", "Город": "Кемерово", "Округ": "Кемеровский городской округ", "Регион": "Кемеровская область — Кузбасс", "Страна": "Россия", "Часы работы": "Пн: 00:00-24:00; Вт: 00:00-24:00; Ср: 00:00-24:00; Чт: 00:00-24:00; Пт: 00:00-24:00; Сб: 00:00-24:00; Вс: 00:00-24:00", "Часовой пояс": "+07:00", "Рейтинг": null, "Количество отзывов": null, "Телефон 1": "83842399010 (дежурная часть)", "Телефон 2": "83842643892 (дежурная часть)", "Телефон 3": "83842399019 (дежурная часть)", "Веб-сайт 1": "http://rutube.ru/channel/24713061", "Веб-сайт 2": "http://42.мвд.рф/folder/24450267", "Веб-сайт 3": "http://t.me/gumvd42", "Twitter": null, "ВКонтакте": "https://vk.com/gumvd42", "Telegram": null, "YouTube": "https://youtube.com/channel/UCUAdtP4dot8A__6R2PxLToQ", "Широта": 55.391417, "Долгота": 86.113875, "2GIS URL": "https://2gis.com/firm/704215722755154" }, "geometry": { "type": "Point", "coordinates": [ 86.113875, 55.391417 ] } },
{ "type": "Feature", "properties": { "Наименование": "Центральный", "Описание": "отдел полиции", "Рубрики": "Отделения полиции", "Адрес": "Шестакова, 34", "Комментарий к адресу": null, "Почтовый индекс": 650000, "Микрорайон": null, "Район": "Центральный район", "Город": "Кемерово", "Округ": "Кемеровский городской округ", "Регион": "Кемеровская область — Кузбасс", "Страна": "Россия", "Часы работы": "Пн: 00:00-24:00; Вт: 00:00-24:00; Ср: 00:00-24:00; Чт: 00:00-24:00; Пт: 00:00-24:00; Сб: 00:00-24:00; Вс: 00:00-24:00", "Часовой пояс": "+07:00", "Рейтинг": null, "Количество отзывов": null, "Телефон 1": "83842362639", "Телефон 2": "83842391610 (дежурная часть)", "Телефон 3": null, "Веб-сайт 1": "http://rutube.ru/channel/24713061/", "Веб-сайт 2": "http://42.мвд.рф", "Веб-сайт 3": null, "Twitter": null, "ВКонтакте": "https://vk.com/gumvd42", "Telegram": "https://t.me/gumvd42", "YouTube": "https://youtube.com/channel/UCUAdtP4dot8A__6R2PxLToQ", "Широта": 55.361145, "Долгота": 86.072312, "2GIS URL": "https://2gis.com/firm/704215722783741" }, "geometry": { "type": "Point", "coordinates": [ 86.072312, 55.361145 ] } },
{ "type": "Feature", "properties": { "Наименование": "Отдел полиции Кировский", "Описание": "Управление МВД России по г. Кемерово", "Рубрики": "Отделения полиции", "Адрес": "Рекордная, 32", "Комментарий к адресу": null, "Почтовый индекс": 650033, "Микрорайон": null, "Район": "Кировский район", "Город": "Кемерово", "Округ": "Кемеровский городской округ", "Регион": "Кемеровская область — Кузбасс", "Страна": "Россия", "Часы работы": "Пн: 00:00-24:00; Вт: 00:00-24:00; Ср: 00:00-24:00; Чт: 00:00-24:00; Пт: 00:00-24:00; Сб: 00:00-24:00; Вс: 00:00-24:00", "Часовой пояс": "+07:00", "Рейтинг": null, "Количество отзывов": null, "Телефон 1": "83842251601 (дежурная часть)", "Телефон 2": "83842256100 (дежурная часть)", "Телефон 3": null, "Веб-сайт 1": null, "Веб-сайт 2": null, "Веб-сайт 3": null, "Twitter": null, "ВКонтакте": "https://vk.com/mvd", "Telegram": null, "YouTube": null, "Широта": 55.397112, "Долгота": 86.026433, "2GIS URL": "https://2gis.com/firm/704215722755147" }, "geometry": { "type": "Point", "coordinates": [ 86.026433, 55.397112 ] } },
{ "type": "Feature", "properties": { "Наименование": "Отдел полиции Ленинский", "Описание": "Управление МВД России по г. Кемерово", "Рубрики": "Отделения полиции", "Адрес": "проспект Химиков, 5а", "Комментарий к адресу": null, "Почтовый индекс": 650036, "Микрорайон": null, "Район": "Ленинский район", "Город": "Кемерово", "Округ": "Кемеровский городской округ", "Регион": "Кемеровская область — Кузбасс", "Страна": "Россия", "Часы работы": "Пн: 00:00-24:00; Вт: 00:00-24:00; Ср: 00:00-24:00; Чт: 00:00-24:00; Пт: 00:00-24:00; Сб: 00:00-24:00; Вс: 00:00-24:00", "Часовой пояс": "+07:00", "Рейтинг": null, "Количество отзывов": null, "Телефон 1": "83842318400 (дежурная часть)", "Телефон 2": null, "Телефон 3": null, "Веб-сайт 1": null, "Веб-сайт 2": null, "Веб-сайт 3": null, "Twitter": null, "ВКонтакте": null, "Telegram": null, "YouTube": null, "Широта": 55.334648, "Долгота": 86.149039, "2GIS URL": "https://2gis.com/firm/704215722781872" }, "geometry": { "type": "Point", "coordinates": [ 86.149039, 55.334648 ] } },
{ "type": "Feature", "properties": { "Наименование": "Отдел полиции Заводский", "Описание": "Управление МВД России по г. Кемерово", "Рубрики": "Отделения полиции", "Адрес": "Карболитовская улица, 9", "Комментарий к адресу": null, "Почтовый индекс": 650000, "Микрорайон": null, "Район": "Заводский район", "Город": "Кемерово", "Округ": "Кемеровский городской округ", "Регион": "Кемеровская область — Кузбасс", "Страна": "Россия", "Часы работы": "Пн: 00:00-24:00; Вт: 00:00-24:00; Ср: 00:00-24:00; Чт: 00:00-24:00; Пт: 00:00-24:00; Сб: 00:00-24:00; Вс: 00:00-24:00", "Часовой пояс": "+07:00", "Рейтинг": null, "Количество отзывов": null, "Телефон 1": "83842754300 (дежурная часть)", "Телефон 2": "83842754311 (паспортист)", "Телефон 3": null, "Веб-сайт 1": null, "Веб-сайт 2": null, "Веб-сайт 3": null, "Twitter": null, "ВКонтакте": "https://vk.com/mvd", "Telegram": null, "YouTube": null, "Широта": 55.358926, "Долгота": 86.058676, "2GIS URL": "https://2gis.com/firm/704215722755145" }, "geometry": { "type": "Point", "coordinates": [ 86.058676, 55.358926 ] } },
{ "type": "Feature", "properties": { "Наименование": "Юбилейный", "Описание": "отдел полиции", "Рубрики": "Отделения полиции", "Адрес": "Спортивная, 93/2", "Комментарий к адресу": null, "Почтовый индекс": 650004, "Микрорайон": null, "Район": "Центральный район", "Город": "Кемерово", "Округ": "Кемеровский городской округ", "Регион": "Кемеровская область — Кузбасс", "Страна": "Россия", "Часы работы": "Пн: 00:00-24:00; Вт: 00:00-24:00; Ср: 00:00-24:00; Чт: 00:00-24:00; Пт: 00:00-24:00; Сб: 00:00-24:00; Вс: 00:00-24:00", "Часовой пояс": "+07:00", "Рейтинг": null, "Количество отзывов": null, "Телефон 1": "83842353663 (дежурная часть)", "Телефон 2": null, "Телефон 3": null, "Веб-сайт 1": "http://42.мвд.рф", "Веб-сайт 2": "http://rutube.ru/channel/24713061", "Веб-сайт 3": "http://t.me/gumvd42", "Twitter": null, "ВКонтакте": "https://vk.com/gumvd42", "Telegram": null, "YouTube": "https://youtube.com/channel/UCUAdtP4dot8A__6R2PxLToQ", "Широта": 55.341244, "Долгота": 86.120065, "2GIS URL": "https://2gis.com/firm/704215722783916" }, "geometry": { "type": "Point", "coordinates": [ 86.120065, 55.341244 ] } },
{ "type": "Feature", "properties": { "Наименование": "Южный", "Описание": "Отдел полиции", "Рубрики": "Отделения полиции", "Адрес": "Веры Волошиной, 24", "Комментарий к адресу": null, "Почтовый индекс": 650024, "Микрорайон": "Южный м-н", "Район": "Заводский район", "Город": "Кемерово", "Округ": "Кемеровский городской округ", "Регион": "Кемеровская область — Кузбасс", "Страна": "Россия", "Часы работы": "Пн: 00:00-24:00; Вт: 00:00-24:00; Ср: 00:00-24:00; Чт: 00:00-24:00; Пт: 00:00-24:00; Сб: 00:00-24:00; Вс: 00:00-24:00", "Часовой пояс": "+07:00", "Рейтинг": null, "Количество отзывов": null, "Телефон 1": "83842381830 (дежурная часть)", "Телефон 2": "83842778510 (дежурная часть)", "Телефон 3": "83842382310", "Веб-сайт 1": null, "Веб-сайт 2": null, "Веб-сайт 3": null, "Twitter": null, "ВКонтакте": "https://vk.com/mvd", "Telegram": null, "YouTube": null, "Широта": 55.311673, "Долгота": 86.083874, "2GIS URL": "https://2gis.com/firm/704215722754539" }, "geometry": { "type": "Point", "coordinates": [ 86.083874, 55.311673 ] } },
{ "type": "Feature", "properties": { "Наименование": "Отдел полиции ФПК", "Описание": "Управление МВД России по г. Кемерово", "Рубрики": "Отделения полиции", "Адрес": "Свободы, 14", "Комментарий к адресу": null, "Почтовый индекс": 650070, "Микрорайон": "ФПК м-н", "Район": "Заводский район", "Город": "Кемерово", "Округ": "Кемеровский городской округ", "Регион": "Кемеровская область — Кузбасс", "Страна": "Россия", "Часы работы": "Пн: 00:00-24:00; Вт: 00:00-24:00; Ср: 00:00-24:00; Чт: 00:00-24:00; Пт: 00:00-24:00; Сб: 00:00-24:00; Вс: 00:00-24:00", "Часовой пояс": "+07:00", "Рейтинг": null, "Количество отзывов": null, "Телефон 1": "83842567648 (дежурная часть)", "Телефон 2": null, "Телефон 3": null, "Веб-сайт 1": null, "Веб-сайт 2": null, "Веб-сайт 3": null, "Twitter": null, "ВКонтакте": "https://vk.com/mvd", "Telegram": null, "YouTube": null, "Широта": 55.329379, "Долгота": 86.113044, "2GIS URL": "https://2gis.com/firm/704215722754540" }, "geometry": { "type": "Point", "coordinates": [ 86.113044, 55.329379 ] } },
{ "type": "Feature", "properties": { "Наименование": "Отдел полиции Ягуновский", "Описание": "Управление МВД России по г. Кемерово", "Рубрики": "Отделения полиции", "Адрес": "Белозёрная, 40а", "Комментарий к адресу": "1 этаж", "Почтовый индекс": 650905, "Микрорайон": "Ягуновский м-н", "Район": "Заводский район", "Город": "Кемерово", "Округ": "Кемеровский городской округ", "Регион": "Кемеровская область — Кузбасс", "Страна": "Россия", "Часы работы": "Пн: 00:00-24:00; Вт: 00:00-24:00; Ср: 00:00-24:00; Чт: 00:00-24:00; Пт: 00:00-24:00; Сб: 00:00-24:00; Вс: 00:00-24:00", "Часовой пояс": "+07:00", "Рейтинг": null, "Количество отзывов": null, "Телефон 1": "83842321055 (дежурная часть)", "Телефон 2": null, "Телефон 3": null, "Веб-сайт 1": null, "Веб-сайт 2": null, "Веб-сайт 3": null, "Twitter": null, "ВКонтакте": "https://vk.com/mvd", "Telegram": null, "YouTube": null, "Широта": 55.278994, "Долгота": 85.984532, "2GIS URL": "https://2gis.com/firm/704215722754542" }, "geometry": { "type": "Point", "coordinates": [ 85.984532, 55.278994 ] } },
{ "type": "Feature", "properties": { "Наименование": "Линейный отдел полиции в аэропорту г. Кемерово", "Описание": null, "Рубрики": "Отделения полиции", "Адрес": "Аэропорт, 2", "Комментарий к адресу": null, "Почтовый индекс": 650070, "Микрорайон": null, "Район": "Заводский район", "Город": "Кемерово", "Округ": "Кемеровский городской округ", "Регион": "Кемеровская область — Кузбасс", "Страна": "Россия", "Часы работы": "Пн: 00:00-24:00; Вт: 00:00-24:00; Ср: 00:00-24:00; Чт: 00:00-24:00; Пт: 00:00-24:00; Сб: 00:00-24:00; Вс: 00:00-24:00", "Часовой пояс": "+07:00", "Рейтинг": null, "Количество отзывов": null, "Телефон 1": "83842390291 (дежурная часть)", "Телефон 2": null, "Телефон 3": null, "Веб-сайт 1": "http://xn--90antjiff.xn--b1aew.xn--p1ai/", "Веб-сайт 2": "http://rutube.ru/channel/25505727/", "Веб-сайт 3": "http://t.me/utsibfo", "Twitter": null, "ВКонтакте": "https://vk.com/utsibfo", "Telegram": null, "YouTube": "https://youtube.com/user/utsibfo", "Широта": 55.28122, "Долгота": 86.117651, "2GIS URL": "https://2gis.com/firm/70000001026740521" }, "geometry": { "type": "Point", "coordinates": [ 86.117651, 55.28122 ] } },
{ "type": "Feature", "properties": { "Наименование": "Участковый пункт полиции", "Описание": "Управление МВД РФ по г. Кемерово", "Рубрики": "Отделения полиции", "Адрес": "Предзаводская, 24", "Комментарий к адресу": null, "Почтовый индекс": 650021, "Микрорайон": "Предзаводской м-н", "Район": "Заводский район", "Город": "Кемерово", "Округ": "Кемеровский городской округ", "Регион": "Кемеровская область — Кузбасс", "Страна": "Россия", "Часы работы": null, "Часовой пояс": "+07:00", "Рейтинг": null, "Количество отзывов": null, "Телефон 1": "88002227447", "Телефон 2": null, "Телефон 3": null, "Веб-сайт 1": "http://42.mvd.ru", "Веб-сайт 2": "http://мвд.рф", "Веб-сайт 3": null, "Twitter": "https://twitter.com/mvd_official", "ВКонтакте": "https://vk.com/mvd", "Telegram": null, "YouTube": "https://youtube.com/user/mvdros", "Широта": 55.342085, "Долгота": 86.002041, "2GIS URL": "https://2gis.com/firm/70000001054527103" }, "geometry": { "type": "Point", "coordinates": [ 86.002041, 55.342085 ] } }
]
}
