{
"type": "FeatureCollection",
"name": "polyclinic",
"crs": { "type": "name", "properties": { "name": "urn:ogc:def:crs:OGC:1.3:CRS84" } },
"features": [
{ "type": "Feature", "properties": { "Наименование": "Поликлиника №1", "Описание": null, "Рубрики": "Взрослые поликлиники", "Адрес": "Новогодняя, 1", "Комментарий к адресу": "1 этаж", "Почтовый индекс": 650903, "Микрорайон": "Кедровка м-н", "Район": "Рудничный район", "Город": "Кемерово", "Округ": "Кемеровский городской округ", "Регион": "Кемеровская область — Кузбасс", "Страна": "Россия", "Часы работы": "Пн: 07:30-20:00; Вт: 07:30-20:00; Ср: 07:30-20:00; Чт: 07:30-20:00; Пт: 07:30-20:00; Сб: 09:00-14:00 (касса: пн-пт 8:00-16:00, обед 12:00-12:30)", "Часовой пояс": "+07:00", "Рейтинг": null, "Количество отзывов": null, "Телефон 1": "83842648783 (приемная главного врача )", "Телефон 2": "83842648800 (приемное отделение хирургического корпуса)", "Телефон 3": "83842647512 (приемное отделение терапевтического корпуса)", "Веб-сайт 1": "http://www.kemgkb11.ru", "Веб-сайт 2": null, "ВКонтакте": "https://vk.com/public215839845", "Telegram": "https://t.me/kemgkb11", "Широта": 55.519284, "Долгота": 86.106732, "2GIS URL": "https://2gis.com/firm/70000001086736204" }, "geometry": { "type": "Point", "coordinates": [ 86.106732, 55.519284 ] } },
{ "type": "Feature", "properties": { "Наименование": "Поликлиника №1", "Описание": null, "Рубрики": "Взрослые поликлиники; Детские поликлиники", "Адрес": "Варяжская, 15", "Комментарий к адресу": null, "Почтовый индекс": 650904, "Микрорайон": "Промышленновский м-н", "Район": "Рудничный район", "Город": "Кемерово", "Округ": "Кемеровский городской округ", "Регион": "Кемеровская область — Кузбасс", "Страна": "Россия", "Часы работы": "Пн: 08:00-18:00; Вт: 08:00-18:00; Ср: 08:00-18:00; Чт: 08:00-18:00; Пт: 08:00-18:00; Сб: 08:00-11:00 (дежурный врач: сб 8:00-11:00)", "Часовой пояс": "+07:00", "Рейтинг": 1.0, "Количество отзывов": 3, "Телефон 1": "83842606606 (пункт вакцинации)", "Телефон 2": null, "Телефон 3": null, "Веб-сайт 1": "http://zdr369.poliklinic.ru", "Веб-сайт 2": null, "ВКонтакте": "https://vk.com/public215839845", "Telegram": "https://t.me/kemgkb11", "Широта": 55.498313, "Долгота": 86.168762, "2GIS URL": "https://2gis.com/firm/704215722879411" }, "geometry": { "type": "Point", "coordinates": [ 86.168762, 55.498313 ] } },
{ "type": "Feature", "properties": { "Наименование": "Взрослая поликлиника", "Описание": null, "Рубрики": "Взрослые поликлиники", "Адрес": "проспект Шахтёров, 113", "Комментарий к адресу": null, "Почтовый индекс": 650002, "Микрорайон": "Радуга м-н", "Район": "Рудничный район", "Город": "Кемерово", "Округ": "Кемеровский городской округ", "Регион": "Кемеровская область — Кузбасс", "Страна": "Россия", "Часы работы": "Пн: 08:00-17:00; Вт: 08:00-17:00; Ср: 08:00-17:00; Чт: 08:00-17:00; Пт: 08:00-17:00; Сб: 08:00-13:00 (дежурный врач: пн-вс 8:00-18:00)", "Часовой пояс": "+07:00", "Рейтинг": 2.5, "Количество отзывов": 15, "Телефон 1": "83842657878 (регистратура)", "Телефон 2": null, "Телефон 3": null, "Веб-сайт 1": "http://crbkem.ru", "Веб-сайт 2": null, "ВКонтакте": "https://vk.com/public205485190", "Telegram": null, "Широта": 55.410836, "Долгота": 86.123482, "2GIS URL": "https://2gis.com/firm/704215722760305" }, "geometry": { "type": "Point", "coordinates": [ 86.123482, 55.410836 ] } },
{ "type": "Feature", "properties": { "Наименование": "Кемеровская городская клиническая поликлиника №5 им. Л.И. Темерхановой", "Описание": "отделение №3", "Рубрики": "Взрослые поликлиники; Вакцинация от COVID-19", "Адрес": "проспект Шахтёров, 72", "Комментарий к адресу": "1 этаж", "Почтовый индекс": 650061, "Микрорайон": "Серебряный бор на Радуге жилой комплекс", "Район": "Рудничный район", "Город": "Кемерово", "Округ": "Кемеровский городской округ", "Регион": "Кемеровская область — Кузбасс", "Страна": "Россия", "Часы работы": "Пн: 07:30-19:00; Вт: 07:30-19:00; Ср: 07:30-19:00; Чт: 07:30-19:00; Пт: 07:30-19:00; Сб: 08:00-14:00 (дежурный врач: сб 8:00-14:00)", "Часовой пояс": "+07:00", "Рейтинг": 2.0, "Количество отзывов": 167, "Телефон 1": "83842774408", "Телефон 2": "83842544381", "Телефон 3": "83842774407 (регистратура)", "Веб-сайт 1": "http://Kem-pol5.ru", "Веб-сайт 2": null, "ВКонтакте": null, "Telegram": null, "Широта": 55.405679, "Долгота": 86.12426, "2GIS URL": "https://2gis.com/firm/704215722859732" }, "geometry": { "type": "Point", "coordinates": [ 86.12426, 55.405679 ] } },
{ "type": "Feature", "properties": { "Наименование": "Консультативная поликлиника", "Описание": null, "Рубрики": "Взрослые поликлиники", "Адрес": "Николая Островского, 22 к3", "Комментарий к адресу": null, "Почтовый индекс": 650000, "Микрорайон": null, "Район": "Центральный район", "Город": "Кемерово", "Округ": "Кемеровский городской округ", "Регион": "Кемеровская область — Кузбасс", "Страна": "Россия", "Часы работы": "Пн: 08:00-15:48; Вт: 08:00-15:48; Ср: 08:00-15:48; Чт: 08:00-15:48; Пт: 08:00-15:48", "Часовой пояс": "+07:00", "Рейтинг": 1.7, "Количество отзывов": 23, "Телефон 1": "83842452992", "Телефон 2": "83842455156", "Телефон 3": null, "Веб-сайт 1": "http://kkbsmp.ru", "Веб-сайт 2": null, "ВКонтакте": "https://vk.com/kkbsmp42", "Telegram": "https://t.me/kkbsmp", "Широта": 55.36118, "Долгота": 86.080852, "2GIS URL": "https://2gis.com/firm/704215722760230" }, "geometry": { "type": "Point", "coordinates": [ 86.080852, 55.36118 ] } },
{ "type": "Feature", "properties": { "Наименование": "Кузбасский клинический фтизиопульмологический медицинский центр им. И.Ф. Копыловой", "Описание": "детское отделение терапии туберкулёза лёгких №1", "Рубрики": "Взрослые поликлиники", "Адрес": "улица Рутгерса, 18", "Комментарий к адресу": null, "Почтовый индекс": 650044, "Микрорайон": null, "Район": "Рудничный район", "Город": "Кемерово", "Округ": "Кемеровский городской округ", "Регион": "Кемеровская область — Кузбасс", "Страна": "Россия", "Часы работы": "Пн: 08:00-15:00; Вт: 08:00-15:00; Ср: 08:00-15:00; Чт: 08:00-15:00; Пт: 08:00-15:00", "Часовой пояс": "+07:00", "Рейтинг": null, "Количество отзывов": null, "Телефон 1": "83842544609 (приёмная гл. врача)", "Телефон 2": null, "Телефон 3": null, "Веб-сайт 1": "http://www.tubdisp.ru", "Веб-сайт 2": null, "ВКонтакте": "https://vk.com/ftiziatr_kuzbass", "Telegram": null, "Широта": 55.379936, "Долгота": 86.080617, "2GIS URL": "https://2gis.com/firm/70000001045909222" }, "geometry": { "type": "Point", "coordinates": [ 86.080617, 55.379936 ] } },
{ "type": "Feature", "properties": { "Наименование": "Поликлиника", "Описание": null, "Рубрики": "Взрослые поликлиники", "Адрес": "бульвар им. академика Леонида Барбараша, 6", "Комментарий к адресу": "1 этаж", "Почтовый индекс": 650002, "Микрорайон": "Радуга м-н", "Район": "Рудничный район", "Город": "Кемерово", "Округ": "Кемеровский городской округ", "Регион": "Кемеровская область — Кузбасс", "Страна": "Россия", "Часы работы": "Пн: 07:30-18:00; Вт: 07:30-18:00; Ср: 07:30-18:00; Чт: 07:30-18:00; Пт: 07:30-16:00; Сб: 08:00-14:00", "Часовой пояс": "+07:00", "Рейтинг": 1.8, "Количество отзывов": 88, "Телефон 1": "83842780278 (регистратура)", "Телефон 2": null, "Телефон 3": null, "Веб-сайт 1": "http://d.kemcardio.ru/", "Веб-сайт 2": null, "ВКонтакте": null, "Telegram": null, "Широта": 55.389479, "Долгота": 86.125794, "2GIS URL": "https://2gis.com/firm/704215722760548" }, "geometry": { "type": "Point", "coordinates": [ 86.125794, 55.389479 ] } },
{ "type": "Feature", "properties": { "Наименование": "Поликлиника", "Описание": "Областная клиническая больница скорой медицинской помощи им. М.А. Подгорбунского", "Рубрики": "Взрослые поликлиники", "Адрес": "Александрова, 7 к2", "Комментарий к адресу": null, "Почтовый индекс": 650033, "Микрорайон": null, "Район": "Кировский район", "Город": "Кемерово", "Округ": "Кемеровский городской округ", "Регион": "Кемеровская область — Кузбасс", "Страна": "Россия", "Часы работы": "Пн: 07:30-19:00; Вт: 07:30-19:00; Ср: 07:30-19:00; Чт: 07:30-19:00; Пт: 07:30-19:00; Сб: 07:45-14:00 (дежурный врач: сб 8:00-13:00)", "Часовой пояс": "+07:00", "Рейтинг": 1.2, "Количество отзывов": 58, "Телефон 1": "83842452992 (единая справочная - пн-пт 8:00-18:00; сб 8:00-14:00)", "Телефон 2": null, "Телефон 3": null, "Веб-сайт 1": null, "Веб-сайт 2": null, "ВКонтакте": null, "Telegram": null, "Широта": 55.396323, "Долгота": 86.017975, "2GIS URL": "https://2gis.com/firm/704215723289881" }, "geometry": { "type": "Point", "coordinates": [ 86.017975, 55.396323 ] } },
{ "type": "Feature", "properties": { "Наименование": "Детская поликлиника №2", "Описание": null, "Рубрики": "Детские поликлиники", "Адрес": "проспект Шахтёров, 73", "Комментарий к адресу": "цокольный, 1 этаж", "Почтовый индекс": 650002, "Микрорайон": "Радуга м-н", "Район": "Рудничный район", "Город": "Кемерово", "Округ": "Кемеровский городской округ", "Регион": "Кемеровская область — Кузбасс", "Страна": "Россия", "Часы работы": "Пн: 07:30-19:00; Вт: 07:30-19:00; Ср: 07:30-19:00; Чт: 07:30-19:00; Пт: 07:30-19:00; Сб: 08:00-14:00 (дежурный врач: сб 8:00-14:00)", "Часовой пояс": "+07:00", "Рейтинг": 2.0, "Количество отзывов": 183, "Телефон 1": "83842780373 (регистратура)", "Телефон 2": null, "Телефон 3": null, "Веб-сайт 1": null, "Веб-сайт 2": null, "ВКонтакте": null, "Telegram": null, "Широта": 55.39704, "Долгота": 86.113778, "2GIS URL": "https://2gis.com/firm/704215722760301" }, "geometry": { "type": "Point", "coordinates": [ 86.113778, 55.39704 ] } },
{ "type": "Feature", "properties": { "Наименование": "Кемеровская городская клиническая поликлиника №5 им. Л.И. Темерхановой", "Описание": null, "Рубрики": "Взрослые поликлиники", "Адрес": "проспект Ленина, 107", "Комментарий к адресу": "1 этаж", "Почтовый индекс": 650036, "Микрорайон": null, "Район": "Центральный район", "Город": "Кемерово", "Округ": "Кемеровский городской округ", "Регион": "Кемеровская область — Кузбасс", "Страна": "Россия", "Часы работы": "Пн: 07:30-20:00; Вт: 07:30-20:00; Ср: 07:30-20:00; Чт: 07:30-20:00; Пт: 07:30-20:00; Сб: 09:00-14:00", "Часовой пояс": "+07:00", "Рейтинг": 1.8, "Количество отзывов": 373, "Телефон 1": "83842780981 (многоканальный)", "Телефон 2": null, "Телефон 3": null, "Веб-сайт 1": "http://Kem-pol5.ru", "Веб-сайт 2": null, "ВКонтакте": null, "Telegram": null, "Широта": 55.343967, "Долгота": 86.141119, "2GIS URL": "https://2gis.com/firm/704215722756324" }, "geometry": { "type": "Point", "coordinates": [ 86.141119, 55.343967 ] } },
{ "type": "Feature", "properties": { "Наименование": "Поликлиника №1", "Описание": null, "Рубрики": "Взрослые поликлиники", "Адрес": "Ленинградский проспект, 49", "Комментарий к адресу": null, "Почтовый индекс": 650003, "Микрорайон": null, "Район": "Ленинский район", "Город": "Кемерово", "Округ": "Кемеровский городской округ", "Регион": "Кемеровская область — Кузбасс", "Страна": "Россия", "Часы работы": "Пн: 07:30-20:00; Вт: 07:30-20:00; Ср: 07:30-20:00; Чт: 07:30-20:00; Пт: 07:30-20:00; Сб: 09:00-14:00 (дежурный врач: сб 8:00-13:00)", "Часовой пояс": "+07:00", "Рейтинг": 1.6, "Количество отзывов": 180, "Телефон 1": "83842733671 (регистратура)", "Телефон 2": "83842780349 (регистратура)", "Телефон 3": "83842739671 (приемная)", "Веб-сайт 1": "http://www.kemdc.ru", "Веб-сайт 2": null, "ВКонтакте": null, "Telegram": null, "Широта": 55.337607, "Долгота": 86.183455, "2GIS URL": "https://2gis.com/firm/704215722760419" }, "geometry": { "type": "Point", "coordinates": [ 86.183455, 55.337607 ] } },
{ "type": "Feature", "properties": { "Наименование": "Поликлиника №2", "Описание": null, "Рубрики": "Взрослые поликлиники", "Адрес": "Московский проспект, 37", "Комментарий к адресу": null, "Почтовый индекс": 650065, "Микрорайон": "Шалготарьян м-н", "Район": "Ленинский район", "Город": "Кемерово", "Округ": "Кемеровский городской округ", "Регион": "Кемеровская область — Кузбасс", "Страна": "Россия", "Часы работы": "Пн: 07:30-20:00; Вт: 07:30-20:00; Ср: 07:30-20:00; Чт: 07:30-20:00; Пт: 09:00-14:00; Сб: 09:00-14:00 (дежурный врач: сб 8:00-13:00)", "Часовой пояс": "+07:00", "Рейтинг": 2.1, "Количество отзывов": 167, "Телефон 1": "83842780337 (регистратура)", "Телефон 2": "83842539211 (пункт вакцинации)", "Телефон 3": null, "Веб-сайт 1": "http://www.kemdc.ru", "Веб-сайт 2": null, "ВКонтакте": "https://vk.com/diagnostcentr42", "Telegram": null, "Широта": 55.360659, "Долгота": 86.168412, "2GIS URL": "https://2gis.com/firm/704215722877234" }, "geometry": { "type": "Point", "coordinates": [ 86.168412, 55.360659 ] } },
{ "type": "Feature", "properties": { "Наименование": "Кузбасский клинический фтизиопульмологический медицинский центр им. И.Ф. Копыловой", "Описание": "амбулаторное отделение №1", "Рубрики": "Взрослые поликлиники", "Адрес": "проспект Химиков, 5", "Комментарий к адресу": null, "Почтовый индекс": 650036, "Микрорайон": null, "Район": "Ленинский район", "Город": "Кемерово", "Округ": "Кемеровский городской округ", "Регион": "Кемеровская область — Кузбасс", "Страна": "Россия", "Часы работы": "Пн: 08:00-14:00; Вт: 08:00-14:00; Ср: 08:00-14:00; Чт: 08:00-14:00; Пт: 08:00-14:00", "Часовой пояс": "+07:00", "Рейтинг": 1.0, "Количество отзывов": 1, "Телефон 1": "83842541671 (регистратура)", "Телефон 2": null, "Телефон 3": null, "Веб-сайт 1": "http://www.tubdisp.ru", "Веб-сайт 2": null, "ВКонтакте": "https://vk.com/ftiziatr_kuzbass", "Telegram": null, "Широта": 55.335322, "Долгота": 86.151298, "2GIS URL": "https://2gis.com/firm/704215723247432" }, "geometry": { "type": "Point", "coordinates": [ 86.151298, 55.335322 ] } },
{ "type": "Feature", "properties": { "Наименование": "Кемеровская городская клиническая поликлиника №5 им. Л.И. Темерхановой", "Описание": "отделение №4, отделение №5, отделение №6", "Рубрики": "Взрослые поликлиники", "Адрес": "Гагарина, 138", "Комментарий к адресу": null, "Почтовый индекс": 650036, "Микрорайон": null, "Район": "Центральный район", "Город": "Кемерово", "Округ": "Кемеровский городской округ", "Регион": "Кемеровская область — Кузбасс", "Страна": "Россия", "Часы работы": "Пн: 08:00-20:00; Вт: 08:00-20:00; Ср: 08:00-20:00; Чт: 08:00-20:00; Пт: 08:00-20:00", "Часовой пояс": "+07:00", "Рейтинг": 1.5, "Количество отзывов": 18, "Телефон 1": "83842780981 (многоканальный)", "Телефон 2": null, "Телефон 3": null, "Веб-сайт 1": "http://Kem-pol5.ru", "Веб-сайт 2": null, "ВКонтакте": null, "Telegram": null, "Широта": 55.340264, "Долгота": 86.139988, "2GIS URL": "https://2gis.com/firm/70000001053487443" }, "geometry": { "type": "Point", "coordinates": [ 86.139988, 55.340264 ] } },
{ "type": "Feature", "properties": { "Наименование": "Кузбасская областная клиническая больница С.В. Беляева", "Описание": "консультативная поликлиника", "Рубрики": "Взрослые поликлиники", "Адрес": "Октябрьский проспект, 22", "Комментарий к адресу": null, "Почтовый индекс": 650066, "Микрорайон": null, "Район": "Центральный район", "Город": "Кемерово", "Округ": "Кемеровский городской округ", "Регион": "Кемеровская область — Кузбасс", "Страна": "Россия", "Часы работы": "Пн: 08:00-16:00; Вт: 08:00-16:00; Ср: 08:00-16:00; Чт: 08:00-16:00; Пт: 08:00-16:00", "Часовой пояс": "+07:00", "Рейтинг": 1.9, "Количество отзывов": 123, "Телефон 1": "83842396533", "Телефон 2": null, "Телефон 3": null, "Веб-сайт 1": null, "Веб-сайт 2": null, "ВКонтакте": null, "Telegram": null, "Широта": 55.349035, "Долгота": 86.119137, "2GIS URL": "https://2gis.com/firm/70000001030218280" }, "geometry": { "type": "Point", "coordinates": [ 86.119137, 55.349035 ] } },
{ "type": "Feature", "properties": { "Наименование": " Студенческая поликлиника №10", "Описание": null, "Рубрики": "Взрослые поликлиники", "Адрес": "Красноармейская улица, 115", "Комментарий к адресу": null, "Почтовый индекс": 650000, "Микрорайон": null, "Район": "Центральный район", "Город": "Кемерово", "Округ": "Кемеровский городской округ", "Регион": "Кемеровская область — Кузбасс", "Страна": "Россия", "Часы работы": "Пн: 08:00-19:00; Вт: 08:00-19:00; Ср: 08:00-19:00; Чт: 08:00-19:00; Пт: 08:00-19:00; Сб: 09:00-14:00 (дежурный врач: сб 8:00-13:00)", "Часовой пояс": "+07:00", "Рейтинг": 2.5, "Количество отзывов": 437, "Телефон 1": "83842780310 (регистратура)", "Телефон 2": "83842362134 (приемная)", "Телефон 3": null, "Веб-сайт 1": "http://kemdc.ru", "Веб-сайт 2": null, "ВКонтакте": "https://vk.com/club205438248", "Telegram": null, "Широта": 55.34941, "Долгота": 86.079344, "2GIS URL": "https://2gis.com/firm/704215722756308" }, "geometry": { "type": "Point", "coordinates": [ 86.079344, 55.34941 ] } },
{ "type": "Feature", "properties": { "Наименование": "Кузбасский клинический госпиталь для Ветеранов Войн", "Описание": "поликлиническое отделение", "Рубрики": "Взрослые поликлиники; Услуги проктолога; Услуги ЛОРа (отоларинголога); Услуги невролога; Услуги ревматолога", "Адрес": "улица 50 лет Октября, 10", "Комментарий к адресу": null, "Почтовый индекс": 650000, "Микрорайон": null, "Район": "Центральный район", "Город": "Кемерово", "Округ": "Кемеровский городской округ", "Регион": "Кемеровская область — Кузбасс", "Страна": "Россия", "Часы работы": "Пн: 07:30-20:00; Вт: 07:30-20:00; Ср: 07:30-20:00; Чт: 07:30-20:00; Пт: 07:30-20:00; Сб: 08:00-18:00 (красная зона: пн-пт 8:00-20:00; сб 8:00-18:00; дежурный врач: сб 8:00-14:00)", "Часовой пояс": "+07:00", "Рейтинг": 3.1, "Количество отзывов": 52, "Телефон 1": "83842581060 (приёмная главного врача)", "Телефон 2": "83842581700 (регистратура)", "Телефон 3": "83842583151 (регистратура платных услуг)", "Веб-сайт 1": "http://kemokgvv.ru", "Веб-сайт 2": null, "ВКонтакте": "https://vk.com/id763008527", "Telegram": "https://t.me/kkgvv", "Широта": 55.351936, "Долгота": 86.086465, "2GIS URL": "https://2gis.com/firm/70000001006967700" }, "geometry": { "type": "Point", "coordinates": [ 86.086465, 55.351936 ] } },
{ "type": "Feature", "properties": { "Наименование": "Поликлиника", "Описание": null, "Рубрики": "Взрослые поликлиники; Услуги маммолога; Услуги кардиолога; Услуги эндокринолога; Услуги медицинской диагностики; Услуги невролога; Услуги нефролога; Услуги аллерголога / иммунолога; Услуги гинеколога; Услуги ревматолога; Услуги терапевта; Услуги офтальмолога; Услуги массажиста; Услуги уролога; Услуги мануального терапевта; Услуги профпатолога; Услуги ЛОРа (отоларинголога); Услуги дерматолога; Услуги психиатра; Частные стоматологии; Услуги инфекциониста", "Адрес": "Октябрьский проспект, 53/1", "Комментарий к адресу": null, "Почтовый индекс": 650066, "Микрорайон": null, "Район": "Центральный район", "Город": "Кемерово", "Округ": "Кемеровский городской округ", "Регион": "Кемеровская область — Кузбасс", "Страна": "Россия", "Часы работы": "Пн: 07:30-20:00; Вт: 07:30-20:00; Ср: 07:30-20:00; Чт: 07:30-20:00; Пт: 07:30-20:00; Сб: 09:00-14:00", "Часовой пояс": "+07:00", "Рейтинг": 2.0, "Количество отзывов": 459, "Телефон 1": "83842780070 (регистратура ОМС)", "Телефон 2": "83842357627 (регистратура ДМС)", "Телефон 3": "83842353287 (регистратура МРТ)", "Веб-сайт 1": "http://kemdc.ru", "Веб-сайт 2": null, "ВКонтакте": "https://vk.com/diagnostcentr42", "Telegram": null, "Широта": 55.346679, "Долгота": 86.127683, "2GIS URL": "https://2gis.com/firm/704215722759585" }, "geometry": { "type": "Point", "coordinates": [ 86.127683, 55.346679 ] } },
{ "type": "Feature", "properties": { "Наименование": "Поликлиника №3", "Описание": null, "Рубрики": "Взрослые поликлиники", "Адрес": "улица Весенняя, 8", "Комментарий к адресу": "1 этаж", "Почтовый индекс": 650000, "Микрорайон": null, "Район": "Центральный район", "Город": "Кемерово", "Округ": "Кемеровский городской округ", "Регион": "Кемеровская область — Кузбасс", "Страна": "Россия", "Часы работы": "Пн: 08:00-19:00; Вт: 08:00-19:00; Ср: 08:00-19:00; Чт: 08:00-19:00; Пт: 08:00-19:00; Сб: 08:00-13:00 (дежурный врач: сб 8:00-13:00)", "Часовой пояс": "+07:00", "Рейтинг": 1.8, "Количество отзывов": 145, "Телефон 1": "83842780103", "Телефон 2": null, "Телефон 3": null, "Веб-сайт 1": "http://zdr357.poliklinic.ru", "Веб-сайт 2": null, "ВКонтакте": null, "Telegram": null, "Широта": 55.357638, "Долгота": 86.083287, "2GIS URL": "https://2gis.com/firm/704215722760319" }, "geometry": { "type": "Point", "coordinates": [ 86.083287, 55.357638 ] } },
{ "type": "Feature", "properties": { "Наименование": "Кемеровская городская клиническая больница №4", "Описание": "поликлиническое отделение №3", "Рубрики": "Взрослые поликлиники", "Адрес": "Сарыгина, 42", "Комментарий к адресу": null, "Почтовый индекс": 650055, "Микрорайон": null, "Район": "Заводский район", "Город": "Кемерово", "Округ": "Кемеровский городской округ", "Регион": "Кемеровская область — Кузбасс", "Страна": "Россия", "Часы работы": "Пн: 07:30-20:00; Вт: 07:30-20:00; Ср: 07:30-20:00; Чт: 07:30-20:00; Пт: 07:30-20:00; Сб: 08:00-14:00 (дежурный врач: сб 8:00-14:00)", "Часовой пояс": "+07:00", "Рейтинг": 1.6, "Количество отзывов": 148, "Телефон 1": "83842780565", "Телефон 2": null, "Телефон 3": null, "Веб-сайт 1": "http://kgkb4.ru", "Веб-сайт 2": null, "ВКонтакте": "https://vk.com/id644629701", "Telegram": "https://t.me/gauzgkb4", "Широта": 55.339372, "Долгота": 86.079203, "2GIS URL": "https://2gis.com/firm/704215722769639" }, "geometry": { "type": "Point", "coordinates": [ 86.079203, 55.339372 ] } },
{ "type": "Feature", "properties": { "Наименование": "Кемеровская городская клиническая больница №4", "Описание": "Поликлиническое отделение №4", "Рубрики": "Взрослые поликлиники", "Адрес": "Красноармейская улица, 93", "Комментарий к адресу": null, "Почтовый индекс": 650025, "Микрорайон": null, "Район": "Центральный район", "Город": "Кемерово", "Округ": "Кемеровский городской округ", "Регион": "Кемеровская область — Кузбасс", "Страна": "Россия", "Часы работы": "Пн: 07:30-20:00; Вт: 07:30-20:00; Ср: 07:30-20:00; Чт: 07:30-20:00; Пт: 07:30-20:00; Сб: 09:00-14:00 (прием граждан заведующей отделением: пн 10.00-12.00)", "Часовой пояс": "+07:00", "Рейтинг": 2.3, "Количество отзывов": 92, "Телефон 1": "83842780393 (регистратура)", "Телефон 2": "83842774780 (приемная гл. врача)", "Телефон 3": null, "Веб-сайт 1": "http://kgkb4.ru", "Веб-сайт 2": null, "ВКонтакте": "https://vk.com/id644629701", "Telegram": "https://t.me/gauzgkb4", "Широта": 55.352736, "Долгота": 86.065612, "2GIS URL": "https://2gis.com/firm/704215722758247" }, "geometry": { "type": "Point", "coordinates": [ 86.065612, 55.352736 ] } },
{ "type": "Feature", "properties": { "Наименование": "Кузбасский клинический фтизиопульмологический медицинский центр им. И.Ф. Копыловой", "Описание": "Амбулаторное отделение №2", "Рубрики": "Взрослые поликлиники", "Адрес": "Коммунистическая, 118а", "Комментарий к адресу": null, "Почтовый индекс": 650025, "Микрорайон": null, "Район": "Центральный район", "Город": "Кемерово", "Округ": "Кемеровский городской округ", "Регион": "Кемеровская область — Кузбасс", "Страна": "Россия", "Часы работы": "Пн: 08:00-17:00; Вт: 08:00-17:00; Ср: 08:00-17:00; Чт: 08:00-17:00; Пт: 08:00-17:00", "Часовой пояс": "+07:00", "Рейтинг": 1.3, "Количество отзывов": 17, "Телефон 1": "83842754014 (регистратура)", "Телефон 2": "83842441675", "Телефон 3": null, "Веб-сайт 1": "http://www.tubdisp.ru", "Веб-сайт 2": null, "ВКонтакте": "https://vk.com/ftiziatr_kuzbass", "Telegram": null, "Широта": 55.349311, "Долгота": 86.069004, "2GIS URL": "https://2gis.com/firm/704215723247288" }, "geometry": { "type": "Point", "coordinates": [ 86.069004, 55.349311 ] } },
{ "type": "Feature", "properties": { "Наименование": "РЖД-медицина", "Описание": "Физиотерапевтическое отделение", "Рубрики": "Взрослые поликлиники; Тонизирующие салоны; Услуги массажиста; Занятия лечебной физкультурой (ЛФК); Услуги физиотерапевта", "Адрес": "улица Сибиряков-Гвардейцев, 9", "Комментарий к адресу": "312 кабинет; 3 этаж", "Почтовый индекс": 650055, "Микрорайон": null, "Район": "Заводский район", "Город": "Кемерово", "Округ": "Кемеровский городской округ", "Регион": "Кемеровская область — Кузбасс", "Страна": "Россия", "Часы работы": "Пн: 08:00-12:00, 13:00-16:00; Вт: 08:00-12:00, 13:00-16:00; Ср: 08:00-12:00, 13:00-16:00; Чт: 08:00-12:00, 13:00-16:00; Пт: 08:00-12:00, 13:00-16:00", "Часовой пояс": "+07:00", "Рейтинг": 2.6, "Количество отзывов": 5, "Телефон 1": "83842323143 (регистратура)", "Телефон 2": "83842323842 (касса)", "Телефон 3": "83842323846 (касса)", "Веб-сайт 1": null, "Веб-сайт 2": null, "ВКонтакте": null, "Telegram": null, "Широта": 55.337251, "Долгота": 86.067184, "2GIS URL": "https://2gis.com/firm/704215722929102" }, "geometry": { "type": "Point", "coordinates": [ 86.067184, 55.337251 ] } },
{ "type": "Feature", "properties": { "Наименование": "Детская поликлиника №2", "Описание": null, "Рубрики": "Детские поликлиники", "Адрес": "Юбилейный переулок, 9", "Комментарий к адресу": null, "Почтовый индекс": 650902, "Микрорайон": "Боровой м-н", "Район": "Рудничный район", "Город": "Кемерово", "Округ": "Кемеровский городской округ", "Регион": "Кемеровская область — Кузбасс", "Страна": "Россия", "Часы работы": "Пн: 08:00-15:00; Вт: 08:00-15:00; Ср: 08:00-15:00; Чт: 08:00-15:00; Пт: 08:00-15:00; Сб: 08:00-14:00", "Часовой пояс": "+07:00", "Рейтинг": 1.0, "Количество отзывов": 1, "Телефон 1": "83842714712 (регистратура)", "Телефон 2": null, "Телефон 3": null, "Веб-сайт 1": null, "Веб-сайт 2": null, "ВКонтакте": null, "Telegram": null, "Широта": 55.444064, "Долгота": 86.072385, "2GIS URL": "https://2gis.com/firm/70000001043470733" }, "geometry": { "type": "Point", "coordinates": [ 86.072385, 55.444064 ] } },
{ "type": "Feature", "properties": { "Наименование": "Кемеровская городская клиническая больница №4", "Описание": "отделение платных услуг для периодического осмотра", "Рубрики": "Взрослые поликлиники", "Адрес": "Кузнецкий проспект, 103", "Комментарий к адресу": null, "Почтовый индекс": 650055, "Микрорайон": null, "Район": "Заводский район", "Город": "Кемерово", "Округ": "Кемеровский городской округ", "Регион": "Кемеровская область — Кузбасс", "Страна": "Россия", "Часы работы": "Пн: 08:00-18:00; Вт: 08:00-18:00; Ср: 08:00-18:00; Чт: 08:00-18:00; Пт: 08:00-18:00", "Часовой пояс": "+07:00", "Рейтинг": 2.5, "Количество отзывов": 63, "Телефон 1": "83842281209", "Телефон 2": null, "Телефон 3": null, "Веб-сайт 1": "http://kgkb4.ru", "Веб-сайт 2": null, "ВКонтакте": "https://vk.com/id644629701", "Telegram": "https://t.me/gauzgkb4", "Широта": 55.333942, "Долгота": 86.061783, "2GIS URL": "https://2gis.com/firm/70000001045575373" }, "geometry": { "type": "Point", "coordinates": [ 86.061783, 55.333942 ] } },
{ "type": "Feature", "properties": { "Наименование": "Поликлиническое отделение", "Описание": null, "Рубрики": "Детские поликлиники", "Адрес": "проспект Владимира Михайлова, 7", "Комментарий к адресу": null, "Почтовый индекс": 650071, "Микрорайон": "Лесная Поляна м-н", "Район": "Рудничный район", "Город": "Кемерово", "Округ": "Кемеровский городской округ", "Регион": "Кемеровская область — Кузбасс", "Страна": "Россия", "Часы работы": "Пн: 07:30-20:00; Вт: 07:30-20:00; Ср: 07:30-20:00; Чт: 07:30-20:00; Пт: 07:30-20:00; Сб: 09:00-14:00", "Часовой пояс": "+07:00", "Рейтинг": 2.4, "Количество отзывов": 169, "Телефон 1": "83842390339 (регистратура)", "Телефон 2": "83842390939 (пункт вакцинации)", "Телефон 3": "83842680033 (единый контакт-центр)", "Веб-сайт 1": null, "Веб-сайт 2": null, "ВКонтакте": "https://vk.com/kodkbatamanova", "Telegram": "https://t.me/kodkb", "Широта": 55.415996, "Долгота": 86.231071, "2GIS URL": "https://2gis.com/firm/70000001024418745" }, "geometry": { "type": "Point", "coordinates": [ 86.231071, 55.415996 ] } },
{ "type": "Feature", "properties": { "Наименование": "Кемеровская городская клиническая больница №4", "Описание": "поликлиническое отделение №2", "Рубрики": "Взрослые поликлиники", "Адрес": "Сергея Тюленина, 5Б", "Комментарий к адресу": null, "Почтовый индекс": 650024, "Микрорайон": "Южный м-н", "Район": "Заводский район", "Город": "Кемерово", "Округ": "Кемеровский городской округ", "Регион": "Кемеровская область — Кузбасс", "Страна": "Россия", "Часы работы": "Пн: 07:30-20:00; Вт: 07:30-20:00; Ср: 07:30-20:00; Чт: 07:30-20:00; Пт: 07:30-20:00; Сб: 08:00-14:00 (дежурный врач: сб 8:00-14:00)", "Часовой пояс": "+07:00", "Рейтинг": 1.6, "Количество отзывов": 149, "Телефон 1": "83842381879 (регистратура)", "Телефон 2": null, "Телефон 3": null, "Веб-сайт 1": "http://kemgb13.ru", "Веб-сайт 2": null, "ВКонтакте": "https://vk.com/id644629701", "Telegram": "https://t.me/gauzgkb4", "Широта": 55.317372, "Долгота": 86.078643, "2GIS URL": "https://2gis.com/firm/704215722891171" }, "geometry": { "type": "Point", "coordinates": [ 86.078643, 55.317372 ] } },
{ "type": "Feature", "properties": { "Наименование": "Кемеровская городская клиническая больница №4", "Описание": "поликлиническое отделение№5", "Рубрики": "Взрослые поликлиники", "Адрес": "Базовая, 12а", "Комментарий к адресу": null, "Почтовый индекс": 650024, "Микрорайон": "Южный м-н", "Район": "Заводский район", "Город": "Кемерово", "Округ": "Кемеровский городской округ", "Регион": "Кемеровская область — Кузбасс", "Страна": "Россия", "Часы работы": "Пн: 08:00-18:30; Вт: 08:00-18:30; Ср: 08:00-18:30; Чт: 08:00-18:30; Пт: 08:00-18:30", "Часовой пояс": "+07:00", "Рейтинг": 2.0, "Количество отзывов": 30, "Телефон 1": "83842773212 (регистратура)", "Телефон 2": null, "Телефон 3": null, "Веб-сайт 1": "http://kgkb4.ru", "Веб-сайт 2": null, "ВКонтакте": "https://vk.com/id644629701", "Telegram": "https://t.me/gauzgkb4", "Широта": 55.322543, "Долгота": 86.077013, "2GIS URL": "https://2gis.com/firm/70000001045576173" }, "geometry": { "type": "Point", "coordinates": [ 86.077013, 55.322543 ] } },
{ "type": "Feature", "properties": { "Наименование": "Кемеровская городская клиническая больница №4", "Описание": "поликлиническое отделение №1", "Рубрики": "Взрослые поликлиники", "Адрес": "Масальская, 68", "Комментарий к адресу": null, "Почтовый индекс": 650905, "Микрорайон": "Ягуновский м-н", "Район": "Заводский район", "Город": "Кемерово", "Округ": "Кемеровский городской округ", "Регион": "Кемеровская область — Кузбасс", "Страна": "Россия", "Часы работы": "Пн: 07:30-19:00; Вт: 07:30-19:00; Ср: 07:30-19:00; Чт: 07:30-19:00; Пт: 07:30-19:00; Сб: 09:00-14:00", "Часовой пояс": "+07:00", "Рейтинг": 1.7, "Количество отзывов": 10, "Телефон 1": "83842321650 (регистратура)", "Телефон 2": null, "Телефон 3": null, "Веб-сайт 1": "http://kgkb4.ru", "Веб-сайт 2": null, "ВКонтакте": "https://vk.com/id644629701", "Telegram": "https://t.me/gauzgkb4", "Широта": 55.278702, "Долгота": 85.993077, "2GIS URL": "https://2gis.com/firm/70000001041394466" }, "geometry": { "type": "Point", "coordinates": [ 85.993077, 55.278702 ] } },
{ "type": "Feature", "properties": { "Наименование": "Кузбасский клинический фтизиопульмологический медицинский центр им. И.Ф. Копыловой", "Описание": "отделение терапии туберкулеза легких", "Рубрики": "Взрослые поликлиники", "Адрес": "Энтузиастов, 1а", "Комментарий к адресу": null, "Почтовый индекс": 650905, "Микрорайон": "Ягуновский м-н", "Район": "Заводский район", "Город": "Кемерово", "Округ": "Кемеровский городской округ", "Регион": "Кемеровская область — Кузбасс", "Страна": "Россия", "Часы работы": "Пн: 08:00-15:00; Вт: 08:00-15:00; Ср: 08:00-15:00; Чт: 08:00-15:00; Пт: 08:00-15:00", "Часовой пояс": "+07:00", "Рейтинг": 2.0, "Количество отзывов": 1, "Телефон 1": "83842321104", "Телефон 2": "83842321199", "Телефон 3": null, "Веб-сайт 1": "http://www.tubdisp.ru", "Веб-сайт 2": null, "ВКонтакте": "https://vk.com/ftiziatr_kuzbass", "Telegram": null, "Широта": 55.286444, "Долгота": 85.990193, "2GIS URL": "https://2gis.com/firm/70000001045909214" }, "geometry": { "type": "Point", "coordinates": [ 85.990193, 55.286444 ] } },
{ "type": "Feature", "properties": { "Наименование": "Поликлиника №4", "Описание": null, "Рубрики": "Взрослые поликлиники", "Адрес": "Тухачевского, 29", "Комментарий к адресу": "1 этаж", "Почтовый индекс": 650070, "Микрорайон": "ФПК м-н", "Район": "Заводский район", "Город": "Кемерово", "Округ": "Кемеровский городской округ", "Регион": "Кемеровская область — Кузбасс", "Страна": "Россия", "Часы работы": "Пн: 07:30-20:00; Вт: 07:30-20:00; Ср: 07:30-20:00; Чт: 07:30-20:00; Пт: 07:30-20:00; Сб: 09:00-14:00 (дежурный врач: сб 9:00-14:00)", "Часовой пояс": "+07:00", "Рейтинг": 2.2, "Количество отзывов": 101, "Телефон 1": "83842774669", "Телефон 2": "83842774650 (пункт вакцинации)", "Телефон 3": null, "Веб-сайт 1": "http://www.kemdc.ru", "Веб-сайт 2": null, "ВКонтакте": null, "Telegram": null, "Широта": 55.332369, "Долгота": 86.13091, "2GIS URL": "https://2gis.com/firm/704215722769640" }, "geometry": { "type": "Point", "coordinates": [ 86.13091, 55.332369 ] } },
{ "type": "Feature", "properties": { "Наименование": "Кузбасский клинический фтизиопульмологический медицинский центр им. И.Ф. Копыловой", "Описание": "детская поликлиника", "Рубрики": "Детские поликлиники", "Адрес": "проспект Шахтёров, 25", "Комментарий к адресу": null, "Почтовый индекс": 650002, "Микрорайон": "Радуга м-н", "Район": "Рудничный район", "Город": "Кемерово", "Округ": "Кемеровский городской округ", "Регион": "Кемеровская область — Кузбасс", "Страна": "Россия", "Часы работы": "Пн: 08:00-17:00; Вт: 08:00-17:00; Ср: 08:00-17:00; Чт: 08:00-17:00; Пт: 08:00-17:00", "Часовой пояс": "+07:00", "Рейтинг": 5.0, "Количество отзывов": 2, "Телефон 1": "83842557838 (регистратура)", "Телефон 2": "83842557836", "Телефон 3": null, "Веб-сайт 1": null, "Веб-сайт 2": null, "ВКонтакте": "https://vk.com/ftiziatr_kuzbass", "Telegram": null, "Широта": 55.387433, "Долгота": 86.09964, "2GIS URL": "https://2gis.com/firm/70000001045909224" }, "geometry": { "type": "Point", "coordinates": [ 86.09964, 55.387433 ] } },
{ "type": "Feature", "properties": { "Наименование": "Детская поликлиника", "Описание": null, "Рубрики": "Детские поликлиники", "Адрес": "40 лет Октября, 9", "Комментарий к адресу": null, "Почтовый индекс": 650001, "Микрорайон": null, "Район": "Кировский район", "Город": "Кемерово", "Округ": "Кемеровский городской округ", "Регион": "Кемеровская область — Кузбасс", "Страна": "Россия", "Часы работы": "Пн: 08:00-18:00; Вт: 08:00-18:00; Ср: 08:00-18:00; Чт: 08:00-18:00; Пт: 08:00-18:00; Сб: 08:00-14:00 (дежурный врач: сб 8:00-14:00)", "Часовой пояс": "+07:00", "Рейтинг": 2.1, "Количество отзывов": 102, "Телефон 1": "83842250948 (приемная)", "Телефон 2": "83842255839 (зав. поликлиникой)", "Телефон 3": "83842452992 (регистратура)", "Веб-сайт 1": null, "Веб-сайт 2": null, "ВКонтакте": "https://vk.com/kgdkb_2", "Telegram": "https://t.me/detskaiabolnicakemerovo", "Широта": 55.391201, "Долгота": 86.004631, "2GIS URL": "https://2gis.com/firm/704215722758235" }, "geometry": { "type": "Point", "coordinates": [ 86.004631, 55.391201 ] } },
{ "type": "Feature", "properties": { "Наименование": "Детская поликлиника №2", "Описание": null, "Рубрики": "Детские поликлиники", "Адрес": "Ленинградский проспект, 12", "Комментарий к адресу": null, "Почтовый индекс": 650065, "Микрорайон": "Шалготарьян м-н", "Район": "Ленинский район", "Город": "Кемерово", "Округ": "Кемеровский городской округ", "Регион": "Кемеровская область — Кузбасс", "Страна": "Россия", "Часы работы": "Пн: 07:30-20:00; Вт: 07:30-20:00; Ср: 07:30-20:00; Чт: 07:30-20:00; Пт: 07:30-20:00; Сб: 09:00-14:00 (прием анализов: 7:40-10:00)", "Часовой пояс": "+07:00", "Рейтинг": 1.9, "Количество отзывов": 308, "Телефон 1": "83842680033", "Телефон 2": null, "Телефон 3": null, "Веб-сайт 1": null, "Веб-сайт 2": null, "ВКонтакте": null, "Telegram": null, "Широта": 55.358803, "Долгота": 86.165462, "2GIS URL": "https://2gis.com/firm/704215722760031" }, "geometry": { "type": "Point", "coordinates": [ 86.165462, 55.358803 ] } },
{ "type": "Feature", "properties": { "Наименование": "Кузбасская клиническая психиатрическая больница", "Описание": "детский диспансер", "Рубрики": "Детские поликлиники", "Адрес": "Волгоградская, 41", "Комментарий к адресу": null, "Почтовый индекс": 650036, "Микрорайон": null, "Район": "Ленинский район", "Город": "Кемерово", "Округ": "Кемеровский городской округ", "Регион": "Кемеровская область — Кузбасс", "Страна": "Россия", "Часы работы": "Пн: 08:00-15:00; Вт: 08:00-15:00; Ср: 08:00-15:00; Чт: 08:00-15:00; Пт: 08:00-15:00; Сб: 08:00-12:00 (дежурный врач: пн-пт 8:00-18:00; сб 8:00-14:00)", "Часовой пояс": "+07:00", "Рейтинг": 2.8, "Количество отзывов": 13, "Телефон 1": "83842541331 (регистратура)", "Телефон 2": null, "Телефон 3": null, "Веб-сайт 1": null, "Веб-сайт 2": null, "ВКонтакте": "https://vk.com/public208015450", "Telegram": "https://t.me/kuzbasskayakpb", "Широта": 55.332981, "Долгота": 86.158078, "2GIS URL": "https://2gis.com/firm/704215722760423" }, "geometry": { "type": "Point", "coordinates": [ 86.158078, 55.332981 ] } },
{ "type": "Feature", "properties": { "Наименование": "Консультативная поликлиника", "Описание": null, "Рубрики": "Детские поликлиники", "Адрес": "Ворошилова, 21", "Комментарий к адресу": "1 этаж", "Почтовый индекс": 650056, "Микрорайон": null, "Район": "Ленинский район", "Город": "Кемерово", "Округ": "Кемеровский городской округ", "Регион": "Кемеровская область — Кузбасс", "Страна": "Россия", "Часы работы": "Пн: 08:00-18:00; Вт: 08:00-18:00; Ср: 08:00-18:00; Чт: 08:00-18:00; Пт: 08:00-18:00 (первая сб месяца: 8:00-13:00)", "Часовой пояс": "+07:00", "Рейтинг": 1.7, "Количество отзывов": 118, "Телефон 1": "83842396737 (регистратура платных услуг)", "Телефон 2": "83842396239 (приемная гл. врача)", "Телефон 3": "83842680033 (единый контакт-центр)", "Веб-сайт 1": null, "Веб-сайт 2": null, "ВКонтакте": "https://vk.com/kodkbatamanova", "Telegram": "https://t.me/kodkb", "Широта": 55.333211, "Долгота": 86.166603, "2GIS URL": "https://2gis.com/firm/70000001024871880" }, "geometry": { "type": "Point", "coordinates": [ 86.166603, 55.333211 ] } },
{ "type": "Feature", "properties": { "Наименование": "Детская поликлиника №3", "Описание": null, "Рубрики": "Детские поликлиники", "Адрес": "Черняховского, 8а", "Комментарий к адресу": null, "Почтовый индекс": 650025, "Микрорайон": null, "Район": "Центральный район", "Город": "Кемерово", "Округ": "Кемеровский городской округ", "Регион": "Кемеровская область — Кузбасс", "Страна": "Россия", "Часы работы": "Пн: 08:00-20:00; Вт: 08:00-20:00; Ср: 08:00-20:00; Чт: 08:00-20:00; Пт: 08:00-20:00; Сб: 09:00-14:00", "Часовой пояс": "+07:00", "Рейтинг": 2.4, "Количество отзывов": 235, "Телефон 1": "83842680033 (единый контакт-центр)", "Телефон 2": null, "Телефон 3": null, "Веб-сайт 1": null, "Веб-сайт 2": null, "ВКонтакте": "https://vk.com/kodkbatamanova", "Telegram": "https://t.me/kodkb", "Широта": 55.346074, "Долгота": 86.072549, "2GIS URL": "https://2gis.com/firm/704215722759986" }, "geometry": { "type": "Point", "coordinates": [ 86.072549, 55.346074 ] } },
{ "type": "Feature", "properties": { "Наименование": "Поликлиника №1", "Описание": null, "Рубрики": "Детские поликлиники", "Адрес": "Тухачевского, 4", "Комментарий к адресу": "1 этаж", "Почтовый индекс": 650070, "Микрорайон": null, "Район": "Центральный район", "Город": "Кемерово", "Округ": "Кемеровский городской округ", "Регион": "Кемеровская область — Кузбасс", "Страна": "Россия", "Часы работы": "Пн: 07:30-20:00; Вт: 07:30-20:00; Ср: 07:30-20:00; Чт: 07:30-20:00; Пт: 07:30-20:00; Сб: 09:00-14:00", "Часовой пояс": "+07:00", "Рейтинг": 1.9, "Количество отзывов": 176, "Телефон 1": "83842680033", "Телефон 2": null, "Телефон 3": null, "Веб-сайт 1": null, "Веб-сайт 2": null, "ВКонтакте": null, "Telegram": null, "Широта": 55.343277, "Долгота": 86.131816, "2GIS URL": "https://2gis.com/firm/704215722760045" }, "geometry": { "type": "Point", "coordinates": [ 86.131816, 55.343277 ] } },
{ "type": "Feature", "properties": { "Наименование": "Детская поликлиника №3", "Описание": null, "Рубрики": "Детские поликлиники", "Адрес": "Заречная 1-я, 2", "Комментарий к адресу": "1 этаж", "Почтовый индекс": 650066, "Микрорайон": null, "Район": "Центральный район", "Город": "Кемерово", "Округ": "Кемеровский городской округ", "Регион": "Кемеровская область — Кузбасс", "Страна": "Россия", "Часы работы": "Пн: 08:00-20:00; Вт: 08:00-20:00; Ср: 08:00-20:00; Чт: 08:00-20:00; Пт: 08:00-20:00; Сб: 09:00-14:00", "Часовой пояс": "+07:00", "Рейтинг": 2.2, "Количество отзывов": 66, "Телефон 1": "83842680033 (единый контакт-центр)", "Телефон 2": null, "Телефон 3": null, "Веб-сайт 1": null, "Веб-сайт 2": null, "ВКонтакте": "https://vk.com/kodkbatamanova", "Telegram": "https://t.me/kodkb", "Широта": 55.352658, "Долгота": 86.111949, "2GIS URL": "https://2gis.com/firm/70000001045167964" }, "geometry": { "type": "Point", "coordinates": [ 86.111949, 55.352658 ] } },
{ "type": "Feature", "properties": { "Наименование": "Детская поликлиника №4", "Описание": null, "Рубрики": "Детские поликлиники", "Адрес": "Ульяны Громовой, 4", "Комментарий к адресу": null, "Почтовый индекс": 650024, "Микрорайон": "Южный м-н", "Район": "Заводский район", "Город": "Кемерово", "Округ": "Кемеровский городской округ", "Регион": "Кемеровская область — Кузбасс", "Страна": "Россия", "Часы работы": "Пн: 08:00-20:00; Вт: 08:00-20:00; Ср: 08:00-20:00; Чт: 08:00-20:00; Пт: 08:00-20:00; Сб: 09:00-14:00", "Часовой пояс": "+07:00", "Рейтинг": 2.4, "Количество отзывов": 132, "Телефон 1": "83842680033 (единый контакт-центр)", "Телефон 2": null, "Телефон 3": null, "Веб-сайт 1": null, "Веб-сайт 2": null, "ВКонтакте": "https://vk.com/kodkbatamanova", "Telegram": "https://t.me/kodkb", "Широта": 55.318179, "Долгота": 86.076081, "2GIS URL": "https://2gis.com/firm/704215722760049" }, "geometry": { "type": "Point", "coordinates": [ 86.076081, 55.318179 ] } },
{ "type": "Feature", "properties": { "Наименование": "Детская поликлиника №3", "Описание": null, "Рубрики": "Детские поликлиники", "Адрес": "Барнаульская, 27", "Комментарий к адресу": null, "Почтовый индекс": 650905, "Микрорайон": "Ягуновский м-н", "Район": "Заводский район", "Город": "Кемерово", "Округ": "Кемеровский городской округ", "Регион": "Кемеровская область — Кузбасс", "Страна": "Россия", "Часы работы": "Пн: 08:00-16:00; Вт: 08:00-16:00; Ср: 08:00-16:00; Чт: 08:00-16:00; Пт: 08:00-16:00; Сб: 08:00-14:00 (дежурный врач: сб 8:00-13:00)", "Часовой пояс": "+07:00", "Рейтинг": 2.0, "Количество отзывов": 11, "Телефон 1": "83842321014 (регистратура)", "Телефон 2": null, "Телефон 3": null, "Веб-сайт 1": null, "Веб-сайт 2": null, "ВКонтакте": "https://vk.com/kodkbatamanova", "Telegram": "https://t.me/kodkb", "Широта": 55.279442, "Долгота": 85.987548, "2GIS URL": "https://2gis.com/firm/704215722841409" }, "geometry": { "type": "Point", "coordinates": [ 85.987548, 55.279442 ] } }
]
}
