{
"type": "FeatureCollection",
"name": "School",
"crs": { "type": "name", "properties": { "name": "urn:ogc:def:crs:OGC:1.3:CRS84" } },
"features": [
{ "type": "Feature", "properties": { "fid": 1, "Наименование": "Средняя общеобразовательная школа №70", "Описание": null, "Рубрики": "Школы", "Адрес": "Стахановская, 27", "Комментарий к адресу": null, "Почтовый индекс": 650903, "Микрорайон": "Кедровка м-н", "Район": "Рудничный район", "Город": "Кемерово", "Округ": "Кемеровский городской округ", "Регион": "Кемеровская область — Кузбасс", "Страна": "Россия", "Часы работы": "Пн: 08:00-19:10; Вт: 08:00-19:10; Ср: 08:00-19:10; Чт: 08:00-19:10; Пт: 08:00-19:10; Сб: 08:00-16:00", "Часовой пояс": "+07:00", "Рейтинг": 4.1, "Количество отзывов": 7, "Телефон 1": "83842692174", "Телефон 2": "83842692338 (приемная)", "Телефон 3": null, "Веб-сайт 1": "http://school70kem.ucoz.net", "Веб-сайт 2": null, "ВКонтакте": "https://vk.com/school70kem", "WhatsApp": null, "Viber": null, "Telegram 1": null, "Telegram 2": null, "YouTube": null, "Широта": 55.518547, "Долгота": 86.099928, "capacity": 440 }, "geometry": { "type": "MultiPoint", "coordinates": [ [ 86.099928, 55.518547 ] ] } },
{ "type": "Feature", "properties": { "fid": 2, "Наименование": "Средняя общеобразовательная школа №96", "Описание": null, "Рубрики": "Школы", "Адрес": "Советская, 5а", "Комментарий к адресу": null, "Почтовый индекс": 650903, "Микрорайон": "Кедровка м-н", "Район": "Рудничный район", "Город": "Кемерово", "Округ": "Кемеровский городской округ", "Регион": "Кемеровская область — Кузбасс", "Страна": "Россия", "Часы работы": "Пн: 08:30-17:00; Вт: 08:30-17:00; Ср: 08:30-17:00; Чт: 08:30-17:00; Пт: 08:30-17:00; Сб: 08:30-13:00", "Часовой пояс": "+07:00", "Рейтинг": 1.1, "Количество отзывов": 1, "Телефон 1": "83842692040 (вахта)", "Телефон 2": "83842692725 (приемная)", "Телефон 3": null, "Веб-сайт 1": "http://kemschool96.ru", "Веб-сайт 2": null, "ВКонтакте": "https://vk.com/public211526327", "WhatsApp": null, "Viber": null, "Telegram 1": null, "Telegram 2": null, "YouTube": null, "Широта": 55.519782, "Долгота": 86.092883, "capacity": 598 }, "geometry": { "type": "MultiPoint", "coordinates": [ [ 86.092883, 55.519782 ] ] } },
{ "type": "Feature", "properties": { "fid": 3, "Наименование": "Средняя общеобразовательная школа №52", "Описание": null, "Рубрики": "Школы", "Адрес": "Новогодняя, 8", "Комментарий к адресу": null, "Почтовый индекс": 650903, "Микрорайон": "Кедровка м-н", "Район": "Рудничный район", "Город": "Кемерово", "Округ": "Кемеровский городской округ", "Регион": "Кемеровская область — Кузбасс", "Страна": "Россия", "Часы работы": "Пн: 08:00-19:15; Вт: 08:00-19:15; Ср: 08:00-19:15; Чт: 08:00-19:15; Пт: 08:00-19:15; Сб: 08:00-16:00", "Часовой пояс": "+07:00", "Рейтинг": 3.4, "Количество отзывов": 5, "Телефон 1": "83842692297", "Телефон 2": "83842692326 (приемная)", "Телефон 3": null, "Веб-сайт 1": null, "Веб-сайт 2": null, "ВКонтакте": "https://vk.com/kedro_school_52", "WhatsApp": null, "Viber": null, "Telegram 1": "https://t.me/kedroschool_52", "Telegram 2": null, "YouTube": "https://youtube.com/user/MsSchool52", "Широта": 55.521431, "Долгота": 86.105163, "capacity": 889 }, "geometry": { "type": "MultiPoint", "coordinates": [ [ 86.105163, 55.521431 ] ] } },
{ "type": "Feature", "properties": { "fid": 4, "Наименование": "Средняя общеобразовательная школа №18", "Описание": null, "Рубрики": "Школы", "Адрес": "Варяжская, 14", "Комментарий к адресу": null, "Почтовый индекс": 650904, "Микрорайон": "Промышленновский м-н", "Район": "Рудничный район", "Город": "Кемерово", "Округ": "Кемеровский городской округ", "Регион": "Кемеровская область — Кузбасс", "Страна": "Россия", "Часы работы": "Пн: 08:00-19:00; Вт: 08:00-19:00; Ср: 08:00-19:00; Чт: 08:00-19:00; Пт: 08:00-19:00; Сб: 08:00-18:00", "Часовой пояс": "+07:00", "Рейтинг": null, "Количество отзывов": null, "Телефон 1": "83842606588", "Телефон 2": null, "Телефон 3": null, "Веб-сайт 1": "http://kemschool18.ucoz.ru", "Веб-сайт 2": null, "ВКонтакте": "https://vk.com/club194301388", "WhatsApp": null, "Viber": null, "Telegram 1": null, "Telegram 2": null, "YouTube": null, "Широта": 55.498764, "Долгота": 86.168516, "capacity": 519 }, "geometry": { "type": "MultiPoint", "coordinates": [ [ 86.168516, 55.498764 ] ] } },
{ "type": "Feature", "properties": { "fid": 5, "Наименование": "Средняя общеобразовательная школа №36", "Описание": null, "Рубрики": "Школы; Аренда спортивных площадок", "Адрес": "Серебряный Бор, 11Б", "Комментарий к адресу": null, "Почтовый индекс": 650061, "Микрорайон": "Серебряный бор на Радуге жилой комплекс", "Район": "Рудничный район", "Город": "Кемерово", "Округ": "Кемеровский городской округ", "Регион": "Кемеровская область — Кузбасс", "Страна": "Россия", "Часы работы": "Пн: 08:00-20:00; Вт: 08:00-20:00; Ср: 08:00-20:00; Чт: 08:00-20:00; Пт: 08:00-20:00; Сб: 08:00-16:00", "Часовой пояс": "+07:00", "Рейтинг": 3.0, "Количество отзывов": 47, "Телефон 1": "83842657136 (приемная)", "Телефон 2": "83842657043 (бассейн)", "Телефон 3": null, "Веб-сайт 1": "http://raduga36.ru", "Веб-сайт 2": null, "ВКонтакте": "https://vk.com/raduga36kemerovo", "WhatsApp": null, "Viber": null, "Telegram 1": null, "Telegram 2": null, "YouTube": null, "Широта": 55.404074, "Долгота": 86.1278, "capacity": 2937 }, "geometry": { "type": "MultiPoint", "coordinates": [ [ 86.1278, 55.404074 ] ] } },
{ "type": "Feature", "properties": { "fid": 6, "Наименование": "Средняя общеобразовательная школа №52", "Описание": null, "Рубрики": "Школы", "Адрес": "Каракумская, 14", "Комментарий к адресу": "2 корпус", "Почтовый индекс": 650014, "Микрорайон": "Петровский м-н", "Район": "Рудничный район", "Город": "Кемерово", "Округ": "Кемеровский городской округ", "Регион": "Кемеровская область — Кузбасс", "Страна": "Россия", "Часы работы": "Пн: 08:00-17:00; Вт: 08:00-17:00; Ср: 08:00-17:00; Чт: 08:00-17:00; Пт: 08:00-17:00; Сб: 08:00-14:00", "Часовой пояс": "+07:00", "Рейтинг": null, "Количество отзывов": null, "Телефон 1": "89609127655", "Телефон 2": null, "Телефон 3": null, "Веб-сайт 1": null, "Веб-сайт 2": null, "ВКонтакте": null, "WhatsApp": null, "Viber": null, "Telegram 1": null, "Telegram 2": null, "YouTube": "https://youtube.com/user/MsSchool52", "Широта": 55.473299, "Долгота": 86.154312, "capacity": 889 }, "geometry": { "type": "MultiPoint", "coordinates": [ [ 86.154312, 55.473299 ] ] } },
{ "type": "Feature", "properties": { "fid": 7, "Наименование": "Средняя общеобразовательная школа №34 им. С.А. Амелина", "Описание": null, "Рубрики": "Школы", "Адрес": "проспект Шахтёров, 105", "Комментарий к адресу": null, "Почтовый индекс": 650002, "Микрорайон": "Радуга м-н", "Район": "Рудничный район", "Город": "Кемерово", "Округ": "Кемеровский городской округ", "Регион": "Кемеровская область — Кузбасс", "Страна": "Россия", "Часы работы": "Пн: 08:00-19:30; Вт: 08:00-19:30; Ср: 08:00-19:30; Чт: 08:00-19:30; Пт: 08:00-19:30; Сб: 08:00-16:00", "Часовой пояс": "+07:00", "Рейтинг": 4.1, "Количество отзывов": 22, "Телефон 1": "83842641767", "Телефон 2": "83842647623 (приемная)", "Телефон 3": null, "Веб-сайт 1": "http://school34kem.ucoz.ru", "Веб-сайт 2": null, "ВКонтакте": "https://vk.com/club41835954", "WhatsApp": null, "Viber": null, "Telegram 1": "https://t.me/school34kem", "Telegram 2": null, "YouTube": null, "Широта": 55.406303, "Долгота": 86.119989, "capacity": 1250 }, "geometry": { "type": "MultiPoint", "coordinates": [ [ 86.119989, 55.406303 ] ] } },
{ "type": "Feature", "properties": { "fid": 8, "Наименование": "Основная общеобразовательная школа №51", "Описание": null, "Рубрики": "Школы", "Адрес": "Петрозаводская, 28", "Комментарий к адресу": null, "Почтовый индекс": 650902, "Микрорайон": "Боровой м-н", "Район": "Рудничный район", "Город": "Кемерово", "Округ": "Кемеровский городской округ", "Регион": "Кемеровская область — Кузбасс", "Страна": "Россия", "Часы работы": "Пн: 08:30-18:10; Вт: 08:30-18:10; Ср: 08:30-18:10; Чт: 08:30-18:10; Пт: 08:30-18:10; Сб: 08:30-14:25", "Часовой пояс": "+07:00", "Рейтинг": 2.3, "Количество отзывов": 3, "Телефон 1": "83842259560", "Телефон 2": null, "Телефон 3": null, "Веб-сайт 1": "http://school51kem.ucoz.ru", "Веб-сайт 2": null, "ВКонтакте": "https://vk.com/kemschool51", "WhatsApp": null, "Viber": null, "Telegram 1": null, "Telegram 2": null, "YouTube": null, "Широта": 55.445041, "Долгота": 86.076707, "capacity": 585 }, "geometry": { "type": "MultiPoint", "coordinates": [ [ 86.076707, 55.445041 ] ] } },
{ "type": "Feature", "properties": { "fid": 9, "Наименование": "Средняя общеобразовательная школа №16 им. Р.Г. Цецульникова", "Описание": null, "Рубрики": "Школы", "Адрес": "улица Рутгерса, 36", "Комментарий к адресу": null, "Почтовый индекс": 650044, "Микрорайон": null, "Район": "Рудничный район", "Город": "Кемерово", "Округ": "Кемеровский городской округ", "Регион": "Кемеровская область — Кузбасс", "Страна": "Россия", "Часы работы": "Пн: 07:30-19:30; Вт: 07:30-19:30; Ср: 07:30-19:30; Чт: 07:30-19:30; Пт: 07:30-19:30; Сб: 07:30-19:30", "Часовой пояс": "+07:00", "Рейтинг": 3.1, "Количество отзывов": 4, "Телефон 1": "83842641816 (приемная)", "Телефон 2": null, "Телефон 3": null, "Веб-сайт 1": null, "Веб-сайт 2": null, "ВКонтакте": "https://vk.com/school16_kemerovo", "WhatsApp": null, "Viber": null, "Telegram 1": null, "Telegram 2": null, "YouTube": null, "Широта": 55.383922, "Долгота": 86.087657, "capacity": 985 }, "geometry": { "type": "MultiPoint", "coordinates": [ [ 86.087657, 55.383922 ] ] } },
{ "type": "Feature", "properties": { "fid": 10, "Наименование": "Средняя общеобразовательная школа №85", "Описание": null, "Рубрики": "Школы; Аренда спортивных площадок", "Адрес": "проспект Владимира Михайлова, 5", "Комментарий к адресу": null, "Почтовый индекс": 650071, "Микрорайон": "Лесная Поляна м-н", "Район": "Рудничный район", "Город": "Кемерово", "Округ": "Кемеровский городской округ", "Регион": "Кемеровская область — Кузбасс", "Страна": "Россия", "Часы работы": "Пн: 09:00-18:10; Вт: 09:00-18:10; Ср: 09:00-18:10; Чт: 09:00-18:10; Пт: 09:00-18:10", "Часовой пояс": "+07:00", "Рейтинг": 4.1, "Количество отзывов": 16, "Телефон 1": "83842780007", "Телефон 2": "83842780681", "Телефон 3": "83842780682", "Веб-сайт 1": "http://school85.info", "Веб-сайт 2": null, "ВКонтакте": "https://vk.com/public167346621", "WhatsApp": null, "Viber": null, "Telegram 1": null, "Telegram 2": null, "YouTube": null, "Широта": 55.426001, "Долгота": 86.226092, "capacity": 1215 }, "geometry": { "type": "MultiPoint", "coordinates": [ [ 86.226092, 55.426001 ] ] } },
{ "type": "Feature", "properties": { "fid": 11, "Наименование": "Основная общеобразовательная школа №60 им. Ю.В. Бабанского", "Описание": null, "Рубрики": "Школы", "Адрес": "Елыкаевская, 151", "Комментарий к адресу": null, "Почтовый индекс": 650042, "Микрорайон": "Красная м-н", "Район": "Рудничный район", "Город": "Кемерово", "Округ": "Кемеровский городской округ", "Регион": "Кемеровская область — Кузбасс", "Страна": "Россия", "Часы работы": "Пн: 09:00-20:00; Вт: 09:00-20:00; Ср: 09:00-20:00; Чт: 09:00-20:00; Пт: 09:00-20:00; Сб: 09:00-15:00", "Часовой пояс": "+07:00", "Рейтинг": 5.0, "Количество отзывов": 2, "Телефон 1": "83842643760 (приемная)", "Телефон 2": null, "Телефон 3": null, "Веб-сайт 1": null, "Веб-сайт 2": null, "ВКонтакте": "https://vk.com/public213648912", "WhatsApp": null, "Viber": null, "Telegram 1": "https://t.me/school_60_kemerovo", "Telegram 2": null, "YouTube": null, "Широта": 55.367602, "Долгота": 86.126871, "capacity": 237 }, "geometry": { "type": "MultiPoint", "coordinates": [ [ 86.126871, 55.367602 ] ] } },
{ "type": "Feature", "properties": { "fid": 12, "Наименование": "Основная общеобразовательная школа №46 с дошкольным отделением", "Описание": null, "Рубрики": "Школы", "Адрес": "Нахимова, 177", "Комментарий к адресу": null, "Почтовый индекс": 650002, "Микрорайон": null, "Район": "Рудничный район", "Город": "Кемерово", "Округ": "Кемеровский городской округ", "Регион": "Кемеровская область — Кузбасс", "Страна": "Россия", "Часы работы": "Пн: 08:00-18:00; Вт: 08:00-18:00; Ср: 08:00-18:00; Чт: 08:00-18:00; Пт: 08:00-18:00; Сб: 08:00-14:00", "Часовой пояс": "+07:00", "Рейтинг": 3.3, "Количество отзывов": 4, "Телефон 1": "83842645480", "Телефон 2": "83842642946 (приемная)", "Телефон 3": null, "Веб-сайт 1": "http://46.moy.su", "Веб-сайт 2": "http://t.me/mbouschool46kemerovo", "ВКонтакте": "https://vk.com/club16109936", "WhatsApp": null, "Viber": null, "Telegram 1": null, "Telegram 2": null, "YouTube": null, "Широта": 55.406818, "Долгота": 86.11005, "capacity": 1100 }, "geometry": { "type": "MultiPoint", "coordinates": [ [ 86.11005, 55.406818 ] ] } },
{ "type": "Feature", "properties": { "fid": 13, "Наименование": "Средняя общеобразовательная школа №15", "Описание": null, "Рубрики": "Школы", "Адрес": "Инициативная, 125а", "Комментарий к адресу": null, "Почтовый индекс": 650068, "Микрорайон": null, "Район": "Кировский район", "Город": "Кемерово", "Округ": "Кемеровский городской округ", "Регион": "Кемеровская область — Кузбасс", "Страна": "Россия", "Часы работы": "Пн: 08:00-18:30; Вт: 08:00-18:30; Ср: 08:00-18:30; Чт: 08:00-18:30; Пт: 08:00-18:30; Сб: 08:00-15:25", "Часовой пояс": "+07:00", "Рейтинг": 4.3, "Количество отзывов": 5, "Телефон 1": "83842614086 (приемная)", "Телефон 2": "83842612200", "Телефон 3": "83842613564", "Веб-сайт 1": "http://school15kem.kemobl.ru/", "Веб-сайт 2": "http://t.me/schkola15kemerovo", "ВКонтакте": "https://vk.com/club15359828", "WhatsApp": null, "Viber": null, "Telegram 1": null, "Telegram 2": null, "YouTube": null, "Широта": 55.411674, "Долгота": 86.058234, "capacity": 632 }, "geometry": { "type": "MultiPoint", "coordinates": [ [ 86.058234, 55.411674 ] ] } },
{ "type": "Feature", "properties": { "fid": 14, "Наименование": "Основная общеобразовательная школа №39", "Описание": null, "Рубрики": "Школы", "Адрес": "Василия Толстикова, 1", "Комментарий к адресу": null, "Почтовый индекс": 650068, "Микрорайон": null, "Район": "Кировский район", "Город": "Кемерово", "Округ": "Кемеровский городской округ", "Регион": "Кемеровская область — Кузбасс", "Страна": "Россия", "Часы работы": "Пн: 07:30-20:00; Вт: 07:30-20:00; Ср: 07:30-20:00; Чт: 07:30-20:00; Пт: 07:30-20:00; Сб: 07:30-19:00", "Часовой пояс": "+07:00", "Рейтинг": 3.6, "Количество отзывов": 8, "Телефон 1": "83842613263", "Телефон 2": "83842613617 (приемная)", "Телефон 3": null, "Веб-сайт 1": "http://mbouoosh39.kmr.eduru.ru", "Веб-сайт 2": null, "ВКонтакте": "https://vk.com/club178512907", "WhatsApp": null, "Viber": null, "Telegram 1": null, "Telegram 2": null, "YouTube": null, "Широта": 55.40247, "Долгота": 86.045296, "capacity": 788 }, "geometry": { "type": "MultiPoint", "coordinates": [ [ 86.045296, 55.40247 ] ] } },
{ "type": "Feature", "properties": { "fid": 15, "Наименование": "Средняя общеобразовательная школа №85", "Описание": null, "Рубрики": "Школы", "Адрес": "проспект Владимира Михайлова, 5Б", "Комментарий к адресу": null, "Почтовый индекс": 650071, "Микрорайон": "Лесная Поляна м-н", "Район": "Рудничный район", "Город": "Кемерово", "Округ": "Кемеровский городской округ", "Регион": "Кемеровская область — Кузбасс", "Страна": "Россия", "Часы работы": "Пн: 09:00-18:10; Вт: 09:00-18:10; Ср: 09:00-18:10; Чт: 09:00-18:10; Пт: 09:00-18:10", "Часовой пояс": "+07:00", "Рейтинг": 3.6, "Количество отзывов": 9, "Телефон 1": "83842901525 (приемная)", "Телефон 2": null, "Телефон 3": null, "Веб-сайт 1": "http://school85.info", "Веб-сайт 2": null, "ВКонтакте": "https://vk.com/public167346621", "WhatsApp": null, "Viber": null, "Telegram 1": null, "Telegram 2": null, "YouTube": null, "Широта": 55.423473, "Долгота": 86.229195, "capacity": 1215 }, "geometry": { "type": "MultiPoint", "coordinates": [ [ 86.229195, 55.423473 ] ] } },
{ "type": "Feature", "properties": { "fid": 16, "Наименование": "Средняя общеобразовательная школа №24", "Описание": null, "Рубрики": "Школы", "Адрес": "Институтская, 20", "Комментарий к адресу": null, "Почтовый индекс": 650002, "Микрорайон": "Радуга м-н", "Район": "Рудничный район", "Город": "Кемерово", "Округ": "Кемеровский городской округ", "Регион": "Кемеровская область — Кузбасс", "Страна": "Россия", "Часы работы": "Пн: 08:00-19:30; Вт: 08:00-19:30; Ср: 08:00-19:30; Чт: 08:00-19:30; Пт: 08:00-19:30; Сб: 08:00-17:45", "Часовой пояс": "+07:00", "Рейтинг": 2.4, "Количество отзывов": 8, "Телефон 1": "83842643551 (приемная)", "Телефон 2": "83842340899", "Телефон 3": null, "Веб-сайт 1": "http://kemschool24.ru", "Веб-сайт 2": null, "ВКонтакте": "https://vk.com/kemschool24", "WhatsApp": null, "Viber": null, "Telegram 1": null, "Telegram 2": null, "YouTube": null, "Широта": 55.394439, "Долгота": 86.115335, "capacity": 1360 }, "geometry": { "type": "MultiPoint", "coordinates": [ [ 86.115335, 55.394439 ] ] } },
{ "type": "Feature", "properties": { "fid": 17, "Наименование": "Гимназия №42", "Описание": null, "Рубрики": "Гимназии", "Адрес": "Щегловская, 2", "Комментарий к адресу": null, "Почтовый индекс": 650071, "Микрорайон": "Лесная Поляна м-н", "Район": "Рудничный район", "Город": "Кемерово", "Округ": "Кемеровский городской округ", "Регион": "Кемеровская область — Кузбасс", "Страна": "Россия", "Часы работы": "Пн: 08:10-19:35; Вт: 08:10-19:35; Ср: 08:10-19:35; Чт: 08:10-19:35; Пт: 08:10-19:35; Сб: 08:10-19:35", "Часовой пояс": "+07:00", "Рейтинг": 4.4, "Количество отзывов": 9, "Телефон 1": "83842346451 (приемная)", "Телефон 2": "83842346450", "Телефон 3": "83842346455", "Веб-сайт 1": "http://гимназия42.рф", "Веб-сайт 2": null, "ВКонтакте": "https://vk.com/g42ru", "WhatsApp": null, "Viber": null, "Telegram 1": null, "Telegram 2": null, "YouTube": null, "Широта": 55.414292, "Долгота": 86.235276, "capacity": 1080 }, "geometry": { "type": "MultiPoint", "coordinates": [ [ 86.235276, 55.414292 ] ] } },
{ "type": "Feature", "properties": { "fid": 18, "Наименование": "Основная общеобразовательная школа №56", "Описание": null, "Рубрики": "Школы", "Адрес": "Багратиона, 2", "Комментарий к адресу": null, "Почтовый индекс": 650016, "Микрорайон": null, "Район": "Кировский район", "Город": "Кемерово", "Округ": "Кемеровский городской округ", "Регион": "Кемеровская область — Кузбасс", "Страна": "Россия", "Часы работы": "Пн: 08:00-18:30; Вт: 08:00-18:30; Ср: 08:00-18:30; Чт: 08:00-18:30; Пт: 08:00-18:30; Сб: 08:00-17:30", "Часовой пояс": "+07:00", "Рейтинг": 4.5, "Количество отзывов": 5, "Телефон 1": "83842252224", "Телефон 2": null, "Телефон 3": null, "Веб-сайт 1": "http://school56-kem.ru", "Веб-сайт 2": null, "ВКонтакте": "https://vk.com/school56kem", "WhatsApp": null, "Viber": null, "Telegram 1": null, "Telegram 2": null, "YouTube": null, "Широта": 55.387129, "Долгота": 86.038477, "capacity": 505 }, "geometry": { "type": "MultiPoint", "coordinates": [ [ 86.038477, 55.387129 ] ] } },
{ "type": "Feature", "properties": { "fid": 19, "Наименование": "Средняя общеобразовательная школа №82", "Описание": null, "Рубрики": "Школы", "Адрес": "Александрова, 18", "Комментарий к адресу": null, "Почтовый индекс": 650033, "Микрорайон": null, "Район": "Кировский район", "Город": "Кемерово", "Округ": "Кемеровский городской округ", "Регион": "Кемеровская область — Кузбасс", "Страна": "Россия", "Часы работы": "Пн: 08:00-20:00; Вт: 08:00-20:00; Ср: 08:00-20:00; Чт: 08:00-20:00; Пт: 08:00-20:00; Сб: 08:00-18:00", "Часовой пояс": "+07:00", "Рейтинг": 4.3, "Количество отзывов": 21, "Телефон 1": "83842251301 (приемная)", "Телефон 2": "83842251997", "Телефон 3": "83842253654", "Веб-сайт 1": null, "Веб-сайт 2": null, "ВКонтакте": "https://vk.com/school82kemerovo", "WhatsApp": null, "Viber": null, "Telegram 1": null, "Telegram 2": null, "YouTube": null, "Широта": 55.397586, "Долгота": 86.016412, "capacity": 935 }, "geometry": { "type": "MultiPoint", "coordinates": [ [ 86.016412, 55.397586 ] ] } },
{ "type": "Feature", "properties": { "fid": 20, "Наименование": "Средняя общеобразовательная школа №74", "Описание": null, "Рубрики": "Школы", "Адрес": "Инициативная, 42", "Комментарий к адресу": null, "Почтовый индекс": 650033, "Микрорайон": null, "Район": "Кировский район", "Город": "Кемерово", "Округ": "Кемеровский городской округ", "Регион": "Кемеровская область — Кузбасс", "Страна": "Россия", "Часы работы": "Пн: 07:00-21:00; Вт: 07:00-21:00; Ср: 07:00-21:00; Чт: 07:00-21:00; Пт: 07:00-21:00; Сб: 07:00-15:00", "Часовой пояс": "+07:00", "Рейтинг": 1.8, "Количество отзывов": 10, "Телефон 1": "83842251833 (приемная)", "Телефон 2": null, "Телефон 3": null, "Веб-сайт 1": null, "Веб-сайт 2": null, "ВКонтакте": "https://vk.com/club33943108", "WhatsApp": null, "Viber": null, "Telegram 1": null, "Telegram 2": null, "YouTube": null, "Широта": 55.399621, "Долгота": 86.022213, "capacity": 919 }, "geometry": { "type": "MultiPoint", "coordinates": [ [ 86.022213, 55.399621 ] ] } },
{ "type": "Feature", "properties": { "fid": 21, "Наименование": "Средняя общеобразовательная школа №11", "Описание": null, "Рубрики": "Школы", "Адрес": "Леонова, 3а", "Комментарий к адресу": null, "Почтовый индекс": 650033, "Микрорайон": null, "Район": "Кировский район", "Город": "Кемерово", "Округ": "Кемеровский городской округ", "Регион": "Кемеровская область — Кузбасс", "Страна": "Россия", "Часы работы": "Пн: 08:00-19:00; Вт: 08:00-19:00; Ср: 08:00-19:00; Чт: 08:00-19:00; Пт: 08:00-19:00; Сб: 08:00-14:00", "Часовой пояс": "+07:00", "Рейтинг": 3.2, "Количество отзывов": 6, "Телефон 1": "83842254108", "Телефон 2": "83842254948 (приемная)", "Телефон 3": null, "Веб-сайт 1": "http://kemschool11.ru", "Веб-сайт 2": null, "ВКонтакте": "https://vk.com/public211382164", "WhatsApp": null, "Viber": null, "Telegram 1": null, "Telegram 2": null, "YouTube": null, "Широта": 55.391548, "Долгота": 86.01235, "capacity": 1130 }, "geometry": { "type": "MultiPoint", "coordinates": [ [ 86.01235, 55.391548 ] ] } },
{ "type": "Feature", "properties": { "fid": 22, "Наименование": "Средняя общеобразовательная школа №19", "Описание": null, "Рубрики": "Школы", "Адрес": "Назарова, 8", "Комментарий к адресу": null, "Почтовый индекс": 650001, "Микрорайон": null, "Район": "Кировский район", "Город": "Кемерово", "Округ": "Кемеровский городской округ", "Регион": "Кемеровская область — Кузбасс", "Страна": "Россия", "Часы работы": "Пн: 08:00-18:10; Вт: 08:00-18:10; Ср: 08:00-18:10; Чт: 08:00-18:10; Пт: 08:00-18:10; Сб: 08:00-15:00", "Часовой пояс": "+07:00", "Рейтинг": 3.5, "Количество отзывов": 15, "Телефон 1": "83842254319 (приемная)", "Телефон 2": null, "Телефон 3": null, "Веб-сайт 1": "http://kemschool19.edusite.ru", "Веб-сайт 2": null, "ВКонтакте": "https://vk.com/club4241868", "WhatsApp": null, "Viber": null, "Telegram 1": null, "Telegram 2": null, "YouTube": null, "Широта": 55.386954, "Долгота": 86.004592, "capacity": 961 }, "geometry": { "type": "MultiPoint", "coordinates": [ [ 86.004592, 55.386954 ] ] } },
{ "type": "Feature", "properties": { "fid": 23, "Наименование": "Средняя общеобразовательная школа №45", "Описание": null, "Рубрики": "Школы", "Адрес": "Притомский проспект, 27", "Комментарий к адресу": "2 корпус", "Почтовый индекс": 650023, "Микрорайон": null, "Район": "Центральный район", "Город": "Кемерово", "Округ": "Кемеровский городской округ", "Регион": "Кемеровская область — Кузбасс", "Страна": "Россия", "Часы работы": "Пн: 07:30-19:00; Вт: 07:30-19:00; Ср: 07:30-19:00; Чт: 07:30-19:00; Пт: 07:30-19:00", "Часовой пояс": "+07:00", "Рейтинг": 3.5, "Количество отзывов": 26, "Телефон 1": "83842770755 (приемная)", "Телефон 2": null, "Телефон 3": null, "Веб-сайт 1": null, "Веб-сайт 2": null, "ВКонтакте": "https://vk.com/public211509769", "WhatsApp": null, "Viber": null, "Telegram 1": null, "Telegram 2": null, "YouTube": null, "Широта": 55.354792, "Долгота": 86.142776, "capacity": 1048 }, "geometry": { "type": "MultiPoint", "coordinates": [ [ 86.142776, 55.354792 ] ] } },
{ "type": "Feature", "properties": { "fid": 24, "Наименование": "Средняя общеобразовательная школа №49", "Описание": null, "Рубрики": "Школы", "Адрес": "Волгоградская, 28в", "Комментарий к адресу": null, "Почтовый индекс": 650056, "Микрорайон": null, "Район": "Ленинский район", "Город": "Кемерово", "Округ": "Кемеровский городской округ", "Регион": "Кемеровская область — Кузбасс", "Страна": "Россия", "Часы работы": "Пн: 08:30-18:00; Вт: 08:30-18:00; Ср: 08:30-18:00; Чт: 08:30-18:00; Пт: 08:30-18:00; Сб: 08:30-15:00", "Часовой пояс": "+07:00", "Рейтинг": 3.7, "Количество отзывов": 8, "Телефон 1": "83842540520 (приемная)", "Телефон 2": null, "Телефон 3": null, "Веб-сайт 1": "http://t.me/kemschool49", "Веб-сайт 2": null, "ВКонтакте": "https://vk.com/public215955198", "WhatsApp": null, "Viber": null, "Telegram 1": null, "Telegram 2": null, "YouTube": null, "Широта": 55.342761, "Долгота": 86.154267, "capacity": 564 }, "geometry": { "type": "MultiPoint", "coordinates": [ [ 86.154267, 55.342761 ] ] } },
{ "type": "Feature", "properties": { "fid": 25, "Наименование": "Средняя общеобразовательная школа №92 с углубленным изучением отдельных предметов", "Описание": null, "Рубрики": "Школы", "Адрес": "Ленинградский проспект, 14а", "Комментарий к адресу": null, "Почтовый индекс": 650065, "Микрорайон": "Шалготарьян м-н", "Район": "Ленинский район", "Город": "Кемерово", "Округ": "Кемеровский городской округ", "Регион": "Кемеровская область — Кузбасс", "Страна": "Россия", "Часы работы": "Пн: 08:00-18:35; Вт: 08:00-18:35; Ср: 08:00-18:35; Чт: 08:00-18:35; Пт: 08:00-18:35; Сб: 08:00-16:00", "Часовой пояс": "+07:00", "Рейтинг": 3.6, "Количество отзывов": 16, "Телефон 1": "83842531832", "Телефон 2": "83842531944", "Телефон 3": "83842534254 (приемная)", "Веб-сайт 1": "http://92s.ru", "Веб-сайт 2": "http://t.me/sschool92kemerovo", "ВКонтакте": "https://vk.com/sschool92", "WhatsApp": null, "Viber": null, "Telegram 1": null, "Telegram 2": null, "YouTube": null, "Широта": 55.358489, "Долгота": 86.169231, "capacity": 1253 }, "geometry": { "type": "MultiPoint", "coordinates": [ [ 86.169231, 55.358489 ] ] } },
{ "type": "Feature", "properties": { "fid": 26, "Наименование": "Средняя общеобразовательная школа №33 им. А.В. Бобкова", "Описание": null, "Рубрики": "Школы", "Адрес": "проспект Ленина, 160а", "Комментарий к адресу": null, "Почтовый индекс": 650065, "Микрорайон": "Шалготарьян м-н", "Район": "Ленинский район", "Город": "Кемерово", "Округ": "Кемеровский городской округ", "Регион": "Кемеровская область — Кузбасс", "Страна": "Россия", "Часы работы": "Пн: 08:30-17:00; Вт: 08:30-17:00; Ср: 08:30-17:00; Чт: 08:30-17:00; Пт: 08:30-17:00; Сб: 08:30-14:50", "Часовой пояс": "+07:00", "Рейтинг": 2.8, "Количество отзывов": 19, "Телефон 1": "83842511433 (приемная)", "Телефон 2": "83842538366", "Телефон 3": "83842535422", "Веб-сайт 1": "http://sc33kem.ru", "Веб-сайт 2": "http://t.me/school33kemerovo", "ВКонтакте": "https://vk.com/sc_33avb", "WhatsApp": null, "Viber": null, "Telegram 1": null, "Telegram 2": null, "YouTube": null, "Широта": 55.354342, "Долгота": 86.172833, "capacity": 845 }, "geometry": { "type": "MultiPoint", "coordinates": [ [ 86.172833, 55.354342 ] ] } },
{ "type": "Feature", "properties": { "fid": 27, "Наименование": "Средняя общеобразовательная школа №69", "Описание": null, "Рубрики": "Школы", "Адрес": "Тухачевского, 10", "Комментарий к адресу": null, "Почтовый индекс": 650036, "Микрорайон": null, "Район": "Центральный район", "Город": "Кемерово", "Округ": "Кемеровский городской округ", "Регион": "Кемеровская область — Кузбасс", "Страна": "Россия", "Часы работы": "Пн: 08:30-14:10; Вт: 08:30-14:10; Ср: 08:30-14:10; Чт: 08:30-14:10; Пт: 08:30-14:10; Сб: 08:30-13:00", "Часовой пояс": "+07:00", "Рейтинг": 1.9, "Количество отзывов": 6, "Телефон 1": "83842352519", "Телефон 2": "83842352535 (приемная)", "Телефон 3": null, "Веб-сайт 1": "http://schoolkem69.ru", "Веб-сайт 2": "http://t.me/school69kemerovo", "ВКонтакте": "https://vk.com/public215955527", "WhatsApp": null, "Viber": null, "Telegram 1": null, "Telegram 2": null, "YouTube": null, "Широта": 55.342229, "Долгота": 86.132485, "capacity": 557 }, "geometry": { "type": "MultiPoint", "coordinates": [ [ 86.132485, 55.342229 ] ] } },
{ "type": "Feature", "properties": { "fid": 28, "Наименование": "Средняя общеобразовательная школа №58", "Описание": null, "Рубрики": "Школы", "Адрес": "Ворошилова, 18д", "Комментарий к адресу": null, "Почтовый индекс": 650056, "Микрорайон": null, "Район": "Ленинский район", "Город": "Кемерово", "Округ": "Кемеровский городской округ", "Регион": "Кемеровская область — Кузбасс", "Страна": "Россия", "Часы работы": "Пн: 08:00-19:30; Вт: 08:00-19:30; Ср: 08:00-19:30; Чт: 08:00-19:30; Пт: 08:00-19:30; Сб: 08:00-16:00", "Часовой пояс": "+07:00", "Рейтинг": 3.5, "Количество отзывов": 26, "Телефон 1": "83842511322 (приемная)", "Телефон 2": "83842511565", "Телефон 3": "83842514701", "Веб-сайт 1": "http://школа58кемерово.рф", "Веб-сайт 2": null, "ВКонтакте": "https://vk.com/school58_kem", "WhatsApp": null, "Viber": null, "Telegram 1": null, "Telegram 2": null, "YouTube": null, "Широта": 55.342901, "Долгота": 86.161686, "capacity": 934 }, "geometry": { "type": "MultiPoint", "coordinates": [ [ 86.161686, 55.342901 ] ] } },
{ "type": "Feature", "properties": { "fid": 30, "Наименование": "УчимЗнаем-Кузбасс", "Описание": "госпитальная школа", "Рубрики": "Школы", "Адрес": "проспект Ленина, 126а", "Комментарий к адресу": "229 кабинет; 2 этаж", "Почтовый индекс": 650023, "Микрорайон": null, "Район": "Ленинский район", "Город": "Кемерово", "Округ": "Кемеровский городской округ", "Регион": "Кемеровская область — Кузбасс", "Страна": "Россия", "Часы работы": "Пн: 08:00-12:30, 13:00-17:00; Вт: 08:00-12:30, 13:00-17:00; Ср: 08:00-12:30, 13:00-17:00; Чт: 08:00-12:30, 13:00-17:00; Пт: 08:00-12:30, 13:00-17:00", "Часовой пояс": "+07:00", "Рейтинг": null, "Количество отзывов": null, "Телефон 1": "83842516965", "Телефон 2": "89236115175", "Телефон 3": null, "Веб-сайт 1": "http://госпитальная-школа.центр-образования.рус", "Веб-сайт 2": null, "ВКонтакте": "https://vk.com/club217589323", "WhatsApp": "https://wa.me/79236115175", "Viber": null, "Telegram 1": "https://t.me/uznaemkuzbass", "Telegram 2": null, "YouTube": null, "Широта": 55.348799, "Долгота": 86.152493, "capacity": 150 }, "geometry": { "type": "MultiPoint", "coordinates": [ [ 86.152493, 55.348799 ] ] } },
{ "type": "Feature", "properties": { "fid": 31, "Наименование": "Средняя общеобразовательная школа №28", "Описание": null, "Рубрики": "Школы", "Адрес": "Ленинградский проспект, 29а", "Комментарий к адресу": null, "Почтовый индекс": 650060, "Микрорайон": null, "Район": "Ленинский район", "Город": "Кемерово", "Округ": "Кемеровский городской округ", "Регион": "Кемеровская область — Кузбасс", "Страна": "Россия", "Часы работы": "Пн: 08:00-18:15; Вт: 08:00-18:15; Ср: 08:00-18:15; Чт: 08:00-18:15; Пт: 08:00-18:15; Сб: 08:00-14:00", "Часовой пояс": "+07:00", "Рейтинг": 4.1, "Количество отзывов": 31, "Телефон 1": "83842515822", "Телефон 2": "83842515810 (приемная)", "Телефон 3": null, "Веб-сайт 1": "http://school28kem.ucoz.ru", "Веб-сайт 2": null, "ВКонтакте": "https://vk.com/school28kem", "WhatsApp": null, "Viber": null, "Telegram 1": null, "Telegram 2": null, "YouTube": null, "Широта": 55.345011, "Долгота": 86.173234, "capacity": 742 }, "geometry": { "type": "MultiPoint", "coordinates": [ [ 86.173234, 55.345011 ] ] } },
{ "type": "Feature", "properties": { "fid": 32, "Наименование": "Средняя общеобразовательная школа №48 им. М.Ю. Коломина", "Описание": null, "Рубрики": "Школы", "Адрес": "Московский проспект, 25а", "Комментарий к адресу": null, "Почтовый индекс": 650065, "Микрорайон": null, "Район": "Ленинский район", "Город": "Кемерово", "Округ": "Кемеровский городской округ", "Регион": "Кемеровская область — Кузбасс", "Страна": "Россия", "Часы работы": "Пн: 08:00-17:30; Вт: 08:00-17:30; Ср: 08:00-17:30; Чт: 08:00-17:30; Пт: 08:00-17:30; Сб: 08:00-15:15", "Часовой пояс": "+07:00", "Рейтинг": 2.0, "Количество отзывов": 7, "Телефон 1": "83842519422 (приемная)", "Телефон 2": "83842515955", "Телефон 3": "83842516960", "Веб-сайт 1": "http://t.me/school48_kemerovo", "Веб-сайт 2": null, "ВКонтакте": "https://vk.com/school48_kemerovo", "WhatsApp": null, "Viber": null, "Telegram 1": null, "Telegram 2": null, "YouTube": null, "Широта": 55.356358, "Долгота": 86.162144, "capacity": 662 }, "geometry": { "type": "MultiPoint", "coordinates": [ [ 86.162144, 55.356358 ] ] } },
{ "type": "Feature", "properties": { "fid": 33, "Наименование": "Средняя общеобразовательная школа №94", "Описание": null, "Рубрики": "Школы", "Адрес": "Ленинградский проспект, 34в", "Комментарий к адресу": null, "Почтовый индекс": 650003, "Микрорайон": null, "Район": "Ленинский район", "Город": "Кемерово", "Округ": "Кемеровский городской округ", "Регион": "Кемеровская область — Кузбасс", "Страна": "Россия", "Часы работы": "Пн: 08:00-19:00; Вт: 08:00-19:00; Ср: 08:00-19:00; Чт: 08:00-19:00; Пт: 08:00-19:00; Сб: 08:00-16:00", "Часовой пояс": "+07:00", "Рейтинг": 4.2, "Количество отзывов": 6, "Телефон 1": "83842739687", "Телефон 2": "83842739688", "Телефон 3": "83842737199 (приемная)", "Веб-сайт 1": "http://www.kemschool94.ucoz.ru", "Веб-сайт 2": null, "ВКонтакте": "https://vk.com/kemschool94", "WhatsApp": null, "Viber": null, "Telegram 1": null, "Telegram 2": null, "YouTube": null, "Широта": 55.340121, "Долгота": 86.188232, "capacity": 2033 }, "geometry": { "type": "MultiPoint", "coordinates": [ [ 86.188232, 55.340121 ] ] } },
{ "type": "Feature", "properties": { "fid": 34, "Наименование": "Эврика", "Описание": "частная школа", "Рубрики": "Школы; Детские / подростковые клубы; Центры раннего развития детей; Частные детские сады; Детские лагеря", "Адрес": "бульвар Строителей, 25г", "Комментарий к адресу": "1 этаж", "Почтовый индекс": 650056, "Микрорайон": null, "Район": "Ленинский район", "Город": "Кемерово", "Округ": "Кемеровский городской округ", "Регион": "Кемеровская область — Кузбасс", "Страна": "Россия", "Часы работы": "Пн: 09:00-20:00; Вт: 09:00-20:00; Ср: 09:00-20:00; Чт: 09:00-20:00; Пт: 09:00-20:00; Сб: 10:00-16:00", "Часовой пояс": "+07:00", "Рейтинг": 4.9, "Количество отзывов": 20, "Телефон 1": "83842259747", "Телефон 2": "89588517747", "Телефон 3": null, "Веб-сайт 1": "http://evrika42.ru", "Веб-сайт 2": null, "ВКонтакте": "https://vk.com/evrika.kemerovo", "WhatsApp": "https://wa.me/79588517747", "Viber": "viber://chat/?number=79588517747", "Telegram 1": "https://t.me/evrikakemerovo", "Telegram 2": "https://t.me/+79588517747", "YouTube": null, "Широта": 55.34381, "Долгота": 86.162711, "capacity": 145 }, "geometry": { "type": "MultiPoint", "coordinates": [ [ 86.162711, 55.34381 ] ] } },
{ "type": "Feature", "properties": { "fid": 35, "Наименование": "Fenomena.space", "Описание": "частная школа", "Рубрики": "Школы; Частные детские сады; Центры раннего развития детей", "Адрес": "Октябрьский проспект, 38", "Комментарий к адресу": "1 этаж", "Почтовый индекс": 650023, "Микрорайон": null, "Район": "Центральный район", "Город": "Кемерово", "Округ": "Кемеровский городской округ", "Регион": "Кемеровская область — Кузбасс", "Страна": "Россия", "Часы работы": "Пн: 09:00-17:00; Вт: 09:00-17:00; Ср: 09:00-17:00; Чт: 09:00-17:00; Пт: 09:00-17:00", "Часовой пояс": "+07:00", "Рейтинг": 4.7, "Количество отзывов": 19, "Телефон 1": "89001055005", "Телефон 2": null, "Телефон 3": null, "Веб-сайт 1": "http://fenomena.space", "Веб-сайт 2": null, "ВКонтакте": null, "WhatsApp": "https://wa.me/79001055005", "Viber": null, "Telegram 1": null, "Telegram 2": null, "YouTube": null, "Широта": 55.349289, "Долгота": 86.140558, "capacity": 110 }, "geometry": { "type": "MultiPoint", "coordinates": [ [ 86.140558, 55.349289 ] ] } },
{ "type": "Feature", "properties": { "fid": 36, "Наименование": "Средняя общеобразовательная школа №91", "Описание": null, "Рубрики": "Школы", "Адрес": "бульвар Строителей, 50а", "Комментарий к адресу": null, "Почтовый индекс": 650003, "Микрорайон": null, "Район": "Ленинский район", "Город": "Кемерово", "Округ": "Кемеровский городской округ", "Регион": "Кемеровская область — Кузбасс", "Страна": "Россия", "Часы работы": "Пн: 08:00-19:00; Вт: 08:00-19:00; Ср: 08:00-19:00; Чт: 08:00-19:00; Пт: 08:00-19:00; Сб: 08:00-19:00", "Часовой пояс": "+07:00", "Рейтинг": 1.6, "Количество отзывов": 11, "Телефон 1": "83842731768 (приемная)", "Телефон 2": null, "Телефон 3": null, "Веб-сайт 1": "http://school454spb.ru", "Веб-сайт 2": null, "ВКонтакте": "https://vk.com/club188760199", "WhatsApp": null, "Viber": null, "Telegram 1": "https://t.me/school91kem", "Telegram 2": null, "YouTube": null, "Широта": 55.336882, "Долгота": 86.177562, "capacity": 800 }, "geometry": { "type": "MultiPoint", "coordinates": [ [ 86.177562, 55.336882 ] ] } },
{ "type": "Feature", "properties": { "fid": 37, "Наименование": "Кузбасский центр образования", "Описание": null, "Рубрики": "Школы", "Адрес": "проспект Ленина, 126а", "Комментарий к адресу": "2 этаж", "Почтовый индекс": 650023, "Микрорайон": null, "Район": "Ленинский район", "Город": "Кемерово", "Округ": "Кемеровский городской округ", "Регион": "Кемеровская область — Кузбасс", "Страна": "Россия", "Часы работы": "Пн: 08:00-12:30, 13:00-17:00; Вт: 08:00-12:30, 13:00-17:00; Ср: 08:00-12:30, 13:00-17:00; Чт: 08:00-12:30, 13:00-17:00; Пт: 08:00-12:30, 13:00-17:00", "Часовой пояс": "+07:00", "Рейтинг": 2.7, "Количество отзывов": 2, "Телефон 1": "83842516965 (приемная)", "Телефон 2": null, "Телефон 3": null, "Веб-сайт 1": "http://центр-образования.рус", "Веб-сайт 2": null, "ВКонтакте": "https://vk.com/kemschkola", "WhatsApp": null, "Viber": null, "Telegram 1": null, "Telegram 2": null, "YouTube": "https://youtube.com/@user-pg2rk1ee3w/videos", "Широта": 55.348799, "Долгота": 86.152493, "capacity": 170 }, "geometry": { "type": "MultiPoint", "coordinates": [ [ 86.152493, 55.348799 ] ] } },
{ "type": "Feature", "properties": { "fid": 38, "Наименование": "Общеобразовательная школа психолого-педагогической поддержки с осуществлением медицинской реабилитации детей с нарушением опорно-двигательного аппарата №100", "Описание": null, "Рубрики": "Школы", "Адрес": "Комсомольский проспект, 51а", "Комментарий к адресу": null, "Почтовый индекс": 650003, "Микрорайон": null, "Район": "Ленинский район", "Город": "Кемерово", "Округ": "Кемеровский городской округ", "Регион": "Кемеровская область — Кузбасс", "Страна": "Россия", "Часы работы": "Пн: 08:00-17:00; Вт: 08:00-17:00; Ср: 08:00-17:00; Чт: 08:00-17:00; Пт: 08:00-17:00", "Часовой пояс": "+07:00", "Рейтинг": 5.0, "Количество отзывов": 1, "Телефон 1": "83842739096", "Телефон 2": "83842739112", "Телефон 3": "83842739111 (приемная)", "Веб-сайт 1": "http://brig100.ucoz.ru", "Веб-сайт 2": null, "ВКонтакте": "https://vk.com/school_100_42", "WhatsApp": null, "Viber": null, "Telegram 1": null, "Telegram 2": null, "YouTube": null, "Широта": 55.342624, "Долгота": 86.188579, "capacity": 169 }, "geometry": { "type": "MultiPoint", "coordinates": [ [ 86.188579, 55.342624 ] ] } },
{ "type": "Feature", "properties": { "fid": 39, "Наименование": "Общеобразовательная школа психолого-педагогической поддержки №104", "Описание": null, "Рубрики": "Школы", "Адрес": "Марковцева, 14Б", "Комментарий к адресу": null, "Почтовый индекс": 650003, "Микрорайон": null, "Район": "Ленинский район", "Город": "Кемерово", "Округ": "Кемеровский городской округ", "Регион": "Кемеровская область — Кузбасс", "Страна": "Россия", "Часы работы": "Пн: 08:00-17:00; Вт: 08:00-17:00; Ср: 08:00-17:00; Чт: 08:00-17:00; Пт: 08:00-17:00", "Часовой пояс": "+07:00", "Рейтинг": 5.0, "Количество отзывов": 2, "Телефон 1": "83842735422", "Телефон 2": null, "Телефон 3": null, "Веб-сайт 1": null, "Веб-сайт 2": null, "ВКонтакте": null, "WhatsApp": null, "Viber": null, "Telegram 1": null, "Telegram 2": null, "YouTube": null, "Широта": 55.336532, "Долгота": 86.180696, "capacity": 202 }, "geometry": { "type": "MultiPoint", "coordinates": [ [ 86.180696, 55.336532 ] ] } },
{ "type": "Feature", "properties": { "fid": 40, "Наименование": "Общеобразовательная школа психолого-педагогической поддержки №101", "Описание": null, "Рубрики": "Школы", "Адрес": "Комсомольский проспект, 67а", "Комментарий к адресу": null, "Почтовый индекс": 650003, "Микрорайон": null, "Район": "Ленинский район", "Город": "Кемерово", "Округ": "Кемеровский городской округ", "Регион": "Кемеровская область — Кузбасс", "Страна": "Россия", "Часы работы": "Пн: 08:00-17:00; Вт: 08:00-17:00; Ср: 08:00-17:00; Чт: 08:00-17:00; Пт: 08:00-17:00", "Часовой пояс": "+07:00", "Рейтинг": 1.0, "Количество отзывов": 1, "Телефон 1": "83842740728", "Телефон 2": "83842740872", "Телефон 3": "83842740727 (приемная)", "Веб-сайт 1": null, "Веб-сайт 2": null, "ВКонтакте": "https://vk.com/public212000503", "WhatsApp": null, "Viber": null, "Telegram 1": null, "Telegram 2": null, "YouTube": null, "Широта": 55.337926, "Долгота": 86.190149, "capacity": 365 }, "geometry": { "type": "MultiPoint", "coordinates": [ [ 86.190149, 55.337926 ] ] } },
{ "type": "Feature", "properties": { "fid": 41, "Наименование": "Общеобразовательная школа психолого-педагогической поддержки №104", "Описание": null, "Рубрики": "Школы", "Адрес": "Октябрьский проспект, 82а", "Комментарий к адресу": null, "Почтовый индекс": 650065, "Микрорайон": "Шалготарьян м-н", "Район": "Ленинский район", "Город": "Кемерово", "Округ": "Кемеровский городской округ", "Регион": "Кемеровская область — Кузбасс", "Страна": "Россия", "Часы работы": "Пн: 08:00-17:00; Вт: 08:00-17:00; Ср: 08:00-17:00; Чт: 08:00-17:00; Пт: 08:00-17:00", "Часовой пояс": "+07:00", "Рейтинг": 4.3, "Количество отзывов": 3, "Телефон 1": "83842370022", "Телефон 2": "83842518265 (приемная)", "Телефон 3": null, "Веб-сайт 1": "http://t.me/shppp104", "Веб-сайт 2": null, "ВКонтакте": "https://vk.com/public215951833", "WhatsApp": null, "Viber": null, "Telegram 1": null, "Telegram 2": null, "YouTube": null, "Широта": 55.358942, "Долгота": 86.173866, "capacity": 381 }, "geometry": { "type": "MultiPoint", "coordinates": [ [ 86.173866, 55.358942 ] ] } },
{ "type": "Feature", "properties": { "fid": 42, "Наименование": "Общеобразовательная школа №20", "Описание": null, "Рубрики": "Школы", "Адрес": "проспект Химиков, 19г", "Комментарий к адресу": null, "Почтовый индекс": 650003, "Микрорайон": null, "Район": "Ленинский район", "Город": "Кемерово", "Округ": "Кемеровский городской округ", "Регион": "Кемеровская область — Кузбасс", "Страна": "Россия", "Часы работы": "Пн: 08:00-17:00; Вт: 08:00-17:00; Ср: 08:00-17:00; Чт: 08:00-17:00; Пт: 08:00-17:00", "Часовой пояс": "+07:00", "Рейтинг": null, "Количество отзывов": null, "Телефон 1": "83842510511 (телефон-факс)", "Телефон 2": "83842512229", "Телефон 3": null, "Веб-сайт 1": "http://shkola20.kemobl.ru", "Веб-сайт 2": null, "ВКонтакте": "https://vk.com/public198007657", "WhatsApp": null, "Viber": null, "Telegram 1": "https://t.me/school20kemerovo", "Telegram 2": null, "YouTube": null, "Широта": 55.341262, "Долгота": 86.177149, "capacity": 104 }, "geometry": { "type": "MultiPoint", "coordinates": [ [ 86.177149, 55.341262 ] ] } },
{ "type": "Feature", "properties": { "fid": 43, "Наименование": "Средняя общеобразовательная школа №35 им. Л.И. Соловьева", "Описание": null, "Рубрики": "Школы", "Адрес": "Октябрьский проспект, 40а", "Комментарий к адресу": null, "Почтовый индекс": 650023, "Микрорайон": null, "Район": "Центральный район", "Город": "Кемерово", "Округ": "Кемеровский городской округ", "Регион": "Кемеровская область — Кузбасс", "Страна": "Россия", "Часы работы": "Пн: 07:00-19:00; Вт: 07:00-19:00; Ср: 07:00-19:00; Чт: 07:00-19:00; Пт: 07:00-19:00; Сб: 07:00-15:00", "Часовой пояс": "+07:00", "Рейтинг": 3.0, "Количество отзывов": 6, "Телефон 1": "83842357036 (приемная)", "Телефон 2": null, "Телефон 3": null, "Веб-сайт 1": "http://school35.kemsu.ru", "Веб-сайт 2": null, "ВКонтакте": "https://vk.com/school35kem", "WhatsApp": null, "Viber": null, "Telegram 1": null, "Telegram 2": null, "YouTube": null, "Широта": 55.35049, "Долгота": 86.14227, "capacity": 499 }, "geometry": { "type": "MultiPoint", "coordinates": [ [ 86.14227, 55.35049 ] ] } },
{ "type": "Feature", "properties": { "fid": 44, "Наименование": "Средняя общеобразовательная школа №77", "Описание": null, "Рубрики": "Школы", "Адрес": "Октябрьский проспект, 56Б", "Комментарий к адресу": null, "Почтовый индекс": 650023, "Микрорайон": null, "Район": "Ленинский район", "Город": "Кемерово", "Округ": "Кемеровский городской округ", "Регион": "Кемеровская область — Кузбасс", "Страна": "Россия", "Часы работы": "Пн: 08:30-13:00, 14:00-17:00; Вт: 08:30-13:00, 14:00-17:00; Ср: 08:30-13:00, 14:00-17:00; Чт: 08:30-13:00, 14:00-17:00; Пт: 08:30-13:00, 14:00-17:00; Сб: 08:30-13:00", "Часовой пояс": "+07:00", "Рейтинг": 4.0, "Количество отзывов": 14, "Телефон 1": "83842515644 (приемная)", "Телефон 2": "83842510961", "Телефон 3": "83842517533", "Веб-сайт 1": "http://kem-school77.ru/", "Веб-сайт 2": null, "ВКонтакте": "https://vk.com/public204733787", "WhatsApp": null, "Viber": null, "Telegram 1": null, "Telegram 2": null, "YouTube": null, "Широта": 55.35255, "Долгота": 86.151447, "capacity": 825 }, "geometry": { "type": "MultiPoint", "coordinates": [ [ 86.151447, 55.35255 ] ] } },
{ "type": "Feature", "properties": { "fid": 45, "Наименование": "Средняя общеобразовательная школа №55", "Описание": null, "Рубрики": "Школы", "Адрес": "Октябрьский проспект, 85а", "Комментарий к адресу": null, "Почтовый индекс": 650065, "Микрорайон": null, "Район": "Ленинский район", "Город": "Кемерово", "Округ": "Кемеровский городской округ", "Регион": "Кемеровская область — Кузбасс", "Страна": "Россия", "Часы работы": "Пн: 08:30-17:30; Вт: 08:30-17:30; Ср: 08:30-17:30; Чт: 08:30-17:30; Пт: 08:30-17:30; Сб: 08:30-12:00", "Часовой пояс": "+07:00", "Рейтинг": 4.4, "Количество отзывов": 4, "Телефон 1": "83842519132 (приемная)", "Телефон 2": "83842519110", "Телефон 3": "83842518188", "Веб-сайт 1": "http://scholl55.ucoz.ru", "Веб-сайт 2": "http://t.me/school55kemerovo", "ВКонтакте": "https://vk.com/school55_kem", "WhatsApp": null, "Viber": null, "Telegram 1": null, "Telegram 2": null, "YouTube": null, "Широта": 55.352707, "Долгота": 86.164742, "capacity": 618 }, "geometry": { "type": "MultiPoint", "coordinates": [ [ 86.164742, 55.352707 ] ] } },
{ "type": "Feature", "properties": { "fid": 46, "Наименование": "Средняя общеобразовательная школа №93 с углубленным изучением отдельных предметов", "Описание": null, "Рубрики": "Школы", "Адрес": "Ленинградский проспект, 34Б", "Комментарий к адресу": null, "Почтовый индекс": 650003, "Микрорайон": null, "Район": "Ленинский район", "Город": "Кемерово", "Округ": "Кемеровский городской округ", "Регион": "Кемеровская область — Кузбасс", "Страна": "Россия", "Часы работы": "Пн: 08:00-19:30; Вт: 08:00-19:30; Ср: 08:00-19:30; Чт: 08:00-19:30; Пт: 08:00-19:30; Сб: 08:00-18:30", "Часовой пояс": "+07:00", "Рейтинг": 3.8, "Количество отзывов": 13, "Телефон 1": "83842746560 (приемная)", "Телефон 2": "83842746559", "Телефон 3": "83842746575", "Веб-сайт 1": "http://www.school93.kmr.ru", "Веб-сайт 2": "http://t.me/school93_kem", "ВКонтакте": "https://vk.com/club661530", "WhatsApp": null, "Viber": null, "Telegram 1": null, "Telegram 2": null, "YouTube": null, "Широта": 55.340243, "Долгота": 86.187815, "capacity": 1595 }, "geometry": { "type": "MultiPoint", "coordinates": [ [ 86.187815, 55.340243 ] ] } },
{ "type": "Feature", "properties": { "fid": 47, "Наименование": "Средняя общеобразовательная школа №12 им. В.Д. Волошиной", "Описание": null, "Рубрики": "Школы", "Адрес": "бульвар Строителей, 24в", "Комментарий к адресу": null, "Почтовый индекс": 650060, "Микрорайон": null, "Район": "Ленинский район", "Город": "Кемерово", "Округ": "Кемеровский городской округ", "Регион": "Кемеровская область — Кузбасс", "Страна": "Россия", "Часы работы": "Пн: 08:15-19:00; Вт: 08:15-19:00; Ср: 08:15-19:00; Чт: 08:15-19:00; Пт: 08:15-19:00; Сб: 08:15-13:30", "Часовой пояс": "+07:00", "Рейтинг": 3.3, "Количество отзывов": 20, "Телефон 1": "83842515376 (приемная)", "Телефон 2": null, "Телефон 3": null, "Веб-сайт 1": null, "Веб-сайт 2": null, "ВКонтакте": "https://vk.com/school12kmr", "WhatsApp": null, "Viber": null, "Telegram 1": "https://t.me/school12kmr", "Telegram 2": null, "YouTube": null, "Широта": 55.347982, "Долгота": 86.168735, "capacity": 389 }, "geometry": { "type": "MultiPoint", "coordinates": [ [ 86.168735, 55.347982 ] ] } },
{ "type": "Feature", "properties": { "fid": 48, "Наименование": "Средняя общеобразовательная школа №45", "Описание": null, "Рубрики": "Школы", "Адрес": "проспект Ленина, 130а", "Комментарий к адресу": null, "Почтовый индекс": 650023, "Микрорайон": null, "Район": "Ленинский район", "Город": "Кемерово", "Округ": "Кемеровский городской округ", "Регион": "Кемеровская область — Кузбасс", "Страна": "Россия", "Часы работы": "Пн: 08:00-19:40; Вт: 08:00-19:40; Ср: 08:00-19:40; Чт: 08:00-19:40; Пт: 08:00-19:40; Сб: 08:00-13:45", "Часовой пояс": "+07:00", "Рейтинг": 4.0, "Количество отзывов": 12, "Телефон 1": "83842510555 (приемная)", "Телефон 2": "83842518722", "Телефон 3": null, "Веб-сайт 1": null, "Веб-сайт 2": null, "ВКонтакте": "https://vk.com/club1419806", "WhatsApp": null, "Viber": null, "Telegram 1": null, "Telegram 2": null, "YouTube": null, "Широта": 55.349814, "Долгота": 86.1556, "capacity": 1045 }, "geometry": { "type": "MultiPoint", "coordinates": [ [ 86.1556, 55.349814 ] ] } },
{ "type": "Feature", "properties": { "fid": 49, "Наименование": "Средняя общеобразовательная школа №26", "Описание": null, "Рубрики": "Школы", "Адрес": "Волгоградская, 9а", "Комментарий к адресу": null, "Почтовый индекс": 650023, "Микрорайон": null, "Район": "Центральный район", "Город": "Кемерово", "Округ": "Кемеровский городской округ", "Регион": "Кемеровская область — Кузбасс", "Страна": "Россия", "Часы работы": "Пн: 08:00-17:00; Вт: 08:00-17:00; Ср: 08:00-17:00; Чт: 08:00-17:00; Пт: 08:00-17:00; Сб: 08:00-14:00", "Часовой пояс": "+07:00", "Рейтинг": 2.4, "Количество отзывов": 3, "Телефон 1": "83842543219 (приемная)", "Телефон 2": "83842549350", "Телефон 3": null, "Веб-сайт 1": "http://школа26кемерово.рф", "Веб-сайт 2": "http://t.me/cshool26kemerovo", "ВКонтакте": "https://vk.com/school26kemerovo", "WhatsApp": null, "Viber": null, "Telegram 1": null, "Telegram 2": null, "YouTube": null, "Широта": 55.347953, "Долгота": 86.144139, "capacity": 634 }, "geometry": { "type": "MultiPoint", "coordinates": [ [ 86.144139, 55.347953 ] ] } },
{ "type": "Feature", "properties": { "fid": 50, "Наименование": "Средняя общеобразовательная школа №44 им. М.Я. Вознесенского", "Описание": null, "Рубрики": "Школы", "Адрес": "Гагарина, 146", "Комментарий к адресу": null, "Почтовый индекс": 650036, "Микрорайон": null, "Район": "Центральный район", "Город": "Кемерово", "Округ": "Кемеровский городской округ", "Регион": "Кемеровская область — Кузбасс", "Страна": "Россия", "Часы работы": "Пн: 08:00-19:30; Вт: 08:00-19:30; Ср: 08:00-19:30; Чт: 08:00-19:30; Пт: 08:00-19:30; Сб: 08:00-19:00", "Часовой пояс": "+07:00", "Рейтинг": 2.5, "Количество отзывов": 12, "Телефон 1": "83842542389 (приемная)", "Телефон 2": "83842541958", "Телефон 3": "83842541945", "Веб-сайт 1": "http://www.srsc44cr.ucoz.ru", "Веб-сайт 2": null, "ВКонтакте": null, "WhatsApp": null, "Viber": null, "Telegram 1": null, "Telegram 2": null, "YouTube": null, "Широта": 55.342153, "Долгота": 86.141559, "capacity": 791 }, "geometry": { "type": "MultiPoint", "coordinates": [ [ 86.141559, 55.342153 ] ] } },
{ "type": "Feature", "properties": { "fid": 51, "Наименование": "Гимназия №21", "Описание": null, "Рубрики": "Гимназии", "Адрес": "улица Сибиряков-Гвардейцев, 332", "Комментарий к адресу": null, "Почтовый индекс": 650056, "Микрорайон": null, "Район": "Центральный район", "Город": "Кемерово", "Округ": "Кемеровский городской округ", "Регион": "Кемеровская область — Кузбасс", "Страна": "Россия", "Часы работы": "Пн: 08:00-19:15; Вт: 08:00-19:15; Ср: 08:00-19:15; Чт: 08:00-19:15; Пт: 08:00-19:15; Сб: 08:00-18:30", "Часовой пояс": "+07:00", "Рейтинг": 2.7, "Количество отзывов": 18, "Телефон 1": "83842547330", "Телефон 2": "83842543238 (приемная)", "Телефон 3": "83842548088", "Веб-сайт 1": "http://www.lgym21.ru/", "Веб-сайт 2": null, "ВКонтакте": "https://vk.com/lgym21.kemerovo", "WhatsApp": null, "Viber": null, "Telegram 1": "https://t.me/lgym21", "Telegram 2": null, "YouTube": null, "Широта": 55.341594, "Долгота": 86.148742, "capacity": 833 }, "geometry": { "type": "MultiPoint", "coordinates": [ [ 86.148742, 55.341594 ] ] } },
{ "type": "Feature", "properties": { "fid": 52, "Наименование": "Гимназия №25", "Описание": null, "Рубрики": "Гимназии", "Адрес": "бульвар Строителей, 44Б", "Комментарий к адресу": null, "Почтовый индекс": 650003, "Микрорайон": null, "Район": "Ленинский район", "Город": "Кемерово", "Округ": "Кемеровский городской округ", "Регион": "Кемеровская область — Кузбасс", "Страна": "Россия", "Часы работы": "Пн: 08:00-19:00; Вт: 08:00-19:00; Ср: 08:00-19:00; Чт: 08:00-19:00; Пт: 08:00-19:00; Сб: 08:00-17:30", "Часовой пояс": "+07:00", "Рейтинг": 2.1, "Количество отзывов": 25, "Телефон 1": "83842732920 (приемная)", "Телефон 2": "83842733191", "Телефон 3": null, "Веб-сайт 1": "http://www.gimnaz25.ru", "Веб-сайт 2": null, "ВКонтакте": "https://vk.com/club9315705", "WhatsApp": null, "Viber": null, "Telegram 1": null, "Telegram 2": null, "YouTube": null, "Широта": 55.339504, "Долгота": 86.177023, "capacity": 867 }, "geometry": { "type": "MultiPoint", "coordinates": [ [ 86.177023, 55.339504 ] ] } },
{ "type": "Feature", "properties": { "fid": 53, "Наименование": "Радуга", "Описание": null, "Рубрики": "Гимназии", "Адрес": "Ленинградский проспект, 32Б", "Комментарий к адресу": null, "Почтовый индекс": 650003, "Микрорайон": null, "Район": "Ленинский район", "Город": "Кемерово", "Округ": "Кемеровский городской округ", "Регион": "Кемеровская область — Кузбасс", "Страна": "Россия", "Часы работы": "Пн: 08:20-17:00; Вт: 08:20-17:00; Ср: 08:20-17:00; Чт: 08:20-17:00; Пт: 08:20-17:00; Сб: 08:20-16:00", "Часовой пояс": "+07:00", "Рейтинг": 2.9, "Количество отзывов": 15, "Телефон 1": "83842739624", "Телефон 2": "83842745477", "Телефон 3": "83842731663 (отдел бухгалтерии)", "Веб-сайт 1": null, "Веб-сайт 2": null, "ВКонтакте": "https://vk.com/rainbowkem", "WhatsApp": null, "Viber": null, "Telegram 1": null, "Telegram 2": null, "YouTube": null, "Широта": 55.341614, "Долгота": 86.184533, "capacity": 476 }, "geometry": { "type": "MultiPoint", "coordinates": [ [ 86.184533, 55.341614 ] ] } },
{ "type": "Feature", "properties": { "fid": 54, "Наименование": "Гимназия №21", "Описание": null, "Рубрики": "Гимназии", "Адрес": "улица Сибиряков-Гвардейцев, 318", "Комментарий к адресу": null, "Почтовый индекс": 650036, "Микрорайон": null, "Район": "Центральный район", "Город": "Кемерово", "Округ": "Кемеровский городской округ", "Регион": "Кемеровская область — Кузбасс", "Страна": "Россия", "Часы работы": "Пн: 08:00-19:15; Вт: 08:00-19:15; Ср: 08:00-19:15; Чт: 08:00-19:15; Пт: 08:00-19:15; Сб: 08:00-18:15", "Часовой пояс": "+07:00", "Рейтинг": 1.7, "Количество отзывов": 3, "Телефон 1": "83842542238", "Телефон 2": "83842543238", "Телефон 3": null, "Веб-сайт 1": "http://www.lgym21.ru", "Веб-сайт 2": null, "ВКонтакте": "https://vk.com/lgym21.kemerovo", "WhatsApp": null, "Viber": null, "Telegram 1": null, "Telegram 2": null, "YouTube": null, "Широта": 55.340108, "Долгота": 86.146741, "capacity": 633 }, "geometry": { "type": "MultiPoint", "coordinates": [ [ 86.146741, 55.340108 ] ] } },
{ "type": "Feature", "properties": { "fid": 55, "Наименование": "Православная гимназия", "Описание": null, "Рубрики": "Гимназии", "Адрес": "Комсомольский проспект, 55", "Комментарий к адресу": null, "Почтовый индекс": 650003, "Микрорайон": null, "Район": "Ленинский район", "Город": "Кемерово", "Округ": "Кемеровский городской округ", "Регион": "Кемеровская область — Кузбасс", "Страна": "Россия", "Часы работы": "Пн: 08:30-17:00; Вт: 08:30-17:00; Ср: 08:30-17:00; Чт: 08:30-17:00; Пт: 08:30-17:00; Сб: 08:30-14:00", "Часовой пояс": "+07:00", "Рейтинг": 3.9, "Количество отзывов": 13, "Телефон 1": "83842737909", "Телефон 2": null, "Телефон 3": null, "Веб-сайт 1": "http://моя-гимназия.рф", "Веб-сайт 2": null, "ВКонтакте": "https://vk.com/pravoslavnaya_gimnaziya_kemerovo", "WhatsApp": null, "Viber": null, "Telegram 1": null, "Telegram 2": null, "YouTube": null, "Широта": 55.340948, "Долгота": 86.190129, "capacity": 380 }, "geometry": { "type": "MultiPoint", "coordinates": [ [ 86.190129, 55.340948 ] ] } },
{ "type": "Feature", "properties": { "fid": 56, "Наименование": "Средняя общеобразовательная школа №5", "Описание": null, "Рубрики": "Школы", "Адрес": "Заречная 2-я, 13", "Комментарий к адресу": null, "Почтовый индекс": 650066, "Микрорайон": null, "Район": "Центральный район", "Город": "Кемерово", "Округ": "Кемеровский городской округ", "Регион": "Кемеровская область — Кузбасс", "Страна": "Россия", "Часы работы": "Пн: 08:00-17:00; Вт: 08:00-17:00; Ср: 08:00-17:00; Чт: 08:00-17:00; Пт: 08:00-17:00; Сб: 08:00-14:00", "Часовой пояс": "+07:00", "Рейтинг": 3.7, "Количество отзывов": 29, "Телефон 1": "83842780545 (приёмная)", "Телефон 2": null, "Телефон 3": null, "Веб-сайт 1": "http://scholla5.ucoz.ru", "Веб-сайт 2": null, "ВКонтакте": "https://vk.com/school_kem5", "WhatsApp": null, "Viber": null, "Telegram 1": null, "Telegram 2": null, "YouTube": null, "Широта": 55.351493, "Долгота": 86.121268, "capacity": 1177 }, "geometry": { "type": "MultiPoint", "coordinates": [ [ 86.121268, 55.351493 ] ] } },
{ "type": "Feature", "properties": { "fid": 57, "Наименование": "Средняя общеобразовательная школа №31 им. В.Д. Мартемьянова", "Описание": null, "Рубрики": "Школы", "Адрес": "Октябрьский проспект, 17а", "Комментарий к адресу": null, "Почтовый индекс": 650066, "Микрорайон": null, "Район": "Центральный район", "Город": "Кемерово", "Округ": "Кемеровский городской округ", "Регион": "Кемеровская область — Кузбасс", "Страна": "Россия", "Часы работы": "Пн: 08:00-19:15; Вт: 08:00-19:15; Ср: 08:00-19:15; Чт: 08:00-19:15; Пт: 08:00-19:15; Сб: 08:00-15:00", "Часовой пояс": "+07:00", "Рейтинг": 3.6, "Количество отзывов": 13, "Телефон 1": "83842523745", "Телефон 2": "83842523746 (приемная)", "Телефон 3": "83842523770", "Веб-сайт 1": "http://school31.kmr.eduru.ru", "Веб-сайт 2": "http://t.me/school31_kemerovo", "ВКонтакте": "https://vk.com/club5105633", "WhatsApp": null, "Viber": null, "Telegram 1": null, "Telegram 2": null, "YouTube": null, "Широта": 55.347229, "Долгота": 86.11414, "capacity": 1094 }, "geometry": { "type": "MultiPoint", "coordinates": [ [ 86.11414, 55.347229 ] ] } },
{ "type": "Feature", "properties": { "fid": 58, "Наименование": "Школа первых", "Описание": null, "Рубрики": "Школы; Центры раннего развития детей", "Адрес": "Притомский проспект, 12", "Комментарий к адресу": null, "Почтовый индекс": 650066, "Микрорайон": null, "Район": "Центральный район", "Город": "Кемерово", "Округ": "Кемеровский городской округ", "Регион": "Кемеровская область — Кузбасс", "Страна": "Россия", "Часы работы": "Пн: 09:00-16:00; Вт: 09:00-16:00; Ср: 09:00-16:00; Чт: 09:00-16:00; Пт: 09:00-16:00", "Часовой пояс": "+07:00", "Рейтинг": null, "Количество отзывов": null, "Телефон 1": "83842335505 (единая справочная: пн-вс 9:00-21:00)", "Телефон 2": null, "Телефон 3": null, "Веб-сайт 1": null, "Веб-сайт 2": null, "ВКонтакте": "https://vk.com/public215437467", "WhatsApp": null, "Viber": null, "Telegram 1": null, "Telegram 2": null, "YouTube": null, "Широта": 55.35766, "Долгота": 86.123315, "capacity": 180 }, "geometry": { "type": "MultiPoint", "coordinates": [ [ 86.123315, 55.35766 ] ] } },
{ "type": "Feature", "properties": { "fid": 59, "Наименование": "Средняя общеобразовательная школа №80", "Описание": null, "Рубрики": "Школы", "Адрес": "Гагарина, 110", "Комментарий к адресу": null, "Почтовый индекс": 650004, "Микрорайон": null, "Район": "Центральный район", "Город": "Кемерово", "Округ": "Кемеровский городской округ", "Регион": "Кемеровская область — Кузбасс", "Страна": "Россия", "Часы работы": "Пн: 08:00-18:00; Вт: 08:00-18:00; Ср: 08:00-18:00; Чт: 08:00-18:00; Пт: 08:00-18:00; Сб: 08:00-16:00", "Часовой пояс": "+07:00", "Рейтинг": 3.6, "Количество отзывов": 24, "Телефон 1": "83842357511 (приемная)", "Телефон 2": "83842357431", "Телефон 3": null, "Веб-сайт 1": "http://kem-school80.ucoz.ru", "Веб-сайт 2": "http://t.me/scollluck80", "ВКонтакте": "https://vk.com/club4965298", "WhatsApp": null, "Viber": null, "Telegram 1": null, "Telegram 2": null, "YouTube": null, "Широта": 55.3399, "Долгота": 86.11939, "capacity": 769 }, "geometry": { "type": "MultiPoint", "coordinates": [ [ 86.11939, 55.3399 ] ] } },
{ "type": "Feature", "properties": { "fid": 60, "Наименование": "Средняя общеобразовательная школа №61", "Описание": null, "Рубрики": "Школы", "Адрес": "Сарыгина, 40а", "Комментарий к адресу": null, "Почтовый индекс": 650055, "Микрорайон": null, "Район": "Заводский район", "Город": "Кемерово", "Округ": "Кемеровский городской округ", "Регион": "Кемеровская область — Кузбасс", "Страна": "Россия", "Часы работы": "Пн: 10:00-16:05; Вт: 10:00-16:05; Ср: 10:00-16:05; Чт: 10:00-16:05; Пт: 10:00-16:05; Сб: 09:00-13:25", "Часовой пояс": "+07:00", "Рейтинг": 4.7, "Количество отзывов": 3, "Телефон 1": "83842210800", "Телефон 2": "83842289601", "Телефон 3": "83842213716", "Веб-сайт 1": "http://school61.kemobl.ru", "Веб-сайт 2": null, "ВКонтакте": "https://vk.com/school61kem", "WhatsApp": null, "Viber": null, "Telegram 1": null, "Telegram 2": null, "YouTube": null, "Широта": 55.34055, "Долгота": 86.076519, "capacity": 400 }, "geometry": { "type": "MultiPoint", "coordinates": [ [ 86.076519, 55.34055 ] ] } },
{ "type": "Feature", "properties": { "fid": 61, "Наименование": "Средняя общеобразовательная школа №40 им. С.А. Катасонова", "Описание": null, "Рубрики": "Школы", "Адрес": "Кузнецкий проспект, 44", "Комментарий к адресу": null, "Почтовый индекс": 650000, "Микрорайон": null, "Район": "Центральный район", "Город": "Кемерово", "Округ": "Кемеровский городской округ", "Регион": "Кемеровская область — Кузбасс", "Страна": "Россия", "Часы работы": "Пн: 07:00-19:00; Вт: 07:00-19:00; Ср: 07:00-19:00; Чт: 07:00-19:00; Пт: 07:00-19:00; Сб: 07:00-19:00; Вс: 07:00-19:00", "Часовой пояс": "+07:00", "Рейтинг": 3.5, "Количество отзывов": 19, "Телефон 1": "83842757465 (приемная)", "Телефон 2": "83842349361", "Телефон 3": "83842753965", "Веб-сайт 1": "http://sh40.ucoz.ru", "Веб-сайт 2": null, "ВКонтакте": "https://vk.com/public215955503", "WhatsApp": null, "Viber": null, "Telegram 1": null, "Telegram 2": null, "YouTube": null, "Широта": 55.354158, "Долгота": 86.066238, "capacity": 816 }, "geometry": { "type": "MultiPoint", "coordinates": [ [ 86.066238, 55.354158 ] ] } },
{ "type": "Feature", "properties": { "fid": 62, "Наименование": "Средняя общеобразовательная школа №84", "Описание": null, "Рубрики": "Школы", "Адрес": "Красноармейская улица, 134", "Комментарий к адресу": null, "Почтовый индекс": 650043, "Микрорайон": null, "Район": "Центральный район", "Город": "Кемерово", "Округ": "Кемеровский городской округ", "Регион": "Кемеровская область — Кузбасс", "Страна": "Россия", "Часы работы": "Пн: 08:00-19:20; Вт: 08:00-19:20; Ср: 08:00-19:20; Чт: 08:00-19:20; Пт: 08:00-19:20; Сб: 08:00-15:00", "Часовой пояс": "+07:00", "Рейтинг": 3.8, "Количество отзывов": 18, "Телефон 1": "89235121040 (заведующий)", "Телефон 2": null, "Телефон 3": null, "Веб-сайт 1": null, "Веб-сайт 2": null, "ВКонтакте": "https://vk.com/club4094779", "WhatsApp": null, "Viber": null, "Telegram 1": "https://t.me/+79235121040", "Telegram 2": null, "YouTube": null, "Широта": 55.349005, "Долгота": 86.085021, "capacity": 755 }, "geometry": { "type": "MultiPoint", "coordinates": [ [ 86.085021, 55.349005 ] ] } },
{ "type": "Feature", "properties": { "fid": 63, "Наименование": "Средняя общеобразовательная школа №10", "Описание": null, "Рубрики": "Школы", "Адрес": "Красная, 20", "Комментарий к адресу": null, "Почтовый индекс": 650043, "Микрорайон": null, "Район": "Центральный район", "Город": "Кемерово", "Округ": "Кемеровский городской округ", "Регион": "Кемеровская область — Кузбасс", "Страна": "Россия", "Часы работы": "Пн: 08:00-19:25; Вт: 08:00-19:25; Ср: 08:00-19:25; Чт: 08:00-19:25; Пт: 08:00-19:25; Сб: 08:00-18:40", "Часовой пояс": "+07:00", "Рейтинг": 2.6, "Количество отзывов": 19, "Телефон 1": "83842580968", "Телефон 2": "83842581331 (приемная)", "Телефон 3": null, "Веб-сайт 1": "http://t.me/kemsch10", "Веб-сайт 2": null, "ВКонтакте": "https://vk.com/public211490466", "WhatsApp": null, "Viber": null, "Telegram 1": null, "Telegram 2": null, "YouTube": null, "Широта": 55.346004, "Долгота": 86.086963, "capacity": 750 }, "geometry": { "type": "MultiPoint", "coordinates": [ [ 86.086963, 55.346004 ] ] } },
{ "type": "Feature", "properties": { "fid": 64, "Наименование": "Средняя общеобразовательная школа №7", "Описание": null, "Рубрики": "Школы", "Адрес": "Пролетарская, 10", "Комментарий к адресу": null, "Почтовый индекс": 650055, "Микрорайон": null, "Район": "Заводский район", "Город": "Кемерово", "Округ": "Кемеровский городской округ", "Регион": "Кемеровская область — Кузбасс", "Страна": "Россия", "Часы работы": "Пн: 08:00-18:00; Вт: 08:00-18:00; Ср: 08:00-18:00; Чт: 08:00-18:00; Пт: 08:00-18:00; Сб: 08:00-14:05", "Часовой пояс": "+07:00", "Рейтинг": 4.1, "Количество отзывов": 13, "Телефон 1": "83842780725 (приемная)", "Телефон 2": "83842780721 (директор)", "Телефон 3": "83842780724 (учительская)", "Веб-сайт 1": "http://kemschool7.ru", "Веб-сайт 2": null, "ВКонтакте": "https://vk.com/club1077588", "WhatsApp": null, "Viber": null, "Telegram 1": null, "Telegram 2": null, "YouTube": null, "Широта": 55.342724, "Долгота": 86.078371, "capacity": 575 }, "geometry": { "type": "MultiPoint", "coordinates": [ [ 86.078371, 55.342724 ] ] } },
{ "type": "Feature", "properties": { "fid": 65, "Наименование": "Гимназия №1", "Описание": null, "Рубрики": "Гимназии", "Адрес": "Боброва, 2", "Комментарий к адресу": null, "Почтовый индекс": 650000, "Микрорайон": null, "Район": "Центральный район", "Город": "Кемерово", "Округ": "Кемеровский городской округ", "Регион": "Кемеровская область — Кузбасс", "Страна": "Россия", "Часы работы": "Пн: 08:30-18:30; Вт: 08:30-18:30; Ср: 08:30-18:30; Чт: 08:30-18:30; Пт: 08:30-18:30; Сб: 08:30-18:30", "Часовой пояс": "+07:00", "Рейтинг": 4.7, "Количество отзывов": 11, "Телефон 1": "83842366743", "Телефон 2": "83842369105", "Телефон 3": null, "Веб-сайт 1": "http://gimn1.ru", "Веб-сайт 2": null, "ВКонтакте": "https://vk.com/public211743893", "WhatsApp": null, "Viber": null, "Telegram 1": "https://t.me/gimn1kemerovo", "Telegram 2": null, "YouTube": null, "Широта": 55.358314, "Долгота": 86.079036, "capacity": 1075 }, "geometry": { "type": "MultiPoint", "coordinates": [ [ 86.079036, 55.358314 ] ] } },
{ "type": "Feature", "properties": { "fid": 66, "Наименование": "Гимназия №41", "Описание": null, "Рубрики": "Гимназии", "Адрес": "проспект Ленина, 62Б", "Комментарий к адресу": null, "Почтовый индекс": 650066, "Микрорайон": null, "Район": "Центральный район", "Город": "Кемерово", "Округ": "Кемеровский городской округ", "Регион": "Кемеровская область — Кузбасс", "Страна": "Россия", "Часы работы": "Пн: 08:30-18:00; Вт: 08:30-18:00; Ср: 08:30-18:00; Чт: 08:30-18:00; Пт: 08:30-18:00; Сб: 08:30-15:30", "Часовой пояс": "+07:00", "Рейтинг": 3.8, "Количество отзывов": 15, "Телефон 1": "83842522567", "Телефон 2": "83842522492 (приемная)", "Телефон 3": null, "Веб-сайт 1": "http://gimnasium41.ru", "Веб-сайт 2": null, "ВКонтакте": "https://vk.com/club674268", "WhatsApp": null, "Viber": null, "Telegram 1": null, "Telegram 2": null, "YouTube": null, "Широта": 55.346577, "Долгота": 86.103916, "capacity": 1153 }, "geometry": { "type": "MultiPoint", "coordinates": [ [ 86.103916, 55.346577 ] ] } },
{ "type": "Feature", "properties": { "fid": 67, "Наименование": "Гимназия №17", "Описание": null, "Рубрики": "Гимназии", "Адрес": "Пролетарская, 13", "Комментарий к адресу": null, "Почтовый индекс": 650055, "Микрорайон": null, "Район": "Заводский район", "Город": "Кемерово", "Округ": "Кемеровский городской округ", "Регион": "Кемеровская область — Кузбасс", "Страна": "Россия", "Часы работы": "Пн: 07:30-20:00; Вт: 07:30-20:00; Ср: 07:30-20:00; Чт: 07:30-20:00; Пт: 07:30-20:00; Сб: 07:30-19:10", "Часовой пояс": "+07:00", "Рейтинг": 3.0, "Количество отзывов": 23, "Телефон 1": "83842285510 (приемная)", "Телефон 2": "83842285664", "Телефон 3": "83842282509 (учебная часть)", "Веб-сайт 1": "http://www.kg17.ru", "Веб-сайт 2": null, "ВКонтакте": "https://vk.com/gymnaz17", "WhatsApp": null, "Viber": null, "Telegram 1": null, "Telegram 2": null, "YouTube": null, "Широта": 55.339397, "Долгота": 86.069781, "capacity": 1044 }, "geometry": { "type": "MultiPoint", "coordinates": [ [ 86.069781, 55.339397 ] ] } },
{ "type": "Feature", "properties": { "fid": 68, "Наименование": "Средняя общеобразовательная школа №37 им. Новикова Гаврила Гавриловича", "Описание": null, "Рубрики": "Школы", "Адрес": "Веры Волошиной, 21", "Комментарий к адресу": null, "Почтовый индекс": 650024, "Микрорайон": "Южный м-н", "Район": "Заводский район", "Город": "Кемерово", "Округ": "Кемеровский городской округ", "Регион": "Кемеровская область — Кузбасс", "Страна": "Россия", "Часы работы": "Пн: 08:00-18:30; Вт: 08:00-18:30; Ср: 08:00-18:30; Чт: 08:00-18:30; Пт: 08:00-18:30; Сб: 08:00-17:55", "Часовой пояс": "+07:00", "Рейтинг": 3.2, "Количество отзывов": 14, "Телефон 1": "83842654200 (приемная)", "Телефон 2": "83842654422", "Телефон 3": "83842654321", "Веб-сайт 1": null, "Веб-сайт 2": null, "ВКонтакте": "https://vk.com/kem37", "WhatsApp": null, "Viber": null, "Telegram 1": null, "Telegram 2": null, "YouTube": null, "Широта": 55.315598, "Долгота": 86.079813, "capacity": 1420 }, "geometry": { "type": "MultiPoint", "coordinates": [ [ 86.079813, 55.315598 ] ] } },
{ "type": "Feature", "properties": { "fid": 69, "Наименование": "Средняя общеобразовательная школа №54 с дошкольным отделением", "Описание": null, "Рубрики": "Школы", "Адрес": "Федоровского, 6", "Комментарий к адресу": null, "Почтовый индекс": 650055, "Микрорайон": null, "Район": "Заводский район", "Город": "Кемерово", "Округ": "Кемеровский городской округ", "Регион": "Кемеровская область — Кузбасс", "Страна": "Россия", "Часы работы": "Пн: 08:00-19:15; Вт: 08:00-19:15; Ср: 08:00-19:15; Чт: 08:00-19:15; Пт: 08:00-19:15; Сб: 08:00-16:30", "Часовой пояс": "+07:00", "Рейтинг": 3.8, "Количество отзывов": 8, "Телефон 1": "83842280687", "Телефон 2": "83842280447", "Телефон 3": "83842280648 (приемная)", "Веб-сайт 1": "http://kem-school54.ucoz.ru", "Веб-сайт 2": null, "ВКонтакте": "https://vk.com/club31465768", "WhatsApp": null, "Viber": null, "Telegram 1": null, "Telegram 2": null, "YouTube": null, "Широта": 55.334789, "Долгота": 86.066503, "capacity": 1002 }, "geometry": { "type": "MultiPoint", "coordinates": [ [ 86.066503, 55.334789 ] ] } },
{ "type": "Feature", "properties": { "fid": 70, "Наименование": "Средняя общеобразовательная школа № 90", "Описание": null, "Рубрики": "Школы; Аренда спортивных площадок", "Адрес": "Космическая улица, 31", "Комментарий к адресу": null, "Почтовый индекс": 650024, "Микрорайон": "Южный м-н", "Район": "Заводский район", "Город": "Кемерово", "Округ": "Кемеровский городской округ", "Регион": "Кемеровская область — Кузбасс", "Страна": "Россия", "Часы работы": "Пн: 08:00-17:30; Вт: 08:00-17:30; Ср: 08:00-17:30; Чт: 08:00-17:30; Пт: 08:00-17:30; Сб: 08:00-17:30", "Часовой пояс": "+07:00", "Рейтинг": 2.6, "Количество отзывов": 15, "Телефон 1": "83842385527", "Телефон 2": "83842385575 (приемная)", "Телефон 3": null, "Веб-сайт 1": null, "Веб-сайт 2": null, "ВКонтакте": "https://vk.com/scoll90", "WhatsApp": null, "Viber": null, "Telegram 1": null, "Telegram 2": null, "YouTube": null, "Широта": 55.315404, "Долгота": 86.089576, "capacity": 635 }, "geometry": { "type": "MultiPoint", "coordinates": [ [ 86.089576, 55.315404 ] ] } },
{ "type": "Feature", "properties": { "fid": 71, "Наименование": "Средняя общеобразовательная школа №50 им. А.А. Бабенко", "Описание": null, "Рубрики": "Школы", "Адрес": "Кузнецкий проспект, 262", "Комментарий к адресу": null, "Почтовый индекс": 650051, "Микрорайон": "Комиссарово м-н", "Район": "Заводский район", "Город": "Кемерово", "Округ": "Кемеровский городской округ", "Регион": "Кемеровская область — Кузбасс", "Страна": "Россия", "Часы работы": "Пн: 08:00-16:30; Вт: 08:00-16:30; Ср: 08:00-16:30; Чт: 08:00-16:30; Пт: 08:00-16:30; Сб: 08:00-13:00", "Часовой пояс": "+07:00", "Рейтинг": 1.0, "Количество отзывов": 1, "Телефон 1": "83842280233", "Телефон 2": null, "Телефон 3": null, "Веб-сайт 1": "http://kem-school50.ru", "Веб-сайт 2": null, "ВКонтакте": "https://vk.com/public181456971", "WhatsApp": null, "Viber": null, "Telegram 1": null, "Telegram 2": null, "YouTube": null, "Широта": 55.305226, "Долгота": 86.027024, "capacity": 715 }, "geometry": { "type": "MultiPoint", "coordinates": [ [ 86.027024, 55.305226 ] ] } },
{ "type": "Feature", "properties": { "fid": 72, "Наименование": "Средняя общеобразовательная школа №8", "Описание": null, "Рубрики": "Школы", "Адрес": "Коммунистическая, 14", "Комментарий к адресу": null, "Почтовый индекс": 650010, "Микрорайон": null, "Район": "Заводский район", "Город": "Кемерово", "Округ": "Кемеровский городской округ", "Регион": "Кемеровская область — Кузбасс", "Страна": "Россия", "Часы работы": "Пн: 09:00-15:40; Вт: 09:00-15:40; Ср: 09:00-15:40; Чт: 09:00-15:40; Пт: 09:00-15:40; Сб: 09:00-15:40", "Часовой пояс": "+07:00", "Рейтинг": 3.7, "Количество отзывов": 9, "Телефон 1": "83842757589 (приемная)", "Телефон 2": "83842758743", "Телефон 3": "83842452456", "Веб-сайт 1": "http://kemschool8.edusite.ru", "Веб-сайт 2": null, "ВКонтакте": "https://vk.com/club165334552", "WhatsApp": null, "Viber": null, "Telegram 1": null, "Telegram 2": null, "YouTube": null, "Широта": 55.35318, "Долгота": 86.041807, "capacity": 409 }, "geometry": { "type": "MultiPoint", "coordinates": [ [ 86.041807, 55.35318 ] ] } },
{ "type": "Feature", "properties": { "fid": 73, "Наименование": "Средняя общеобразовательная школа № 90", "Описание": null, "Рубрики": "Школы", "Адрес": "Сергея Тюленина, 15", "Комментарий к адресу": null, "Почтовый индекс": 650024, "Микрорайон": "Южный м-н", "Район": "Заводский район", "Город": "Кемерово", "Округ": "Кемеровский городской округ", "Регион": "Кемеровская область — Кузбасс", "Страна": "Россия", "Часы работы": "Пн: 08:00-18:45; Вт: 08:00-18:45; Ср: 08:00-18:45; Чт: 08:00-18:45; Пт: 08:00-18:45; Сб: 08:00-15:00", "Часовой пояс": "+07:00", "Рейтинг": 5.0, "Количество отзывов": 2, "Телефон 1": "83842387122", "Телефон 2": "83842384310", "Телефон 3": null, "Веб-сайт 1": null, "Веб-сайт 2": null, "ВКонтакте": "https://vk.com/scoll90", "WhatsApp": null, "Viber": null, "Telegram 1": null, "Telegram 2": null, "YouTube": null, "Широта": 55.319029, "Долгота": 86.082698, "capacity": 635 }, "geometry": { "type": "MultiPoint", "coordinates": [ [ 86.082698, 55.319029 ] ] } },
{ "type": "Feature", "properties": { "fid": 74, "Наименование": "Основная общеобразовательная школа №68", "Описание": null, "Рубрики": "Школы", "Адрес": "Цветочная 4-я, 47", "Комментарий к адресу": null, "Почтовый индекс": 650032, "Микрорайон": "Южный м-н", "Район": "Заводский район", "Город": "Кемерово", "Округ": "Кемеровский городской округ", "Регион": "Кемеровская область — Кузбасс", "Страна": "Россия", "Часы работы": "Пн: 08:00-19:00; Вт: 08:00-19:00; Ср: 08:00-19:00; Чт: 08:00-19:00; Пт: 08:00-19:00; Сб: 08:00-15:00", "Часовой пояс": "+07:00", "Рейтинг": 3.5, "Количество отзывов": 10, "Телефон 1": "83842654433 (приемная)", "Телефон 2": "83842654211", "Телефон 3": null, "Веб-сайт 1": "http://school68kem.ru", "Веб-сайт 2": null, "ВКонтакте": "https://vk.com/school68kem", "WhatsApp": null, "Viber": null, "Telegram 1": null, "Telegram 2": null, "YouTube": null, "Широта": 55.311945, "Долгота": 86.063772, "capacity": 980 }, "geometry": { "type": "MultiPoint", "coordinates": [ [ 86.063772, 55.311945 ] ] } },
{ "type": "Feature", "properties": { "fid": 75, "Наименование": "Средняя общеобразовательная школа №65", "Описание": null, "Рубрики": "Школы", "Адрес": "Семашко, 46", "Комментарий к адресу": null, "Почтовый индекс": 650010, "Микрорайон": null, "Район": "Заводский район", "Город": "Кемерово", "Округ": "Кемеровский городской округ", "Регион": "Кемеровская область — Кузбасс", "Страна": "Россия", "Часы работы": "Пн: 08:00-20:10; Вт: 08:00-20:10; Ср: 08:00-20:10; Чт: 08:00-20:10; Пт: 08:00-20:10; Сб: 08:00-18:40", "Часовой пояс": "+07:00", "Рейтинг": 3.0, "Количество отзывов": 4, "Телефон 1": "83842210429 (приемная)", "Телефон 2": null, "Телефон 3": null, "Веб-сайт 1": null, "Веб-сайт 2": null, "ВКонтакте": "https://vk.com/public211661956", "WhatsApp": null, "Viber": null, "Telegram 1": "https://t.me/school65kmr", "Telegram 2": null, "YouTube": null, "Широта": 55.342095, "Долгота": 86.036728, "capacity": 480 }, "geometry": { "type": "MultiPoint", "coordinates": [ [ 86.036728, 55.342095 ] ] } },
{ "type": "Feature", "properties": { "fid": 76, "Наименование": "Средняя общеобразовательная школа №50 им. А.А. Бабенко", "Описание": null, "Рубрики": "Школы", "Адрес": "Белозёрная, 42", "Комментарий к адресу": null, "Почтовый индекс": 650905, "Микрорайон": "Ягуновский м-н", "Район": "Заводский район", "Город": "Кемерово", "Округ": "Кемеровский городской округ", "Регион": "Кемеровская область — Кузбасс", "Страна": "Россия", "Часы работы": "Пн: 08:00-19:10; Вт: 08:00-19:10; Ср: 08:00-19:10; Чт: 08:00-19:10; Пт: 08:00-19:10; Сб: 08:00-16:45", "Часовой пояс": "+07:00", "Рейтинг": 2.6, "Количество отзывов": 3, "Телефон 1": "83842657830", "Телефон 2": null, "Телефон 3": null, "Веб-сайт 1": "http://kem-school50.ru", "Веб-сайт 2": null, "ВКонтакте": "https://vk.com/public181456971", "WhatsApp": null, "Viber": null, "Telegram 1": null, "Telegram 2": null, "YouTube": null, "Широта": 55.278079, "Долгота": 85.984188, "capacity": 715 }, "geometry": { "type": "MultiPoint", "coordinates": [ [ 85.984188, 55.278079 ] ] } },
{ "type": "Feature", "properties": { "fid": 77, "Наименование": "Средняя общеобразовательная школа №95", "Описание": null, "Рубрики": "Школы", "Адрес": "Котовского, 8", "Комментарий к адресу": null, "Почтовый индекс": 650070, "Микрорайон": null, "Район": "Заводский район", "Город": "Кемерово", "Округ": "Кемеровский городской округ", "Регион": "Кемеровская область — Кузбасс", "Страна": "Россия", "Часы работы": "Пн: 08:00-17:40; Вт: 08:00-17:40; Ср: 08:00-17:40; Чт: 08:00-17:40; Пт: 08:00-17:40; Сб: 08:00-14:00", "Часовой пояс": "+07:00", "Рейтинг": 3.0, "Количество отзывов": 28, "Телефон 1": "83842311005 (приемная)", "Телефон 2": null, "Телефон 3": null, "Веб-сайт 1": null, "Веб-сайт 2": null, "ВКонтакте": "https://vk.com/kemschool95", "WhatsApp": null, "Viber": null, "Telegram 1": null, "Telegram 2": null, "YouTube": null, "Широта": 55.334595, "Долгота": 86.126403, "capacity": 877 }, "geometry": { "type": "MultiPoint", "coordinates": [ [ 86.126403, 55.334595 ] ] } },
{ "type": "Feature", "properties": { "fid": 78, "Наименование": "Средняя общеобразовательная школа №97", "Описание": null, "Рубрики": "Школы", "Адрес": "Молодёжный проспект, 7Б", "Комментарий к адресу": null, "Почтовый индекс": 650070, "Микрорайон": "ФПК м-н", "Район": "Заводский район", "Город": "Кемерово", "Округ": "Кемеровский городской округ", "Регион": "Кемеровская область — Кузбасс", "Страна": "Россия", "Часы работы": "Пн: 08:00-18:30; Вт: 08:00-18:30; Ср: 08:00-18:30; Чт: 08:00-18:30; Пт: 08:00-18:30; Сб: 08:00-18:00", "Часовой пояс": "+07:00", "Рейтинг": 2.1, "Количество отзывов": 17, "Телефон 1": "83842318955 (приемная)", "Телефон 2": "83842317271", "Телефон 3": "83842568646", "Веб-сайт 1": "http://kemschool97.kuz-edu.ru", "Веб-сайт 2": null, "ВКонтакте": "https://vk.com/public212175962", "WhatsApp": null, "Viber": null, "Telegram 1": null, "Telegram 2": null, "YouTube": null, "Широта": 55.324995, "Долгота": 86.125312, "capacity": 805 }, "geometry": { "type": "MultiPoint", "coordinates": [ [ 86.125312, 55.324995 ] ] } },
{ "type": "Feature", "properties": { "fid": 79, "Наименование": "Средняя общеобразовательная школа №99", "Описание": null, "Рубрики": "Школы", "Адрес": "Молодёжный проспект, 20", "Комментарий к адресу": null, "Почтовый индекс": 650070, "Микрорайон": "ФПК м-н", "Район": "Заводский район", "Город": "Кемерово", "Округ": "Кемеровский городской округ", "Регион": "Кемеровская область — Кузбасс", "Страна": "Россия", "Часы работы": "Пн: 08:00-18:20; Вт: 08:00-18:20; Ср: 08:00-18:20; Чт: 08:00-18:20; Пт: 08:00-18:20; Сб: 08:00-17:05", "Часовой пояс": "+07:00", "Рейтинг": 2.9, "Количество отзывов": 16, "Телефон 1": "83842316424", "Телефон 2": "83842313711 (приемная)", "Телефон 3": "83842313631", "Веб-сайт 1": "http://kemschool99.kuz-edu.ru", "Веб-сайт 2": null, "ВКонтакте": "https://vk.com/school99kemerovo", "WhatsApp": null, "Viber": null, "Telegram 1": "https://t.me/school99kem", "Telegram 2": null, "YouTube": null, "Широта": 55.32509, "Долгота": 86.112246, "capacity": 1362 }, "geometry": { "type": "MultiPoint", "coordinates": [ [ 86.112246, 55.32509 ] ] } },
{ "type": "Feature", "properties": { "fid": 80, "Наименование": "Средняя общеобразовательная школа №97", "Описание": null, "Рубрики": "Школы; Аренда спортивных площадок", "Адрес": "Молодёжный проспект, 9Б", "Комментарий к адресу": null, "Почтовый индекс": 650070, "Микрорайон": "ФПК м-н", "Район": "Заводский район", "Город": "Кемерово", "Округ": "Кемеровский городской округ", "Регион": "Кемеровская область — Кузбасс", "Страна": "Россия", "Часы работы": "Пн: 08:30-17:00; Вт: 08:30-17:00; Ср: 08:30-17:00; Чт: 08:30-17:00; Пт: 08:30-17:00; Сб: 08:30-17:00", "Часовой пояс": "+07:00", "Рейтинг": 2.9, "Количество отзывов": 9, "Телефон 1": "83842568469", "Телефон 2": null, "Телефон 3": null, "Веб-сайт 1": "http://kemschool97.kuz-edu.ru", "Веб-сайт 2": null, "ВКонтакте": null, "WhatsApp": null, "Viber": null, "Telegram 1": null, "Telegram 2": null, "YouTube": null, "Широта": 55.324342, "Долгота": 86.123757, "capacity": 805 }, "geometry": { "type": "MultiPoint", "coordinates": [ [ 86.123757, 55.324342 ] ] } },
{ "type": "Feature", "properties": { "fid": 81, "Наименование": "Средняя общеобразовательная школа №32 им. В.А. Капитонова", "Описание": null, "Рубрики": "Школы", "Адрес": "Аральская 2-я, 2а", "Комментарий к адресу": null, "Почтовый индекс": 650907, "Микрорайон": "Пионер м-н", "Район": "Заводский район", "Город": "Кемерово", "Округ": "Кемеровский городской округ", "Регион": "Кемеровская область — Кузбасс", "Страна": "Россия", "Часы работы": "Пн: 08:00-19:00; Вт: 08:00-19:00; Ср: 08:00-19:00; Чт: 08:00-19:00; Пт: 08:00-19:00; Сб: 08:00-19:00", "Часовой пояс": "+07:00", "Рейтинг": 4.2, "Количество отзывов": 5, "Телефон 1": "83842572052 (приемная)", "Телефон 2": null, "Телефон 3": null, "Веб-сайт 1": null, "Веб-сайт 2": null, "ВКонтакте": "https://vk.com/public215956372", "WhatsApp": null, "Viber": null, "Telegram 1": null, "Telegram 2": null, "YouTube": null, "Широта": 55.320775, "Долгота": 85.940465, "capacity": 683 }, "geometry": { "type": "MultiPoint", "coordinates": [ [ 85.940465, 55.320775 ] ] } },
{ "type": "Feature", "properties": { "fid": 82, "Наименование": "Средняя общеобразовательная школа №78", "Описание": null, "Рубрики": "Школы; Аренда спортивных площадок", "Адрес": "улица Юрия Двужильного, 12в", "Комментарий к адресу": null, "Почтовый индекс": 650040, "Микрорайон": "Южный м-н", "Район": "Заводский район", "Город": "Кемерово", "Округ": "Кемеровский городской округ", "Регион": "Кемеровская область — Кузбасс", "Страна": "Россия", "Часы работы": "Пн: 08:00-20:00; Вт: 08:00-20:00; Ср: 08:00-20:00; Чт: 08:00-20:00; Пт: 08:00-20:00; Сб: 08:00-17:00", "Часовой пояс": "+07:00", "Рейтинг": 2.7, "Количество отзывов": 32, "Телефон 1": "83842772155", "Телефон 2": "83842772975", "Телефон 3": "83842772870", "Веб-сайт 1": "http://school78kem.ru", "Веб-сайт 2": "http://t.me/school78kemerovo", "ВКонтакте": "https://vk.com/public154965367", "WhatsApp": null, "Viber": null, "Telegram 1": null, "Telegram 2": null, "YouTube": null, "Широта": 55.313629, "Долгота": 86.09955, "capacity": 1754 }, "geometry": { "type": "MultiPoint", "coordinates": [ [ 86.09955, 55.313629 ] ] } },
{ "type": "Feature", "properties": { "fid": 83, "Наименование": "Средняя общеобразовательная школа №14", "Описание": null, "Рубрики": "Школы", "Адрес": "Дружбы, 7", "Комментарий к адресу": null, "Почтовый индекс": 650040, "Микрорайон": "Южный м-н", "Район": "Заводский район", "Город": "Кемерово", "Округ": "Кемеровский городской округ", "Регион": "Кемеровская область — Кузбасс", "Страна": "Россия", "Часы работы": "Пн: 08:00-19:30; Вт: 08:00-19:30; Ср: 08:00-19:30; Чт: 08:00-19:30; Пт: 08:00-19:30; Сб: 08:00-18:30", "Часовой пояс": "+07:00", "Рейтинг": 3.8, "Количество отзывов": 16, "Телефон 1": "83842385669", "Телефон 2": "83842385825 (приемная)", "Телефон 3": null, "Веб-сайт 1": null, "Веб-сайт 2": null, "ВКонтакте": "https://vk.com/media_14", "WhatsApp": null, "Viber": null, "Telegram 1": null, "Telegram 2": null, "YouTube": null, "Широта": 55.309567, "Долгота": 86.094102, "capacity": 1685 }, "geometry": { "type": "MultiPoint", "coordinates": [ [ 86.094102, 55.309567 ] ] } },
{ "type": "Feature", "properties": { "fid": 84, "Наименование": "Городской классический лицей", "Описание": null, "Рубрики": "Лицеи", "Адрес": "Мичурина, 19", "Комментарий к адресу": null, "Почтовый индекс": 650000, "Микрорайон": null, "Район": "Центральный район", "Город": "Кемерово", "Округ": "Кемеровский городской округ", "Регион": "Кемеровская область — Кузбасс", "Страна": "Россия", "Часы работы": "Пн: 08:30-15:55; Вт: 08:30-15:55; Ср: 08:30-15:55; Чт: 08:30-15:55; Пт: 08:30-15:55; Сб: 08:30-15:30", "Часовой пояс": "+07:00", "Рейтинг": 4.4, "Количество отзывов": 12, "Телефон 1": "83842580952 (приемная)", "Телефон 2": "89964140952", "Телефон 3": null, "Веб-сайт 1": null, "Веб-сайт 2": null, "ВКонтакте": "https://vk.com/gkl.kemerovo", "WhatsApp": "https://wa.me/79964140952", "Viber": null, "Telegram 1": null, "Telegram 2": null, "YouTube": null, "Широта": 55.348627, "Долгота": 86.091721, "capacity": 505 }, "geometry": { "type": "MultiPoint", "coordinates": [ [ 86.091721, 55.348627 ] ] } },
{ "type": "Feature", "properties": { "fid": 85, "Наименование": "Лицей №62", "Описание": null, "Рубрики": "Лицеи", "Адрес": "улица Весенняя, 17", "Комментарий к адресу": null, "Почтовый индекс": 650000, "Микрорайон": null, "Район": "Центральный район", "Город": "Кемерово", "Округ": "Кемеровский городской округ", "Регион": "Кемеровская область — Кузбасс", "Страна": "Россия", "Часы работы": "Пн: 08:00-19:20; Вт: 08:00-19:20; Ср: 08:00-19:20; Чт: 08:00-19:20; Пт: 08:00-19:20; Сб: 08:00-17:35", "Часовой пояс": "+07:00", "Рейтинг": 3.1, "Количество отзывов": 18, "Телефон 1": "83842754477", "Телефон 2": "83842755476", "Телефон 3": "83842754455 (приемная)", "Веб-сайт 1": null, "Веб-сайт 2": null, "ВКонтакте": "https://vk.com/lycee62", "WhatsApp": null, "Viber": null, "Telegram 1": null, "Telegram 2": null, "YouTube": null, "Широта": 55.352761, "Долгота": 86.078965, "capacity": 642 }, "geometry": { "type": "MultiPoint", "coordinates": [ [ 86.078965, 55.352761 ] ] } },
{ "type": "Feature", "properties": { "fid": 86, "Наименование": "Лицей №89", "Описание": null, "Рубрики": "Лицеи", "Адрес": "Юрия Смирнова, 18а", "Комментарий к адресу": null, "Почтовый индекс": 650002, "Микрорайон": "Радуга м-н", "Район": "Рудничный район", "Город": "Кемерово", "Округ": "Кемеровский городской округ", "Регион": "Кемеровская область — Кузбасс", "Страна": "Россия", "Часы работы": "Пн: 08:00-20:00; Вт: 08:00-20:00; Ср: 08:00-20:00; Чт: 08:00-20:00; Пт: 08:00-20:00; Сб: 08:00-20:00", "Часовой пояс": "+07:00", "Рейтинг": 2.5, "Количество отзывов": 12, "Телефон 1": "83842645440", "Телефон 2": "83842642988 (отдел бухгалтерии)", "Телефон 3": "83842642425 (отдел библиотеки)", "Веб-сайт 1": null, "Веб-сайт 2": null, "ВКонтакте": "https://vk.com/club749744", "WhatsApp": null, "Viber": null, "Telegram 1": null, "Telegram 2": null, "YouTube": null, "Широта": 55.39116, "Долгота": 86.105823, "capacity": 1601 }, "geometry": { "type": "MultiPoint", "coordinates": [ [ 86.105823, 55.39116 ] ] } },
{ "type": "Feature", "properties": { "fid": 87, "Наименование": "Лицей №23", "Описание": null, "Рубрики": "Лицеи", "Адрес": "Ворошилова, 10Б", "Комментарий к адресу": null, "Почтовый индекс": 650056, "Микрорайон": null, "Район": "Ленинский район", "Город": "Кемерово", "Округ": "Кемеровский городской округ", "Регион": "Кемеровская область — Кузбасс", "Страна": "Россия", "Часы работы": "Пн: 08:30-17:00; Вт: 08:30-17:00; Ср: 08:30-17:00; Чт: 08:30-17:00; Пт: 08:30-17:00; Сб: 08:30-17:00", "Часовой пояс": "+07:00", "Рейтинг": 3.6, "Количество отзывов": 12, "Телефон 1": "83842514777", "Телефон 2": null, "Телефон 3": null, "Веб-сайт 1": null, "Веб-сайт 2": null, "ВКонтакте": "https://vk.com/licey23.kemerovo", "WhatsApp": null, "Viber": null, "Telegram 1": null, "Telegram 2": null, "YouTube": null, "Широта": 55.344594, "Долгота": 86.160187, "capacity": 657 }, "geometry": { "type": "MultiPoint", "coordinates": [ [ 86.160187, 55.344594 ] ] } },
{ "type": "Feature", "properties": { "fid": 88, "Наименование": "Лицей №17", "Описание": null, "Рубрики": "Лицеи", "Адрес": "улица 8 Марта, 14", "Комментарий к адресу": null, "Почтовый индекс": 652420, "Микрорайон": null, "Район": null, "Город": "Березовский", "Округ": "Березовский городской округ", "Регион": "Кемеровская область — Кузбасс", "Страна": "Россия", "Часы работы": "Пн: 08:00-19:00; Вт: 08:00-19:00; Ср: 08:00-19:00; Чт: 08:00-19:00; Пт: 08:00-19:00; Сб: 08:00-19:00", "Часовой пояс": "+07:00", "Рейтинг": 3.4, "Количество отзывов": 3, "Телефон 1": "83844531470", "Телефон 2": null, "Телефон 3": null, "Веб-сайт 1": null, "Веб-сайт 2": null, "ВКонтакте": "https://vk.com/17lizey", "WhatsApp": null, "Viber": null, "Telegram 1": null, "Telegram 2": null, "YouTube": null, "Широта": 55.669877, "Долгота": 86.279184, "capacity": 1040 }, "geometry": { "type": "MultiPoint", "coordinates": [ [ 86.279184, 55.669877 ] ] } },
{ "type": "Feature", "properties": { "fid": 89, "Наименование": "Лицей №15", "Описание": null, "Рубрики": "Лицеи", "Адрес": "проспект Ленина, 66", "Комментарий к адресу": null, "Почтовый индекс": 652420, "Микрорайон": null, "Район": null, "Город": "Березовский", "Округ": "Березовский городской округ", "Регион": "Кемеровская область — Кузбасс", "Страна": "Россия", "Часы работы": "Пн: 07:00-20:00; Вт: 07:00-20:00; Ср: 07:00-20:00; Чт: 07:00-20:00; Пт: 07:00-20:00; Сб: 07:00-20:00", "Часовой пояс": "+07:00", "Рейтинг": null, "Количество отзывов": null, "Телефон 1": "83844534740", "Телефон 2": null, "Телефон 3": null, "Веб-сайт 1": null, "Веб-сайт 2": null, "ВКонтакте": "https://vk.com/club215830115", "WhatsApp": null, "Viber": null, "Telegram 1": null, "Telegram 2": null, "YouTube": null, "Широта": 55.673187, "Долгота": 86.272876, "capacity": 708 }, "geometry": { "type": "MultiPoint", "coordinates": [ [ 86.272876, 55.673187 ] ] } }
]
}
