{
"type": "FeatureCollection",
"name": "substation",
"crs": { "type": "name", "properties": { "name": "urn:ogc:def:crs:OGC:1.3:CRS84" } },
"features": [
{ "type": "Feature", "properties": { "id": "0" }, "geometry": { "type": "Point", "coordinates": [ 86.060822300000012, 55.32862380000001 ] } },
{ "type": "Feature", "properties": { "id": "1" }, "geometry": { "type": "Point", "coordinates": [ 86.011912335142256, 55.357686166530868 ] } },
{ "type": "Feature", "properties": { "id": "2" }, "geometry": { "type": "Point", "coordinates": [ 86.05121169211607, 55.359736717067783 ] } },
{ "type": "Feature", "properties": { "id": "3" }, "geometry": { "type": "Point", "coordinates": [ 86.105225600000011, 55.32272775 ] } },
{ "type": "Feature", "properties": { "id": "4" }, "geometry": { "type": "Point", "coordinates": [ 86.168295052127604, 55.316452376366485 ] } },
{ "type": "Feature", "properties": { "id": "5" }, "geometry": { "type": "Point", "coordinates": [ 86.023561819289569, 55.410537244364022 ] } },
{ "type": "Feature", "properties": { "id": "6" }, "geometry": { "type": "Point", "coordinates": [ 86.069770667686328, 55.413438911088832 ] } },
{ "type": "Feature", "properties": { "id": "7" }, "geometry": { "type": "Point", "coordinates": [ 86.19552200780106, 55.34354161434716 ] } },
{ "type": "Feature", "properties": { "id": "8" }, "geometry": { "type": "Point", "coordinates": [ 86.023355038652312, 55.310361140115631 ] } },
{ "type": "Feature", "properties": { "id": "9" }, "geometry": { "type": "Point", "coordinates": [ 86.032617057299205, 55.36150602481186 ] } },
{ "type": "Feature", "properties": { "id": "10" }, "geometry": { "type": "Point", "coordinates": [ 86.039267317023047, 55.359789232483934 ] } },
{ "type": "Feature", "properties": { "id": "11" }, "geometry": { "type": "Point", "coordinates": [ 86.133643699756163, 55.414547086470911 ] } },
{ "type": "Feature", "properties": { "id": "12" }, "geometry": { "type": "Point", "coordinates": [ 86.18482845, 55.4426584 ] } },
{ "type": "Feature", "properties": { "id": "13" }, "geometry": { "type": "Point", "coordinates": [ 86.16366955, 55.3586053 ] } },
{ "type": "Feature", "properties": { "id": "14" }, "geometry": { "type": "Point", "coordinates": [ 85.992009198290802, 55.297977864901007 ] } },
{ "type": "Feature", "properties": { "id": "15" }, "geometry": { "type": "Point", "coordinates": [ 85.954100392305264, 55.342992502822362 ] } },
{ "type": "Feature", "properties": { "id": "16" }, "geometry": { "type": "Point", "coordinates": [ 85.954676830928136, 55.319561505615482 ] } },
{ "type": "Feature", "properties": { "id": "17" }, "geometry": { "type": "Point", "coordinates": [ 85.974187639759592, 55.328427174544245 ] } },
{ "type": "Feature", "properties": { "id": "18" }, "geometry": { "type": "Point", "coordinates": [ 85.961039695303654, 55.288988373875434 ] } },
{ "type": "Feature", "properties": { "id": "19" }, "geometry": { "type": "Point", "coordinates": [ 85.9892567, 55.2929338 ] } },
{ "type": "Feature", "properties": { "id": "20" }, "geometry": { "type": "Point", "coordinates": [ 85.972299444426866, 55.316906766289598 ] } },
{ "type": "Feature", "properties": { "id": "21" }, "geometry": { "type": "Point", "coordinates": [ 85.94845551075251, 55.337619421303614 ] } },
{ "type": "Feature", "properties": { "id": "22" }, "geometry": { "type": "Point", "coordinates": [ 86.050841572852093, 55.401259623048567 ] } },
{ "type": "Feature", "properties": { "id": "23" }, "geometry": { "type": "Point", "coordinates": [ 85.966331625185035, 55.359143145223712 ] } },
{ "type": "Feature", "properties": { "id": "24" }, "geometry": { "type": "Point", "coordinates": [ 85.976980408900843, 55.369288067121801 ] } },
{ "type": "Feature", "properties": { "id": "25" }, "geometry": { "type": "Point", "coordinates": [ 86.103086425896421, 55.422472414615356 ] } },
{ "type": "Feature", "properties": { "id": "26" }, "geometry": { "type": "Point", "coordinates": [ 86.137297841159679, 55.332889070562892 ] } },
{ "type": "Feature", "properties": { "id": "27" }, "geometry": { "type": "Point", "coordinates": [ 86.136980433985087, 55.326790017764722 ] } },
{ "type": "Feature", "properties": { "id": "28" }, "geometry": { "type": "Point", "coordinates": [ 86.179916098938008, 55.322761807897813 ] } },
{ "type": "Feature", "properties": { "id": "29" }, "geometry": { "type": "Point", "coordinates": [ 86.101824, 55.5320192 ] } },
{ "type": "Feature", "properties": { "id": "30" }, "geometry": { "type": "Point", "coordinates": [ 86.04011685, 55.38300005 ] } },
{ "type": "Feature", "properties": { "id": "31" }, "geometry": { "type": "Point", "coordinates": [ 85.976540448492088, 55.348014700439933 ] } },
{ "type": "Feature", "properties": { "id": "32" }, "geometry": { "type": "Point", "coordinates": [ 86.002724606925241, 55.357058875133575 ] } },
{ "type": "Feature", "properties": { "id": "33" }, "geometry": { "type": "Point", "coordinates": [ 85.97318635, 55.4210953 ] } },
{ "type": "Feature", "properties": { "id": "34" }, "geometry": { "type": "Point", "coordinates": [ 85.988089516729147, 55.399765100608924 ] } },
{ "type": "Feature", "properties": { "id": "35" }, "geometry": { "type": "Point", "coordinates": [ 86.056743068694416, 55.361080501657128 ] } },
{ "type": "Feature", "properties": { "id": "36" }, "geometry": { "type": "Point", "coordinates": [ 86.139336945704429, 55.359848475514966 ] } },
{ "type": "Feature", "properties": { "id": "37" }, "geometry": { "type": "Point", "coordinates": [ 85.99158441041827, 55.349760822354725 ] } },
{ "type": "Feature", "properties": { "id": "38" }, "geometry": { "type": "Point", "coordinates": [ 85.995244539436811, 55.349728173771496 ] } },
{ "type": "Feature", "properties": { "id": "39" }, "geometry": { "type": "Point", "coordinates": [ 86.0629765, 55.33212305 ] } },
{ "type": "Feature", "properties": { "id": "40" }, "geometry": { "type": "Point", "coordinates": [ 86.07051685, 55.3656729 ] } },
{ "type": "Feature", "properties": { "id": "41" }, "geometry": { "type": "Point", "coordinates": [ 86.066941283234073, 55.365344335515566 ] } },
{ "type": "Feature", "properties": { "id": "42" }, "geometry": { "type": "Point", "coordinates": [ 86.073972375643208, 55.395219209092168 ] } },
{ "type": "Feature", "properties": { "id": "43" }, "geometry": { "type": "Point", "coordinates": [ 85.988475758609823, 55.400332708263925 ] } },
{ "type": "Feature", "properties": { "id": "44" }, "geometry": { "type": "Point", "coordinates": [ 86.163047682393625, 55.529553520923407 ] } },
{ "type": "Feature", "properties": { "id": "45" }, "geometry": { "type": "Point", "coordinates": [ 86.143585925120931, 55.355871491289875 ] } },
{ "type": "Feature", "properties": { "id": "46" }, "geometry": { "type": "Point", "coordinates": [ 86.14469805, 55.3560843 ] } },
{ "type": "Feature", "properties": { "id": "47" }, "geometry": { "type": "Point", "coordinates": [ 86.14624185000001, 55.356109849999989 ] } }
]
}
