{
"type": "FeatureCollection",
"name": "swimming_pool",
"crs": { "type": "name", "properties": { "name": "urn:ogc:def:crs:OGC:1.3:CRS84" } },
"features": [
{ "type": "Feature", "properties": { "Наименование": "Школа плавания Дарьи Морозовой", "Описание": null, "Рубрики": "Бассейны", "Адрес": "проспект Шахтёров, 8", "Комментарий к адресу": null, "Почтовый индекс": 650044, "Микрорайон": null, "Район": "Рудничный район", "Город": "Кемерово", "Округ": "Кемеровский городской округ", "Регион": "Кемеровская область — Кузбасс", "Страна": "Россия", "Часы работы": "Пн: 08:30-20:30; Вт: 08:30-20:30; Ср: 08:30-20:30; Чт: 08:30-20:30; Пт: 08:30-20:30; Сб: 08:30-16:00; Вс: 10:00-16:00", "Часовой пояс": "+07:00", "Рейтинг": 4.7, "Количество отзывов": 110, "Телефон 1": "89000509996 (администратор)", "Телефон 2": null, "Телефон 3": null, "E-mail": "waterschooldm@yandex.ru", "Веб-сайт 1": "http://t.me/morozova_swimschool", "Веб-сайт 2": "http://swimschooldm.ru/", "ВКонтакте": "https://vk.com/morozovaswimschool", "WhatsApp 1": "https://wa.me/79000509996", "WhatsApp 2": null, "Viber": null, "Telegram": null, "YouTube": null, "Широта": 55.384504, "Долгота": 86.09309, "2GIS URL": "https://2gis.com/firm/70000001050770510" }, "geometry": { "type": "Point", "coordinates": [ 86.09309, 55.384504 ] } },
{ "type": "Feature", "properties": { "Наименование": "Олимп", "Описание": "спортивно-оздоровительный комплекс", "Рубрики": "Бассейны; Бани / Сауны; Фитнес-клубы; Спортивные секции; Соляные комнаты", "Адрес": "улица Греческая деревня, 157а", "Комментарий к адресу": null, "Почтовый индекс": 650903, "Микрорайон": "Кедровка м-н", "Район": "Рудничный район", "Город": "Кемерово", "Округ": "Кемеровский городской округ", "Регион": "Кемеровская область — Кузбасс", "Страна": "Россия", "Часы работы": "Пн: 08:00-22:30; Вт: 08:00-22:30; Ср: 08:00-22:30; Чт: 08:00-22:30; Пт: 08:00-22:30; Сб: 08:00-22:30; Вс: 08:00-22:30", "Часовой пояс": "+07:00", "Рейтинг": 4.1, "Количество отзывов": 62, "Телефон 1": "83842691348 (единый номер - пн-вс 8:00-22:30 )", "Телефон 2": null, "Телефон 3": null, "E-mail": null, "Веб-сайт 1": "http://olimp-kedrovka.ru", "Веб-сайт 2": null, "ВКонтакте": null, "WhatsApp 1": null, "WhatsApp 2": null, "Viber": null, "Telegram": null, "YouTube": null, "Широта": 55.507516, "Долгота": 86.114377, "2GIS URL": "https://2gis.com/firm/704215722776776" }, "geometry": { "type": "Point", "coordinates": [ 86.114377, 55.507516 ] } },
{ "type": "Feature", "properties": { "Наименование": "Северный", "Описание": "спортивный комплекс", "Рубрики": "Бассейны; Тренажёрные залы; Спортивные секции; Фитнес-клубы; Бани / Сауны", "Адрес": "Нахимова, 248", "Комментарий к адресу": null, "Почтовый индекс": 650014, "Микрорайон": "Шахта Северная пос.", "Район": "Рудничный район", "Город": "Кемерово", "Округ": "Кемеровский городской округ", "Регион": "Кемеровская область — Кузбасс", "Страна": "Россия", "Часы работы": "Пн: 08:00-22:00; Вт: 08:00-22:00; Ср: 08:00-22:00; Чт: 08:00-22:00; Пт: 08:00-22:00; Сб: 08:00-22:00; Вс: 08:00-22:00", "Часовой пояс": "+07:00", "Рейтинг": 3.8, "Количество отзывов": 10, "Телефон 1": "89832188557", "Телефон 2": "83842650360", "Телефон 3": null, "E-mail": null, "Веб-сайт 1": "http://olimp-kedrovka.ru", "Веб-сайт 2": null, "ВКонтакте": null, "WhatsApp 1": null, "WhatsApp 2": null, "Viber": null, "Telegram": null, "YouTube": null, "Широта": 55.419748, "Долгота": 86.121459, "2GIS URL": "https://2gis.com/firm/70000001019254549" }, "geometry": { "type": "Point", "coordinates": [ 86.121459, 55.419748 ] } },
{ "type": "Feature", "properties": { "Наименование": "Бассейн на Красном", "Описание": null, "Рубрики": "Бассейны", "Адрес": "Ленинградский проспект, 1а к3", "Комментарий к адресу": null, "Почтовый индекс": 650065, "Микрорайон": null, "Район": "Ленинский район", "Город": "Кемерово", "Округ": "Кемеровский городской округ", "Регион": "Кемеровская область — Кузбасс", "Страна": "Россия", "Часы работы": "Пн: 09:00-21:00; Вт: 09:00-21:00; Ср: 09:00-21:00; Чт: 09:00-21:00; Пт: 09:00-21:00; Сб: 09:00-21:00; Вс: 09:00-21:00", "Часовой пояс": "+07:00", "Рейтинг": 3.7, "Количество отзывов": 90, "Телефон 1": "89235073070", "Телефон 2": null, "Телефон 3": null, "E-mail": null, "Веб-сайт 1": "http://poolonred.ru", "Веб-сайт 2": null, "ВКонтакте": "https://vk.com/poolonred", "WhatsApp 1": null, "WhatsApp 2": null, "Viber": null, "Telegram": "https://t.me/basseinnakrasnom", "YouTube": null, "Широта": 55.364706, "Долгота": 86.158396, "2GIS URL": "https://2gis.com/firm/70000001075485518" }, "geometry": { "type": "Point", "coordinates": [ 86.158396, 55.364706 ] } },
{ "type": "Feature", "properties": { "Наименование": "Лягушонок", "Описание": "академия детского плавания", "Рубрики": "Бассейны; Спортивные секции", "Адрес": "Серебряный Бор, 11Б", "Комментарий к адресу": "1 этаж", "Почтовый индекс": 650061, "Микрорайон": "Серебряный бор на Радуге жилой комплекс", "Район": "Рудничный район", "Город": "Кемерово", "Округ": "Кемеровский городской округ", "Регион": "Кемеровская область — Кузбасс", "Страна": "Россия", "Часы работы": "Пн: 09:00-21:00; Вт: 09:00-21:00; Ср: 09:00-21:00; Чт: 09:00-21:00; Пт: 09:00-21:00; Сб: 09:00-21:00; Вс: 09:00-21:00 (по предварительной записи: пн-вс)", "Часовой пояс": "+07:00", "Рейтинг": 5.0, "Количество отзывов": 16, "Телефон 1": "89235085045 (единый номер: пн-вс 9:00-22:00)", "Телефон 2": null, "Телефон 3": null, "E-mail": null, "Веб-сайт 1": "http://70000001029879569.2gis.biz/", "Веб-сайт 2": null, "ВКонтакте": "https://vk.com/littlefrog42", "WhatsApp 1": "https://wa.me/79235085045", "WhatsApp 2": null, "Viber": null, "Telegram": "https://t.me/+79235085045", "YouTube": null, "Широта": 55.404609, "Долгота": 86.127684, "2GIS URL": "https://2gis.com/firm/70000001035434282" }, "geometry": { "type": "Point", "coordinates": [ 86.127684, 55.404609 ] } },
{ "type": "Feature", "properties": { "Наименование": "Гимназия №42", "Описание": "спортивно-оздоровительный комплекс", "Рубрики": "Бассейны; Тренажёрные залы; Тонизирующие салоны; Соляные комнаты; Спортивные секции", "Адрес": "Щегловская, 2", "Комментарий к адресу": "1 этаж; Гимназия №42", "Почтовый индекс": 650071, "Микрорайон": "Лесная Поляна м-н", "Район": "Рудничный район", "Город": "Кемерово", "Округ": "Кемеровский городской округ", "Регион": "Кемеровская область — Кузбасс", "Страна": "Россия", "Часы работы": "Пн: 16:00-22:00; Вт: 16:00-22:00; Ср: 16:00-22:00; Чт: 16:00-22:00; Пт: 16:00-22:00; Сб: 14:00-22:00; Вс: 10:00-22:00", "Часовой пояс": "+07:00", "Рейтинг": 3.6, "Количество отзывов": 20, "Телефон 1": "83842492223", "Телефон 2": "83842492203", "Телефон 3": null, "E-mail": null, "Веб-сайт 1": "http://гимназия42.рф", "Веб-сайт 2": null, "ВКонтакте": "https://vk.com/soksok42", "WhatsApp 1": null, "WhatsApp 2": null, "Viber": null, "Telegram": null, "YouTube": null, "Широта": 55.414272, "Долгота": 86.235027, "2GIS URL": "https://2gis.com/firm/704215723058561" }, "geometry": { "type": "Point", "coordinates": [ 86.235027, 55.414272 ] } },
{ "type": "Feature", "properties": { "Наименование": "Дар", "Описание": "детский бассейн", "Рубрики": "Бассейны; Спортивные секции", "Адрес": "Тульская, 28", "Комментарий к адресу": "1 этаж", "Почтовый индекс": 650002, "Микрорайон": "Радуга м-н", "Район": "Рудничный район", "Город": "Кемерово", "Округ": "Кемеровский городской округ", "Регион": "Кемеровская область — Кузбасс", "Страна": "Россия", "Часы работы": "Пн: 07:00-23:00; Вт: 07:00-23:00; Ср: 07:00-23:00; Чт: 07:00-23:00; Пт: 07:00-23:00; Сб: 07:00-23:00; Вс: 07:00-23:00 (по предварительной записи)", "Часовой пояс": "+07:00", "Рейтинг": 4.7, "Количество отзывов": 53, "Телефон 1": "89505810129", "Телефон 2": null, "Телефон 3": null, "E-mail": null, "Веб-сайт 1": null, "Веб-сайт 2": null, "ВКонтакте": "https://vk.com/dar_kemerovo", "WhatsApp 1": "https://wa.me/79505810129", "WhatsApp 2": null, "Viber": null, "Telegram": "https://t.me/analitichka", "YouTube": null, "Широта": 55.393166, "Долгота": 86.102139, "2GIS URL": "https://2gis.com/firm/70000001024117240" }, "geometry": { "type": "Point", "coordinates": [ 86.102139, 55.393166 ] } },
{ "type": "Feature", "properties": { "Наименование": "Кировец", "Описание": "спортивный комплекс", "Рубрики": "Бассейны; Фитнес-клубы; Тренажёрные залы; Тонизирующие салоны", "Адрес": "Ушакова, 2", "Комментарий к адресу": null, "Почтовый индекс": 650001, "Микрорайон": null, "Район": "Кировский район", "Город": "Кемерово", "Округ": "Кемеровский городской округ", "Регион": "Кемеровская область — Кузбасс", "Страна": "Россия", "Часы работы": "Пн: 08:00-22:00; Вт: 08:00-22:00; Ср: 08:00-22:00; Чт: 08:00-22:00; Пт: 08:00-22:00; Сб: 08:00-22:00; Вс: 08:00-22:00", "Часовой пояс": "+07:00", "Рейтинг": 3.9, "Количество отзывов": 87, "Телефон 1": "83842452469 (администратор)", "Телефон 2": "83842657266", "Телефон 3": "83842452436", "E-mail": null, "Веб-сайт 1": "http://kemdussh5.ru", "Веб-сайт 2": null, "ВКонтакте": null, "WhatsApp 1": null, "WhatsApp 2": null, "Viber": null, "Telegram": null, "YouTube": null, "Широта": 55.387742, "Долгота": 86.007757, "2GIS URL": "https://2gis.com/firm/704215722759733" }, "geometry": { "type": "Point", "coordinates": [ 86.007757, 55.387742 ] } },
{ "type": "Feature", "properties": { "Наименование": "Малибу", "Описание": "фитнес-клуб", "Рубрики": "Бассейны; Тренажёрные залы; Фитнес-клубы; Центры йоги; Обучение танцам", "Адрес": "Октябрьский проспект, 65", "Комментарий к адресу": null, "Почтовый индекс": 650023, "Микрорайон": null, "Район": "Центральный район", "Город": "Кемерово", "Округ": "Кемеровский городской округ", "Регион": "Кемеровская область — Кузбасс", "Страна": "Россия", "Часы работы": "Пн: 08:00-23:00; Вт: 08:00-23:00; Ср: 08:00-23:00; Чт: 08:00-23:00; Пт: 08:00-23:00; Сб: 09:00-21:00; Вс: 09:00-21:00", "Часовой пояс": "+07:00", "Рейтинг": 4.4, "Количество отзывов": 111, "Телефон 1": "83842633063 (многоканальный)", "Телефон 2": null, "Телефон 3": null, "E-mail": null, "Веб-сайт 1": "http://www.малибу42.рф", "Веб-сайт 2": null, "ВКонтакте": "https://vk.com/malibu42", "WhatsApp 1": "https://wa.me/79609228870", "WhatsApp 2": null, "Viber": null, "Telegram": null, "YouTube": null, "Широта": 55.348463, "Долгота": 86.146603, "2GIS URL": "https://2gis.com/firm/704215722755911" }, "geometry": { "type": "Point", "coordinates": [ 86.146603, 55.348463 ] } },
{ "type": "Feature", "properties": { "Наименование": "I love supersport", "Описание": "школа спорта для взрослых", "Рубрики": "Бассейны; Спортивные секции; Фитнес-клубы; Тренажёрные залы; Спортивно-интеллектуальные клубы", "Адрес": "бульвар Строителей, 53", "Комментарий к адресу": "1 этаж", "Почтовый индекс": 650056, "Микрорайон": null, "Район": "Ленинский район", "Город": "Кемерово", "Округ": "Кемеровский городской округ", "Регион": "Кемеровская область — Кузбасс", "Страна": "Россия", "Часы работы": "Пн: 00:00-24:00; Вт: 00:00-24:00; Ср: 00:00-24:00; Чт: 00:00-24:00; Пт: 00:00-24:00; Сб: 00:00-24:00; Вс: 00:00-24:00", "Часовой пояс": "+07:00", "Рейтинг": 5.0, "Количество отзывов": 6, "Телефон 1": "89960382451", "Телефон 2": null, "Телефон 3": null, "E-mail": null, "Веб-сайт 1": "http://kmr.ilovesupersport.com", "Веб-сайт 2": null, "ВКонтакте": "https://vk.com/ilovesupersport_kmr", "WhatsApp 1": "https://wa.me/79960382451", "WhatsApp 2": null, "Viber": null, "Telegram": "https://t.me/ilovesupersport_kmr", "YouTube": "https://youtube.com/channel/UCgWLV_7dVxvpQG2dIoP8Ugg", "Широта": 55.334058, "Долгота": 86.173956, "2GIS URL": "https://2gis.com/firm/70000001033103799" }, "geometry": { "type": "Point", "coordinates": [ 86.173956, 55.334058 ] } },
{ "type": "Feature", "properties": { "Наименование": "Сибирь", "Описание": "бассейн", "Рубрики": "Бассейны", "Адрес": "бульвар Строителей, 47/1", "Комментарий к адресу": "1-2 этаж", "Почтовый индекс": 650056, "Микрорайон": null, "Район": "Ленинский район", "Город": "Кемерово", "Округ": "Кемеровский городской округ", "Регион": "Кемеровская область — Кузбасс", "Страна": "Россия", "Часы работы": "Пн: 07:00-23:00; Вт: 07:00-23:00; Ср: 07:00-23:00; Чт: 07:00-23:00; Пт: 07:00-23:00; Сб: 07:00-23:00; Вс: 07:00-23:00 (по предварительной записи)", "Часовой пояс": "+07:00", "Рейтинг": 3.6, "Количество отзывов": 218, "Телефон 1": "83842773147 (администратор)", "Телефон 2": null, "Телефон 3": null, "E-mail": null, "Веб-сайт 1": "http://kemsu.ru/life/pool/", "Веб-сайт 2": null, "ВКонтакте": "https://vk.com/pool_kemsu", "WhatsApp 1": null, "WhatsApp 2": null, "Viber": null, "Telegram": null, "YouTube": null, "Широта": 55.335973, "Долгота": 86.169106, "2GIS URL": "https://2gis.com/firm/70000001020849383" }, "geometry": { "type": "Point", "coordinates": [ 86.169106, 55.335973 ] } },
{ "type": "Feature", "properties": { "Наименование": "Папайя", "Описание": "детский центр", "Рубрики": "Бассейны", "Адрес": "проспект Химиков, 10а", "Комментарий к адресу": null, "Почтовый индекс": 650056, "Микрорайон": null, "Район": "Ленинский район", "Город": "Кемерово", "Округ": "Кемеровский городской округ", "Регион": "Кемеровская область — Кузбасс", "Страна": "Россия", "Часы работы": "Пн: 12:00-20:00; Вт: 12:00-20:00; Ср: 12:00-20:00; Чт: 12:00-20:00; Пт: 12:00-20:00; Сб: 09:00-15:00 (по предварительной записи)", "Часовой пояс": "+07:00", "Рейтинг": 3.9, "Количество отзывов": 36, "Телефон 1": "89235011555", "Телефон 2": null, "Телефон 3": null, "E-mail": null, "Веб-сайт 1": null, "Веб-сайт 2": null, "ВКонтакте": "https://vk.com/clubpapayay", "WhatsApp 1": "https://wa.me/79235011555", "WhatsApp 2": null, "Viber": null, "Telegram": null, "YouTube": null, "Широта": 55.338975, "Долгота": 86.1574, "2GIS URL": "https://2gis.com/firm/70000001024107038" }, "geometry": { "type": "Point", "coordinates": [ 86.1574, 55.338975 ] } },
{ "type": "Feature", "properties": { "Наименование": "Simply swim", "Описание": "детский бассейн", "Рубрики": "Бассейны; Спортивные секции; Аренда спортивных площадок; Аквааэробика", "Адрес": "Ленинградский проспект, 28/1", "Комментарий к адресу": "1 этаж", "Почтовый индекс": 650060, "Микрорайон": null, "Район": "Ленинский район", "Город": "Кемерово", "Округ": "Кемеровский городской округ", "Регион": "Кемеровская область — Кузбасс", "Страна": "Россия", "Часы работы": "Пн: 09:00-21:00; Вт: 09:00-21:00; Ср: 09:00-21:00; Чт: 09:00-21:00; Пт: 09:00-21:00; Сб: 09:00-21:00; Вс: 09:00-21:00 (по предварительной записи: пн-сб)", "Часовой пояс": "+07:00", "Рейтинг": 4.3, "Количество отзывов": 88, "Телефон 1": "89234613322", "Телефон 2": null, "Телефон 3": null, "E-mail": null, "Веб-сайт 1": "http://mitrenkomaria.wixsite.com/simplyswim", "Веб-сайт 2": null, "ВКонтакте": "https://vk.com/simplyswim", "WhatsApp 1": "https://wa.me/79617083322", "WhatsApp 2": null, "Viber": "viber://chat/?number=79617083322", "Telegram": "https://t.me/+79617083322", "YouTube": null, "Широта": 55.34672, "Долгота": 86.178302, "2GIS URL": "https://2gis.com/firm/70000001035840535" }, "geometry": { "type": "Point", "coordinates": [ 86.178302, 55.34672 ] } },
{ "type": "Feature", "properties": { "Наименование": "Лазурный", "Описание": "универсальный спортивный комплекс", "Рубрики": "Бассейны; Тренажёрные залы; Фитнес-клубы; Спортивные секции", "Адрес": "Советский проспект, 70", "Комментарий к адресу": null, "Почтовый индекс": 650000, "Микрорайон": null, "Район": "Центральный район", "Город": "Кемерово", "Округ": "Кемеровский городской округ", "Регион": "Кемеровская область — Кузбасс", "Страна": "Россия", "Часы работы": "Пн: 07:00-23:00; Вт: 07:00-23:00; Ср: 07:00-23:00; Чт: 07:00-23:00; Пт: 07:00-23:00; Сб: 08:00-22:00; Вс: 08:00-22:00", "Часовой пояс": "+07:00", "Рейтинг": 4.1, "Количество отзывов": 346, "Телефон 1": "83842366242 (единая справочная: пн-пт 7:00-23:00; сб-вс 8:00-22:00)", "Телефон 2": null, "Телефон 3": null, "E-mail": "info@lazurniy.com", "Веб-сайт 1": "http://t.me/lazurniycom", "Веб-сайт 2": null, "ВКонтакте": "https://vk.com/lazurniy_com", "WhatsApp 1": null, "WhatsApp 2": null, "Viber": null, "Telegram": null, "YouTube": null, "Широта": 55.351771, "Долгота": 86.096197, "2GIS URL": "https://2gis.com/firm/70000001056307387" }, "geometry": { "type": "Point", "coordinates": [ 86.096197, 55.351771 ] } },
{ "type": "Feature", "properties": { "Наименование": "Кузбасс-Арена", "Описание": "многофункциональный спортивный комплекс", "Рубрики": "Бассейны; Тренажёрные залы; Спортивные секции; Аэродинамические комплексы; Аквааэробика", "Адрес": "Притомский проспект, 10", "Комментарий к адресу": null, "Почтовый индекс": 650066, "Микрорайон": null, "Район": "Центральный район", "Город": "Кемерово", "Округ": "Кемеровский городской округ", "Регион": "Кемеровская область — Кузбасс", "Страна": "Россия", "Часы работы": "Пн: 07:00-23:00; Вт: 07:00-23:00; Ср: 07:00-23:00; Чт: 07:00-23:00; Пт: 07:00-23:00; Сб: 07:00-23:00; Вс: 07:00-23:00", "Часовой пояс": "+07:00", "Рейтинг": 3.6, "Количество отзывов": 149, "Телефон 1": "83842772007", "Телефон 2": "772010", "Телефон 3": "89234737043", "E-mail": null, "Веб-сайт 1": "http://kuzbass-arena42.ru", "Веб-сайт 2": null, "ВКонтакте": "https://vk.com/kuzbassarena", "WhatsApp 1": null, "WhatsApp 2": null, "Viber": null, "Telegram": "https://t.me/kuzbassarena", "YouTube": null, "Широта": 55.356014, "Долгота": 86.120227, "2GIS URL": "https://2gis.com/firm/70000001065647668" }, "geometry": { "type": "Point", "coordinates": [ 86.120227, 55.356014 ] } },
{ "type": "Feature", "properties": { "Наименование": "Кузбасс", "Описание": "ледовый дворец", "Рубрики": "Бассейны; Ледовые дворцы / Катки; Спортивные секции; Тренажёрные залы; Аренда спортивных площадок; Интересные здания", "Адрес": "Притомский проспект, 12", "Комментарий к адресу": null, "Почтовый индекс": 650066, "Микрорайон": null, "Район": "Центральный район", "Город": "Кемерово", "Округ": "Кемеровский городской округ", "Регион": "Кемеровская область — Кузбасс", "Страна": "Россия", "Часы работы": "Пн: 08:00-23:00; Вт: 08:00-23:00; Ср: 08:00-23:00; Чт: 08:00-23:00; Пт: 08:00-23:00; Сб: 09:00-21:00; Вс: 09:00-21:00", "Часовой пояс": "+07:00", "Рейтинг": 3.1, "Количество отзывов": 293, "Телефон 1": "83842588979", "Телефон 2": "83842588969", "Телефон 3": "83842588930 (автоинформатор)", "E-mail": null, "Веб-сайт 1": "http://ldk42.ru", "Веб-сайт 2": "http://rcssk.ru", "ВКонтакте": "https://vk.com/ldk42", "WhatsApp 1": null, "WhatsApp 2": null, "Viber": null, "Telegram": "https://t.me/ldkuzbass", "YouTube": null, "Широта": 55.356355, "Долгота": 86.123507, "2GIS URL": "https://2gis.com/firm/70000001052218596" }, "geometry": { "type": "Point", "coordinates": [ 86.123507, 55.356355 ] } },
{ "type": "Feature", "properties": { "Наименование": "I`mpress", "Описание": "фитнес-клуб, СПА и косметологический центр", "Рубрики": "Бассейны; Услуги косметолога; Парикмахерские; Фитнес-клубы; Тренажёрные залы; Услуги массажиста; Ногтевые студии; SPA-процедуры; Аквааэробика; Центры йоги; Услуги визажиста", "Адрес": "Советский проспект, 72", "Комментарий к адресу": "1-2 этаж", "Почтовый индекс": 650000, "Микрорайон": null, "Район": "Центральный район", "Город": "Кемерово", "Округ": "Кемеровский городской округ", "Регион": "Кемеровская область — Кузбасс", "Страна": "Россия", "Часы работы": "Пн: 06:30-22:00; Вт: 06:30-22:00; Ср: 06:30-22:00; Чт: 06:30-22:00; Пт: 06:30-22:00; Сб: 07:30-22:00; Вс: 07:30-22:00", "Часовой пояс": "+07:00", "Рейтинг": 3.4, "Количество отзывов": 62, "Телефон 1": "83842780910", "Телефон 2": null, "Телефон 3": null, "E-mail": null, "Веб-сайт 1": "http://impressclub.ru", "Веб-сайт 2": null, "ВКонтакте": "https://vk.com/impress.club", "WhatsApp 1": "https://wa.me/79050721722", "WhatsApp 2": null, "Viber": null, "Telegram": null, "YouTube": null, "Широта": 55.352166, "Долгота": 86.098255, "2GIS URL": "https://2gis.com/firm/704215722776745" }, "geometry": { "type": "Point", "coordinates": [ 86.098255, 55.352166 ] } },
{ "type": "Feature", "properties": { "Наименование": "Happy Baby", "Описание": "детский бассейн", "Рубрики": "Бассейны", "Адрес": "Притомский проспект, 11/1", "Комментарий к адресу": "96 помещение; 1 этаж", "Почтовый индекс": 650066, "Микрорайон": null, "Район": "Центральный район", "Город": "Кемерово", "Округ": "Кемеровский городской округ", "Регион": "Кемеровская область — Кузбасс", "Страна": "Россия", "Часы работы": "Пн: 09:00-21:00; Вт: 09:00-21:00; Ср: 09:00-21:00; Чт: 09:00-21:00; Пт: 09:00-21:00; Сб: 09:00-21:00; Вс: 09:00-21:00 (по предварительной записи)", "Часовой пояс": "+07:00", "Рейтинг": 4.2, "Количество отзывов": 37, "Телефон 1": "89235107404", "Телефон 2": "83842676146", "Телефон 3": null, "E-mail": null, "Веб-сайт 1": null, "Веб-сайт 2": null, "ВКонтакте": "https://vk.com/club175716717", "WhatsApp 1": null, "WhatsApp 2": null, "Viber": null, "Telegram": "https://t.me/happybabykm", "YouTube": null, "Широта": 55.354073, "Долгота": 86.116488, "2GIS URL": "https://2gis.com/firm/70000001036506107" }, "geometry": { "type": "Point", "coordinates": [ 86.116488, 55.354073 ] } },
{ "type": "Feature", "properties": { "Наименование": "АкваМарин", "Описание": "центр плавания", "Рубрики": "Бассейны; Спортивные секции; Центры раннего развития детей", "Адрес": "Притомская Набережная, 19а", "Комментарий к адресу": null, "Почтовый индекс": 650000, "Микрорайон": null, "Район": "Центральный район", "Город": "Кемерово", "Округ": "Кемеровский городской округ", "Регион": "Кемеровская область — Кузбасс", "Страна": "Россия", "Часы работы": "Пн: 09:00-20:00; Вт: 09:00-20:00; Ср: 09:00-20:00; Чт: 09:00-20:00; Пт: 09:00-20:00; Сб: 09:00-20:00 (по предварительной записи)", "Часовой пояс": "+07:00", "Рейтинг": 4.7, "Количество отзывов": 72, "Телефон 1": "89000518555 (единая справочная: пн-пт 9:00-18:00)", "Телефон 2": null, "Телефон 3": null, "E-mail": null, "Веб-сайт 1": "http://www.akvamarin42.ru/", "Веб-сайт 2": null, "ВКонтакте": "https://vk.com/akvamarin.kem42", "WhatsApp 1": "https://wa.me/79000518555", "WhatsApp 2": null, "Viber": "viber://chat/?number=79000518555", "Telegram": "https://t.me/akvamarinkemerovo", "YouTube": "https://youtube.com/channel/UC824gpkl1bT2Lk5il184wTA", "Широта": 55.356142, "Долгота": 86.094424, "2GIS URL": "https://2gis.com/firm/70000001033283765" }, "geometry": { "type": "Point", "coordinates": [ 86.094424, 55.356142 ] } },
{ "type": "Feature", "properties": { "Наименование": "Бассейн", "Описание": "Поликлиника РЖД", "Рубрики": "Бассейны; Аквааэробика", "Адрес": "улица Сибиряков-Гвардейцев, 9", "Комментарий к адресу": null, "Почтовый индекс": 650055, "Микрорайон": null, "Район": "Заводский район", "Город": "Кемерово", "Округ": "Кемеровский городской округ", "Регион": "Кемеровская область — Кузбасс", "Страна": "Россия", "Часы работы": "Пн: 10:00-19:00; Вт: 10:00-19:00; Ср: 10:00-19:00; Чт: 10:00-19:00; Пт: 10:00-19:00 (по предварительной записи: пн-пт)", "Часовой пояс": "+07:00", "Рейтинг": 4.0, "Количество отзывов": 3, "Телефон 1": "83842323846 (касса)", "Телефон 2": null, "Телефон 3": null, "E-mail": null, "Веб-сайт 1": null, "Веб-сайт 2": null, "ВКонтакте": null, "WhatsApp 1": null, "WhatsApp 2": null, "Viber": null, "Telegram": null, "YouTube": null, "Широта": 55.337251, "Долгота": 86.067184, "2GIS URL": "https://2gis.com/firm/70000001025116131" }, "geometry": { "type": "Point", "coordinates": [ 86.067184, 55.337251 ] } },
{ "type": "Feature", "properties": { "Наименование": "АкваМарин", "Описание": "центр плавания", "Рубрики": "Бассейны; Спортивные секции", "Адрес": "Кузбасская, 37", "Комментарий к адресу": "1 этаж", "Почтовый индекс": 650000, "Микрорайон": null, "Район": "Центральный район", "Город": "Кемерово", "Округ": "Кемеровский городской округ", "Регион": "Кемеровская область — Кузбасс", "Страна": "Россия", "Часы работы": "Пн: 18:00-20:00; Вт: 18:00-20:00; Чт: 18:00-20:00; Пт: 18:00-20:00 (по предварительной записи)", "Часовой пояс": "+07:00", "Рейтинг": 4.7, "Количество отзывов": 13, "Телефон 1": "89000518555 (единая справочная: пн-пт 9:00-18:00)", "Телефон 2": null, "Телефон 3": null, "E-mail": null, "Веб-сайт 1": "http://www.akvamarin42.ru/", "Веб-сайт 2": null, "ВКонтакте": "https://vk.com/akvamarin.kem42", "WhatsApp 1": "https://wa.me/79000518555", "WhatsApp 2": null, "Viber": "viber://chat/?number=79000518555", "Telegram": "https://t.me/akvamarinkemerovo", "YouTube": "https://youtube.com/channel/UC824gpkl1bT2Lk5il184wTA", "Широта": 55.359641, "Долгота": 86.073441, "2GIS URL": "https://2gis.com/firm/70000001027683446" }, "geometry": { "type": "Point", "coordinates": [ 86.073441, 55.359641 ] } },
{ "type": "Feature", "properties": { "Наименование": "Южный", "Описание": "спортивно-оздоровительный комплекс", "Рубрики": "Бассейны; Фитнес-клубы; Аквааэробика", "Адрес": "улица Юрия Двужильного, 12в", "Комментарий к адресу": null, "Почтовый индекс": 650040, "Микрорайон": "Южный м-н", "Район": "Заводский район", "Город": "Кемерово", "Округ": "Кемеровский городской округ", "Регион": "Кемеровская область — Кузбасс", "Страна": "Россия", "Часы работы": "Пн: 07:00-12:00, 15:00-22:00; Вт: 07:00-12:00, 15:00-22:00; Ср: 07:00-12:00, 15:00-22:00; Чт: 07:00-12:00, 15:00-22:00; Пт: 07:00-12:00, 15:00-22:00; Сб: 09:00-21:00; Вс: 09:00-21:00", "Часовой пояс": "+07:00", "Рейтинг": 2.9, "Количество отзывов": 22, "Телефон 1": "83842772870", "Телефон 2": null, "Телефон 3": null, "E-mail": null, "Веб-сайт 1": "http://school78kem.ru", "Веб-сайт 2": null, "ВКонтакте": null, "WhatsApp 1": null, "WhatsApp 2": null, "Viber": null, "Telegram": null, "YouTube": null, "Широта": 55.314355, "Долгота": 86.098263, "2GIS URL": "https://2gis.com/firm/70000001022481674" }, "geometry": { "type": "Point", "coordinates": [ 86.098263, 55.314355 ] } },
{ "type": "Feature", "properties": { "Наименование": "Бассейн", "Описание": null, "Рубрики": "Бассейны", "Адрес": "Молодёжный проспект, 7Б", "Комментарий к адресу": "цокольный этаж", "Почтовый индекс": 650070, "Микрорайон": "ФПК м-н", "Район": "Заводский район", "Город": "Кемерово", "Округ": "Кемеровский городской округ", "Регион": "Кемеровская область — Кузбасс", "Страна": "Россия", "Часы работы": "Пн: 08:00-20:00; Вт: 08:00-20:00; Ср: 08:00-20:00; Чт: 08:00-20:00; Пт: 08:00-20:00; Вс: 08:00-16:00", "Часовой пояс": "+07:00", "Рейтинг": 3.3, "Количество отзывов": 10, "Телефон 1": "83842313378", "Телефон 2": null, "Телефон 3": null, "E-mail": null, "Веб-сайт 1": null, "Веб-сайт 2": null, "ВКонтакте": null, "WhatsApp 1": null, "WhatsApp 2": null, "Viber": null, "Telegram": null, "YouTube": null, "Широта": 55.324775, "Долгота": 86.124475, "2GIS URL": "https://2gis.com/firm/70000001023040743" }, "geometry": { "type": "Point", "coordinates": [ 86.124475, 55.324775 ] } },
{ "type": "Feature", "properties": { "Наименование": "Дельфин", "Описание": "детский бассейн", "Рубрики": "Бассейны; Занятия лечебной физкультурой (ЛФК)", "Адрес": "улица Юрия Двужильного, 16а", "Комментарий к адресу": "-1 этаж", "Почтовый индекс": 650040, "Микрорайон": "Южный м-н", "Район": "Заводский район", "Город": "Кемерово", "Округ": "Кемеровский городской округ", "Регион": "Кемеровская область — Кузбасс", "Страна": "Россия", "Часы работы": "Пн: 08:00-22:00; Вт: 08:00-22:00; Ср: 08:00-22:00; Чт: 08:00-22:00; Пт: 08:00-22:00; Сб: 08:00-22:00; Вс: 08:00-22:00 (по предварительной записи)", "Часовой пояс": "+07:00", "Рейтинг": 5.0, "Количество отзывов": 11, "Телефон 1": "89236028352", "Телефон 2": null, "Телефон 3": null, "E-mail": null, "Веб-сайт 1": null, "Веб-сайт 2": null, "ВКонтакте": null, "WhatsApp 1": "https://wa.me/79236028352", "WhatsApp 2": null, "Viber": null, "Telegram": "https://t.me/+79236028352", "YouTube": null, "Широта": 55.313883, "Долгота": 86.09572, "2GIS URL": "https://2gis.com/firm/70000001064540424" }, "geometry": { "type": "Point", "coordinates": [ 86.09572, 55.313883 ] } }
]
}
