{
"type": "FeatureCollection",
"name": "train_station",
"crs": { "type": "name", "properties": { "name": "urn:ogc:def:crs:OGC:1.3:CRS84" } },
"features": [
{ "type": "Feature", "properties": { "id": "1" }, "geometry": { "type": "Point", "coordinates": [ 86.15743774043294, 55.363305773139942 ] } },
{ "type": "Feature", "properties": { "id": "2" }, "geometry": { "type": "Point", "coordinates": [ 86.107653801042446, 55.351781980919071 ] } },
{ "type": "Feature", "properties": { "id": "3" }, "geometry": { "type": "Point", "coordinates": [ 86.0592156, 55.3442112 ] } },
{ "type": "Feature", "properties": { "id": "4" }, "geometry": { "type": "Point", "coordinates": [ 86.0245298, 55.3932911 ] } },
{ "type": "Feature", "properties": { "id": "5" }, "geometry": { "type": "Point", "coordinates": [ 86.0299647, 55.3602888 ] } },
{ "type": "Feature", "properties": { "id": "6" }, "geometry": { "type": "Point", "coordinates": [ 86.0396641, 55.3235235 ] } },
{ "type": "Feature", "properties": { "id": "7" }, "geometry": { "type": "Point", "coordinates": [ 85.9609296, 55.3458294 ] } }
]
}
