{
"type": "FeatureCollection",
"name": "university",
"crs": { "type": "name", "properties": { "name": "urn:ogc:def:crs:OGC:1.3:CRS84" } },
"features": [
{ "type": "Feature", "properties": { "Наименование": "Томский государственный университет систем управления и радиоэлектроники", "Описание": "представительство в г. Кемерово", "Рубрики": "Университеты", "Адрес": "Институтская, 1", "Комментарий к адресу": "330 кабинет; 3 этаж", "Почтовый индекс": 650002, "Микрорайон": "Радуга м-н", "Район": "Рудничный район", "Город": "Кемерово", "Округ": "Кемеровский городской округ", "Регион": "Кемеровская область — Кузбасс", "Страна": "Россия", "Часы работы": "Пн: 09:00-17:30; Вт: 09:00-17:30; Ср: 09:00-17:30; Чт: 09:00-17:30; Пт: 09:00-17:30", "Часовой пояс": "+07:00", "Рейтинг": null, "Количество отзывов": null, "Телефон 1": "83842452390", "Телефон 2": "89617312758", "Телефон 3": "83842340173", "E-mail": null, "Веб-сайт 1": null, "Веб-сайт 2": null, "Twitter": null, "ВКонтакте": null, "WhatsApp": null, "Telegram": null, "YouTube": null, "Широта": 55.389506, "Долгота": 86.111895, "2GIS URL": "https://2gis.com/firm/704215723084767" }, "geometry": { "type": "Point", "coordinates": [ 86.111895, 55.389506 ] } },
{ "type": "Feature", "properties": { "Наименование": "Кузбасский аграрный университет им. В.Н. Полецкова", "Описание": "Факультет менеджмента и агробизнеса, агробиотехнологический факультет", "Рубрики": "Институты", "Адрес": "Карла Маркса, 12", "Комментарий к адресу": "2 корпус; 2104, 2107 аудитория; 2 этаж", "Почтовый индекс": 650021, "Микрорайон": null, "Район": "Заводский район", "Город": "Кемерово", "Округ": "Кемеровский городской округ", "Регион": "Кемеровская область — Кузбасс", "Страна": "Россия", "Часы работы": "Пн: 08:30-17:15; Вт: 08:30-17:15; Ср: 08:30-17:15; Чт: 08:30-17:15; Пт: 08:30-17:15; Сб: 09:00-16:00", "Часовой пояс": "+07:00", "Рейтинг": 4.9, "Количество отзывов": 3, "Телефон 1": "83842734359", "Телефон 2": "83842734375 (приемная комиссия)", "Телефон 3": "83842735135", "E-mail": null, "Веб-сайт 1": "http://www.ksai.ru", "Веб-сайт 2": null, "Twitter": null, "ВКонтакте": "https://vk.com/kuzgsha", "WhatsApp": null, "Telegram": "https://t.me/ksaa42", "YouTube": "https://youtube.com/channel/UCfdrLkqaSiwGhglHKfwMtqw", "Широта": 55.361931, "Долгота": 86.046126, "2GIS URL": "https://2gis.com/firm/704215722768520" }, "geometry": { "type": "Point", "coordinates": [ 86.046126, 55.361931 ] } },
{ "type": "Feature", "properties": { "Наименование": "Кемеровский государственный университет", "Описание": null, "Рубрики": "Университеты", "Адрес": "бульвар Строителей, 47", "Комментарий к адресу": "7 корпус", "Почтовый индекс": 650056, "Микрорайон": null, "Район": "Ленинский район", "Город": "Кемерово", "Округ": "Кемеровский городской округ", "Регион": "Кемеровская область — Кузбасс", "Страна": "Россия", "Часы работы": "Пн: 08:30-12:00, 12:30-17:00; Вт: 08:30-12:00, 12:30-17:00; Ср: 08:30-12:00, 12:30-17:00; Чт: 08:30-12:00, 12:30-17:00; Пт: 08:30-12:00, 12:30-17:00", "Часовой пояс": "+07:00", "Рейтинг": 3.4, "Количество отзывов": 11, "Телефон 1": null, "Телефон 2": null, "Телефон 3": null, "E-mail": null, "Веб-сайт 1": "http://iit.kemsu.ru", "Веб-сайт 2": "http://kemsu.ru", "Twitter": null, "ВКонтакте": "https://vk.com/kemsu_ru", "WhatsApp": null, "Telegram": "https://t.me/kemsu_live", "YouTube": "https://youtube.com/channel/UCtqx6FxuF59htS5wSJ6UGzg", "Широта": 55.335433, "Долгота": 86.171197, "2GIS URL": "https://2gis.com/firm/704215723012515" }, "geometry": { "type": "Point", "coordinates": [ 86.171197, 55.335433 ] } },
{ "type": "Feature", "properties": { "Наименование": "Кемеровский государственный медицинский университет Минздрава РФ", "Описание": "приемная комиссия", "Рубрики": "Университеты", "Адрес": "Ворошилова, 22а", "Комментарий к адресу": "237 офис; 2 этаж", "Почтовый индекс": 650056, "Микрорайон": null, "Район": "Ленинский район", "Город": "Кемерово", "Округ": "Кемеровский городской округ", "Регион": "Кемеровская область — Кузбасс", "Страна": "Россия", "Часы работы": "Пн: 08:30-12:30, 13:30-17:00; Вт: 08:30-12:30, 13:30-17:00; Ср: 08:30-12:30, 13:30-17:00; Чт: 08:30-12:30, 13:30-17:00; Пт: 08:00-12:30, 13:30-16:30; Сб: 09:00-13:00", "Часовой пояс": "+07:00", "Рейтинг": 1.1, "Количество отзывов": 1, "Телефон 1": "83842732839", "Телефон 2": "83842734856", "Телефон 3": null, "E-mail": null, "Веб-сайт 1": "http://www.kemsmu.ru", "Веб-сайт 2": null, "Twitter": null, "ВКонтакте": "https://vk.com/mykemsmu", "WhatsApp": null, "Telegram": "https://t.me/minzdrav_ru", "YouTube": null, "Широта": 55.338264, "Долгота": 86.164843, "2GIS URL": "https://2gis.com/firm/70000001006169442" }, "geometry": { "type": "Point", "coordinates": [ 86.164843, 55.338264 ] } },
{ "type": "Feature", "properties": { "Наименование": "Кемеровский государственный университет", "Описание": null, "Рубрики": "Университеты", "Адрес": "улица Терешковой, 40", "Комментарий к адресу": "6 корпус", "Почтовый индекс": 650036, "Микрорайон": null, "Район": "Центральный район", "Город": "Кемерово", "Округ": "Кемеровский городской округ", "Регион": "Кемеровская область — Кузбасс", "Страна": "Россия", "Часы работы": "Пн: 08:30-12:00, 13:00-17:00; Вт: 08:30-12:00, 13:00-17:00; Ср: 08:30-12:00, 13:00-17:00; Чт: 08:30-12:00, 13:00-17:00; Пт: 08:30-12:00, 13:00-17:00", "Часовой пояс": "+07:00", "Рейтинг": 3.6, "Количество отзывов": 4, "Телефон 1": null, "Телефон 2": null, "Телефон 3": null, "E-mail": null, "Веб-сайт 1": "http://iit.kemsu.ru", "Веб-сайт 2": "http://kemsu.ru", "Twitter": null, "ВКонтакте": "https://vk.com/kemsu_ru", "WhatsApp": null, "Telegram": "https://t.me/kemsu_live", "YouTube": "https://youtube.com/channel/UCtqx6FxuF59htS5wSJ6UGzg", "Широта": 55.338865, "Долгота": 86.141507, "2GIS URL": "https://2gis.com/firm/704215722767043" }, "geometry": { "type": "Point", "coordinates": [ 86.141507, 55.338865 ] } },
{ "type": "Feature", "properties": { "Наименование": "Российский государственный профессионально-педагогический университет", "Описание": null, "Рубрики": "Университеты", "Адрес": "Тухачевского, 32а", "Комментарий к адресу": null, "Почтовый индекс": 650070, "Микрорайон": null, "Район": "Ленинский район", "Город": "Кемерово", "Округ": "Кемеровский городской округ", "Регион": "Кемеровская область — Кузбасс", "Страна": "Россия", "Часы работы": "Пн: 08:30-12:30, 13:00-16:45; Вт: 08:30-12:30, 13:00-16:45; Ср: 08:30-12:30, 13:00-16:45; Чт: 08:30-12:30, 13:00-16:45; Пт: 08:30-12:30, 13:00-15:00", "Часовой пояс": "+07:00", "Рейтинг": 3.3, "Количество отзывов": 3, "Телефон 1": "83842318559", "Телефон 2": "83842318651", "Телефон 3": null, "E-mail": null, "Веб-сайт 1": "http://rsvpu.ru", "Веб-сайт 2": null, "Twitter": null, "ВКонтакте": "https://vk.com/rsvpu_news", "WhatsApp": null, "Telegram": null, "YouTube": "https://youtube.com/user/RsvpuVideo", "Широта": 55.334407, "Долгота": 86.13492, "2GIS URL": "https://2gis.com/firm/704215722758094" }, "geometry": { "type": "Point", "coordinates": [ 86.13492, 55.334407 ] } },
{ "type": "Feature", "properties": { "Наименование": "Кемеровский государственный университет", "Описание": null, "Рубрики": "Университеты", "Адрес": "бульвар Строителей, 49", "Комментарий к адресу": "8 корпус", "Почтовый индекс": 650056, "Микрорайон": null, "Район": "Ленинский район", "Город": "Кемерово", "Округ": "Кемеровский городской округ", "Регион": "Кемеровская область — Кузбасс", "Страна": "Россия", "Часы работы": "Пн: 08:30-12:00, 12:30-17:00; Вт: 08:30-12:00, 12:30-17:00; Ср: 08:30-12:00, 12:30-17:00; Чт: 08:30-12:00, 12:30-17:00; Пт: 08:30-12:00, 12:30-17:00", "Часовой пояс": "+07:00", "Рейтинг": null, "Количество отзывов": null, "Телефон 1": "83842396444", "Телефон 2": null, "Телефон 3": null, "E-mail": null, "Веб-сайт 1": "http://iit.kemsu.ru", "Веб-сайт 2": "http://kemsu.ru", "Twitter": null, "ВКонтакте": "https://vk.com/kemsu_ru", "WhatsApp": null, "Telegram": "https://t.me/kemsu_live", "YouTube": "https://youtube.com/channel/UCtqx6FxuF59htS5wSJ6UGzg", "Широта": 55.334847, "Долгота": 86.172792, "2GIS URL": "https://2gis.com/firm/70000001031955784" }, "geometry": { "type": "Point", "coordinates": [ 86.172792, 55.334847 ] } },
{ "type": "Feature", "properties": { "Наименование": "Российский государственный институт сценических искусств", "Описание": "филиал в г. Кемерово", "Рубрики": "Институты", "Адрес": "Ворошилова, 15", "Комментарий к адресу": null, "Почтовый индекс": 650056, "Микрорайон": null, "Район": "Ленинский район", "Город": "Кемерово", "Округ": "Кемеровский городской округ", "Регион": "Кемеровская область — Кузбасс", "Страна": "Россия", "Часы работы": "Пн: 09:00-13:00, 14:00-18:00; Вт: 09:00-13:00, 14:00-18:00; Ср: 09:00-13:00, 14:00-18:00; Чт: 09:00-13:00, 14:00-18:00; Пт: 09:00-13:00, 14:00-18:00", "Часовой пояс": "+07:00", "Рейтинг": 5.0, "Количество отзывов": 14, "Телефон 1": "83842442690", "Телефон 2": null, "Телефон 3": null, "E-mail": null, "Веб-сайт 1": "http://siberia.rgisi.ru", "Веб-сайт 2": null, "Twitter": null, "ВКонтакте": "https://vk.com/rgisi.siberia", "WhatsApp": null, "Telegram": null, "YouTube": null, "Широта": 55.337794, "Долгота": 86.162087, "2GIS URL": "https://2gis.com/firm/70000001069449757" }, "geometry": { "type": "Point", "coordinates": [ 86.162087, 55.337794 ] } },
{ "type": "Feature", "properties": { "Наименование": "КемГИК", "Описание": null, "Рубрики": "Институты", "Адрес": "Ворошилова, 17", "Комментарий к адресу": "1 корпус", "Почтовый индекс": 650056, "Микрорайон": null, "Район": "Ленинский район", "Город": "Кемерово", "Округ": "Кемеровский городской округ", "Регион": "Кемеровская область — Кузбасс", "Страна": "Россия", "Часы работы": "Пн: 08:30-13:00, 13:30-17:15; Вт: 08:30-13:00, 13:30-17:15; Ср: 08:30-13:00, 13:30-17:15; Чт: 08:30-13:00, 13:30-17:15; Пт: 08:30-13:00, 13:30-16:00", "Часовой пояс": "+07:00", "Рейтинг": 2.8, "Количество отзывов": 17, "Телефон 1": "83842732840", "Телефон 2": null, "Телефон 3": null, "E-mail": null, "Веб-сайт 1": "http://kemgik.ru", "Веб-сайт 2": null, "Twitter": null, "ВКонтакте": "https://vk.com/kemgik", "WhatsApp": null, "Telegram": "https://t.me/kemgikkemerovo", "YouTube": null, "Широта": 55.336586, "Долгота": 86.161431, "2GIS URL": "https://2gis.com/firm/704215722755149" }, "geometry": { "type": "Point", "coordinates": [ 86.161431, 55.336586 ] } },
{ "type": "Feature", "properties": { "Наименование": "Кузбасский аграрный университет им. В.Н. Полецкова", "Описание": null, "Рубрики": "Институты", "Адрес": "Марковцева, 5", "Комментарий к адресу": "1107 кабинет; 1 этаж", "Почтовый индекс": 650056, "Микрорайон": null, "Район": "Ленинский район", "Город": "Кемерово", "Округ": "Кемеровский городской округ", "Регион": "Кемеровская область — Кузбасс", "Страна": "Россия", "Часы работы": "Пн: 08:30-12:30, 13:00-17:15; Вт: 08:30-12:30, 13:00-17:15; Ср: 08:30-12:30, 13:00-17:15; Чт: 08:30-12:30, 13:00-17:15; Пт: 08:30-12:30, 13:00-16:00", "Часовой пояс": "+07:00", "Рейтинг": null, "Количество отзывов": null, "Телефон 1": "83842735135", "Телефон 2": null, "Телефон 3": null, "E-mail": null, "Веб-сайт 1": "http://abiturient.ksai.ru", "Веб-сайт 2": null, "Twitter": null, "ВКонтакте": "https://vk.com/id327059297", "WhatsApp": null, "Telegram": "https://t.me/ksaa42", "YouTube": "https://youtube.com/channel/UCfdrLkqaSiwGhglHKfwMtqw", "Широта": 55.329833, "Долгота": 86.174221, "2GIS URL": "https://2gis.com/firm/70000001044089324" }, "geometry": { "type": "Point", "coordinates": [ 86.174221, 55.329833 ] } },
{ "type": "Feature", "properties": { "Наименование": "Кемеровский государственный университет", "Описание": null, "Рубрики": "Университеты", "Адрес": "Советский проспект, 73", "Комментарий к адресу": "2 корпус", "Почтовый индекс": 650000, "Микрорайон": null, "Район": "Центральный район", "Город": "Кемерово", "Округ": "Кемеровский городской округ", "Регион": "Кемеровская область — Кузбасс", "Страна": "Россия", "Часы работы": "Пн: 08:30-12:00, 13:00-17:00; Вт: 08:30-12:00, 13:00-17:00; Ср: 08:30-12:00, 13:00-17:00; Чт: 08:30-12:00, 13:00-17:00; Пт: 08:30-12:00, 13:00-17:00", "Часовой пояс": "+07:00", "Рейтинг": 3.4, "Количество отзывов": 11, "Телефон 1": null, "Телефон 2": null, "Телефон 3": null, "E-mail": null, "Веб-сайт 1": "http://iit.kemsu.ru", "Веб-сайт 2": "http://kemsu.ru", "Twitter": null, "ВКонтакте": "https://vk.com/kemsu_ru", "WhatsApp": null, "Telegram": "https://t.me/kemsu_live", "YouTube": "https://youtube.com/channel/UCtqx6FxuF59htS5wSJ6UGzg", "Широта": 55.35172, "Долгота": 86.093715, "2GIS URL": "https://2gis.com/firm/704215722767054" }, "geometry": { "type": "Point", "coordinates": [ 86.093715, 55.35172 ] } },
{ "type": "Feature", "properties": { "Наименование": "Кузбасский государственный технический университет им. Т.Ф. Горбачева", "Описание": null, "Рубрики": "Университеты", "Адрес": "улица Весенняя, 28", "Комментарий к адресу": "1 корпус", "Почтовый индекс": 650000, "Микрорайон": null, "Район": "Центральный район", "Город": "Кемерово", "Округ": "Кемеровский городской округ", "Регион": "Кемеровская область — Кузбасс", "Страна": "Россия", "Часы работы": "Пн: 08:00-12:30, 13:30-17:00; Вт: 08:00-12:30, 13:30-17:00; Ср: 08:00-12:30, 13:30-17:00; Чт: 08:00-12:30, 13:30-17:00; Пт: 08:00-12:30, 13:30-17:00", "Часовой пояс": "+07:00", "Рейтинг": 4.1, "Количество отзывов": 19, "Телефон 1": "83842396960 (единая справочная: пн-пт 8:00-17:00, перерыв: 12:30-13:30)", "Телефон 2": null, "Телефон 3": null, "E-mail": null, "Веб-сайт 1": "http://www.kuzstu.ru", "Веб-сайт 2": null, "Twitter": null, "ВКонтакте": "https://vk.com/news_kuzstu", "WhatsApp": null, "Telegram": "https://t.me/vkuzstu", "YouTube": "https://youtube.com/channel/UCL3YEvopoM5bNjCwBhApgEg", "Широта": 55.348141, "Долгота": 86.077524, "2GIS URL": "https://2gis.com/firm/704215722754183" }, "geometry": { "type": "Point", "coordinates": [ 86.077524, 55.348141 ] } },
{ "type": "Feature", "properties": { "Наименование": "Кузбасский государственный технический университет им. Т.Ф. Горбачева", "Описание": "Институт химических и нефтегазовых технологий", "Рубрики": "Университеты", "Адрес": "улица 50 лет Октября, 17", "Комментарий к адресу": "5 корпус", "Почтовый индекс": 650000, "Микрорайон": null, "Район": "Центральный район", "Город": "Кемерово", "Округ": "Кемеровский городской округ", "Регион": "Кемеровская область — Кузбасс", "Страна": "Россия", "Часы работы": "Пн: 08:00-12:30, 13:30-17:00; Вт: 08:00-12:30, 13:30-17:00; Ср: 08:00-12:30, 13:30-17:00; Чт: 08:00-12:30, 13:30-17:00; Пт: 08:00-12:30, 13:30-17:00", "Часовой пояс": "+07:00", "Рейтинг": 4.5, "Количество отзывов": 8, "Телефон 1": "83842396956", "Телефон 2": "83842396985", "Телефон 3": null, "E-mail": null, "Веб-сайт 1": "http://www.kuzstu.ru", "Веб-сайт 2": null, "Twitter": null, "ВКонтакте": "https://vk.com/news_kuzstu", "WhatsApp": null, "Telegram": "https://t.me/vkuzstu", "YouTube": "https://youtube.com/channel/UCL3YEvopoM5bNjCwBhApgEg", "Широта": 55.348729, "Долгота": 86.081575, "2GIS URL": "https://2gis.com/firm/704670989561935" }, "geometry": { "type": "Point", "coordinates": [ 86.081575, 55.348729 ] } },
{ "type": "Feature", "properties": { "Наименование": "Кузбасский государственный технический университет им. Т.Ф. Горбачева", "Описание": "Институт информационных технологий, машиностроения и автотранспорта", "Рубрики": "Университеты", "Адрес": "Красноармейская улица, 117", "Комментарий к адресу": "3207 кабинет; 2 этаж", "Почтовый индекс": 650000, "Микрорайон": null, "Район": "Центральный район", "Город": "Кемерово", "Округ": "Кемеровский городской округ", "Регион": "Кемеровская область — Кузбасс", "Страна": "Россия", "Часы работы": "Пн: 08:00-12:30, 13:30-17:00; Вт: 08:00-12:30, 13:30-17:00; Ср: 08:00-12:30, 13:30-17:00; Чт: 08:00-12:30, 13:30-17:00; Пт: 08:00-12:30, 13:30-17:00", "Часовой пояс": "+07:00", "Рейтинг": 4.9, "Количество отзывов": 11, "Телефон 1": "83842396954", "Телефон 2": "83842396376", "Телефон 3": null, "E-mail": null, "Веб-сайт 1": "http://www.kuzstu.ru", "Веб-сайт 2": null, "Twitter": null, "ВКонтакте": "https://vk.com/news_kuzstu", "WhatsApp": null, "Telegram": "https://t.me/vkuzstu", "YouTube": "https://youtube.com/channel/UCL3YEvopoM5bNjCwBhApgEg", "Широта": 55.348941, "Долгота": 86.080862, "2GIS URL": "https://2gis.com/firm/704670989302289" }, "geometry": { "type": "Point", "coordinates": [ 86.080862, 55.348941 ] } },
{ "type": "Feature", "properties": { "Наименование": "Кузбасский государственный технический университет им. Т.Ф. Горбачева", "Описание": "Институт экономики и управления", "Рубрики": "Университеты", "Адрес": "улица Дзержинского, 9", "Комментарий к адресу": "2 корпус; 2214 кабинет", "Почтовый индекс": 650000, "Микрорайон": null, "Район": "Центральный район", "Город": "Кемерово", "Округ": "Кемеровский городской округ", "Регион": "Кемеровская область — Кузбасс", "Страна": "Россия", "Часы работы": "Пн: 08:00-12:30, 13:30-17:00; Вт: 08:00-12:30, 13:30-17:00; Ср: 08:00-12:30, 13:30-17:00; Чт: 08:00-12:30, 13:30-17:00; Пт: 08:00-12:30, 13:30-17:00", "Часовой пояс": "+07:00", "Рейтинг": 4.6, "Количество отзывов": 5, "Телефон 1": "83842396953", "Телефон 2": "83842396951", "Телефон 3": null, "E-mail": null, "Веб-сайт 1": "http://www.kuzstu.ru", "Веб-сайт 2": null, "Twitter": null, "ВКонтакте": "https://vk.com/news_kuzstu", "WhatsApp": null, "Telegram": "https://t.me/vkuzstu", "YouTube": "https://youtube.com/channel/UCL3YEvopoM5bNjCwBhApgEg", "Широта": 55.352425, "Долгота": 86.073833, "2GIS URL": "https://2gis.com/firm/704670989485969" }, "geometry": { "type": "Point", "coordinates": [ 86.073833, 55.352425 ] } },
{ "type": "Feature", "properties": { "Наименование": "Кузбасский государственный технический университет им. Т.Ф. Горбачева", "Описание": "Военный учебный центр", "Рубрики": "Университеты", "Адрес": "улица Дзержинского, 9Б", "Комментарий к адресу": "6 корпус", "Почтовый индекс": 650000, "Микрорайон": null, "Район": "Центральный район", "Город": "Кемерово", "Округ": "Кемеровский городской округ", "Регион": "Кемеровская область — Кузбасс", "Страна": "Россия", "Часы работы": "Пн: 08:00-12:30, 13:30-17:00; Вт: 08:00-12:30, 13:30-17:00; Ср: 08:00-12:30, 13:30-17:00; Чт: 08:00-12:30, 13:30-17:00; Пт: 08:00-12:30, 13:30-17:00", "Часовой пояс": "+07:00", "Рейтинг": null, "Количество отзывов": null, "Телефон 1": "83842396960 (единая справочная: пн-пт 8:00-17:00, перерыв: 12:30-13:30)", "Телефон 2": null, "Телефон 3": null, "E-mail": null, "Веб-сайт 1": "http://www.kuzstu.ru", "Веб-сайт 2": null, "Twitter": null, "ВКонтакте": "https://vk.com/news_kuzstu", "WhatsApp": null, "Telegram": "https://t.me/vkuzstu", "YouTube": "https://youtube.com/channel/UCL3YEvopoM5bNjCwBhApgEg", "Широта": 55.352778, "Долгота": 86.072118, "2GIS URL": "https://2gis.com/firm/704215723372006" }, "geometry": { "type": "Point", "coordinates": [ 86.072118, 55.352778 ] } },
{ "type": "Feature", "properties": { "Наименование": "Кемеровский государственный университет", "Описание": "институт филологии, иностранных языков и медиакоммуникаций", "Рубрики": "Университеты", "Адрес": "Советский проспект, 73а", "Комментарий к адресу": "5309 кабинет", "Почтовый индекс": 650000, "Микрорайон": null, "Район": "Центральный район", "Город": "Кемерово", "Округ": "Кемеровский городской округ", "Регион": "Кемеровская область — Кузбасс", "Страна": "Россия", "Часы работы": "Пн: 09:00-18:00; Вт: 09:00-18:00; Ср: 09:00-18:00; Чт: 09:00-18:00; Пт: 09:00-18:00", "Часовой пояс": "+07:00", "Рейтинг": 4.9, "Количество отзывов": 1, "Телефон 1": "83842582745", "Телефон 2": null, "Телефон 3": null, "E-mail": null, "Веб-сайт 1": "http://iit.kemsu.ru", "Веб-сайт 2": "http://kemsu.ru", "Twitter": null, "ВКонтакте": "https://vk.com/kemsu_ru", "WhatsApp": null, "Telegram": "https://t.me/kemsu_live", "YouTube": "https://youtube.com/channel/UCtqx6FxuF59htS5wSJ6UGzg", "Широта": 55.350845, "Долгота": 86.093173, "2GIS URL": "https://2gis.com/firm/70000001019673991" }, "geometry": { "type": "Point", "coordinates": [ 86.093173, 55.350845 ] } },
{ "type": "Feature", "properties": { "Наименование": "Кузбасский государственный технический университет им. Т.Ф. Горбачева", "Описание": "строительный институт", "Рубрики": "Университеты", "Адрес": "Демьяна Бедного, 4", "Комментарий к адресу": "0 корпус", "Почтовый индекс": 650000, "Микрорайон": null, "Район": "Центральный район", "Город": "Кемерово", "Округ": "Кемеровский городской округ", "Регион": "Кемеровская область — Кузбасс", "Страна": "Россия", "Часы работы": "Пн: 08:00-12:30, 13:30-17:00; Вт: 08:00-12:30, 13:30-17:00; Ср: 08:00-12:30, 13:30-17:00; Чт: 08:00-12:30, 13:30-17:00; Пт: 08:00-12:30, 13:30-17:00", "Часовой пояс": "+07:00", "Рейтинг": null, "Количество отзывов": null, "Телефон 1": "83842396932", "Телефон 2": "83842396983", "Телефон 3": "83842396952", "E-mail": null, "Веб-сайт 1": "http://www.kuzstu.ru", "Веб-сайт 2": null, "Twitter": null, "ВКонтакте": "https://vk.com/news_kuzstu", "WhatsApp": null, "Telegram": "https://t.me/vkuzstu", "YouTube": "https://youtube.com/channel/UCL3YEvopoM5bNjCwBhApgEg", "Широта": 55.347296, "Долгота": 86.079134, "2GIS URL": "https://2gis.com/firm/70000001068421532" }, "geometry": { "type": "Point", "coordinates": [ 86.079134, 55.347296 ] } },
{ "type": "Feature", "properties": { "Наименование": "Кемеровский государственный университет", "Описание": null, "Рубрики": "Университеты", "Адрес": "Мичурина, 13а", "Комментарий к адресу": "4 корпус", "Почтовый индекс": 650000, "Микрорайон": null, "Район": "Центральный район", "Город": "Кемерово", "Округ": "Кемеровский городской округ", "Регион": "Кемеровская область — Кузбасс", "Страна": "Россия", "Часы работы": "Пн: 08:30-12:00, 13:00-17:00; Вт: 08:30-12:00, 13:00-17:00; Ср: 08:30-12:00, 13:00-17:00; Чт: 08:30-12:00, 13:00-17:00; Пт: 08:30-12:00, 13:00-17:00", "Часовой пояс": "+07:00", "Рейтинг": null, "Количество отзывов": null, "Телефон 1": null, "Телефон 2": null, "Телефон 3": null, "E-mail": null, "Веб-сайт 1": "http://iit.kemsu.ru", "Веб-сайт 2": "http://kemsu.ru", "Twitter": null, "ВКонтакте": "https://vk.com/kemsu_ru", "WhatsApp": null, "Telegram": "https://t.me/kemsu_live", "YouTube": "https://youtube.com/channel/UCtqx6FxuF59htS5wSJ6UGzg", "Широта": 55.350998, "Долгота": 86.094286, "2GIS URL": "https://2gis.com/firm/70000001032052021" }, "geometry": { "type": "Point", "coordinates": [ 86.094286, 55.350998 ] } },
{ "type": "Feature", "properties": { "Наименование": "Кемеровский государственный университет", "Описание": null, "Рубрики": "Университеты", "Адрес": "Советский проспект, 75", "Комментарий к адресу": "3 корпус", "Почтовый индекс": 650000, "Микрорайон": null, "Район": "Центральный район", "Город": "Кемерово", "Округ": "Кемеровский городской округ", "Регион": "Кемеровская область — Кузбасс", "Страна": "Россия", "Часы работы": "Пн: 08:30-12:00, 13:00-17:00; Вт: 08:30-12:00, 13:00-17:00; Ср: 08:30-12:00, 13:00-17:00; Чт: 08:30-12:00, 13:00-17:00; Пт: 08:30-12:00, 13:00-17:00", "Часовой пояс": "+07:00", "Рейтинг": 1.0, "Количество отзывов": 1, "Телефон 1": null, "Телефон 2": null, "Телефон 3": null, "E-mail": null, "Веб-сайт 1": "http://iit.kemsu.ru", "Веб-сайт 2": "http://kemsu.ru", "Twitter": null, "ВКонтакте": "https://vk.com/kemsu_ru", "WhatsApp": null, "Telegram": "https://t.me/kemsu_live", "YouTube": "https://youtube.com/channel/UCtqx6FxuF59htS5wSJ6UGzg", "Широта": 55.351435, "Долгота": 86.094791, "2GIS URL": "https://2gis.com/firm/70000001032050922" }, "geometry": { "type": "Point", "coordinates": [ 86.094791, 55.351435 ] } },
{ "type": "Feature", "properties": { "Наименование": "Кемеровский государственный университет", "Описание": null, "Рубрики": "Университеты", "Адрес": "Красная, 6", "Комментарий к адресу": "1 корпус", "Почтовый индекс": 650000, "Микрорайон": null, "Район": "Центральный район", "Город": "Кемерово", "Округ": "Кемеровский городской округ", "Регион": "Кемеровская область — Кузбасс", "Страна": "Россия", "Часы работы": "Пн: 08:30-12:00, 13:00-17:00; Вт: 08:30-12:00, 13:00-17:00; Ср: 08:30-12:00, 13:00-17:00; Чт: 08:30-12:00, 13:00-17:00; Пт: 08:30-12:00, 13:00-17:00", "Часовой пояс": "+07:00", "Рейтинг": 3.9, "Количество отзывов": 4, "Телефон 1": null, "Телефон 2": null, "Телефон 3": null, "E-mail": null, "Веб-сайт 1": "http://iit.kemsu.ru", "Веб-сайт 2": "http://kemsu.ru", "Twitter": null, "ВКонтакте": "https://vk.com/kemsu_ru", "WhatsApp": null, "Telegram": "https://t.me/kemsu_live", "YouTube": "https://youtube.com/channel/UCtqx6FxuF59htS5wSJ6UGzg", "Широта": 55.352001, "Долгота": 86.09118, "2GIS URL": "https://2gis.com/firm/70000001019674062" }, "geometry": { "type": "Point", "coordinates": [ 86.09118, 55.352001 ] } },
{ "type": "Feature", "properties": { "Наименование": "Кузбасский государственный технический университет им. Т.Ф. Горбачева", "Описание": "Институт энергетики", "Рубрики": "Университеты", "Адрес": "Красноармейская улица, 117", "Комментарий к адресу": "3 корпус; 3306 кабинет; 3 этаж", "Почтовый индекс": 650000, "Микрорайон": null, "Район": "Центральный район", "Город": "Кемерово", "Округ": "Кемеровский городской округ", "Регион": "Кемеровская область — Кузбасс", "Страна": "Россия", "Часы работы": "Пн: 08:00-12:30, 13:30-17:00; Вт: 08:00-12:30, 13:30-17:00; Ср: 08:00-12:30, 13:30-17:00; Чт: 08:00-12:30, 13:30-17:00; Пт: 08:00-12:30, 13:30-17:00", "Часовой пояс": "+07:00", "Рейтинг": 5.0, "Количество отзывов": 2, "Телефон 1": "83842396337", "Телефон 2": "83842396948", "Телефон 3": null, "E-mail": null, "Веб-сайт 1": "http://www.kuzstu.ru", "Веб-сайт 2": null, "Twitter": null, "ВКонтакте": "https://vk.com/news_kuzstu", "WhatsApp": null, "Telegram": "https://t.me/vkuzstu", "YouTube": "https://youtube.com/channel/UCL3YEvopoM5bNjCwBhApgEg", "Широта": 55.3489, "Долгота": 86.081039, "2GIS URL": "https://2gis.com/firm/704670989812437" }, "geometry": { "type": "Point", "coordinates": [ 86.081039, 55.3489 ] } },
{ "type": "Feature", "properties": { "Наименование": "КемГИК", "Описание": null, "Рубрики": "Институты", "Адрес": "Спортивная, 91", "Комментарий к адресу": "2 корпус", "Почтовый индекс": 650004, "Микрорайон": null, "Район": "Центральный район", "Город": "Кемерово", "Округ": "Кемеровский городской округ", "Регион": "Кемеровская область — Кузбасс", "Страна": "Россия", "Часы работы": "Пн: 08:30-17:15; Вт: 08:30-17:15; Ср: 08:30-17:15; Чт: 08:30-17:15; Пт: 08:30-16:15 (июль-август: пн-чт 8:30-17:15, перерыв: 13:00-13:30, пт 8:30-15:00, перерыв: 13:00-13:30)", "Часовой пояс": "+07:00", "Рейтинг": 3.1, "Количество отзывов": 9, "Телефон 1": null, "Телефон 2": null, "Телефон 3": null, "E-mail": null, "Веб-сайт 1": "http://www.kemguki.ru", "Веб-сайт 2": null, "Twitter": null, "ВКонтакте": "https://vk.com/kemgik", "WhatsApp": null, "Telegram": "https://t.me/kemgikkemerovo", "YouTube": null, "Широта": 55.341902, "Долгота": 86.118164, "2GIS URL": "https://2gis.com/firm/704215722755150" }, "geometry": { "type": "Point", "coordinates": [ 86.118164, 55.341902 ] } },
{ "type": "Feature", "properties": { "Наименование": "Кемеровский государственный университет", "Описание": null, "Рубрики": "Университеты", "Адрес": "Тухачевского, 33", "Комментарий к адресу": "12 корпус", "Почтовый индекс": 650070, "Микрорайон": "ФПК м-н", "Район": "Заводский район", "Город": "Кемерово", "Округ": "Кемеровский городской округ", "Регион": "Кемеровская область — Кузбасс", "Страна": "Россия", "Часы работы": "Пн: 08:30-12:00, 13:00-17:00; Вт: 08:30-12:00, 13:00-17:00; Ср: 08:30-12:00, 13:00-17:00; Чт: 08:30-12:00, 13:00-17:00; Пт: 08:30-12:00, 13:00-17:00", "Часовой пояс": "+07:00", "Рейтинг": 5.0, "Количество отзывов": 2, "Телефон 1": "83842544933", "Телефон 2": null, "Телефон 3": null, "E-mail": null, "Веб-сайт 1": "http://iit.kemsu.ru", "Веб-сайт 2": "http://kemsu.ru", "Twitter": null, "ВКонтакте": "https://vk.com/kemsu_ru", "WhatsApp": null, "Telegram": "https://t.me/kemsu_live", "YouTube": "https://youtube.com/channel/UCtqx6FxuF59htS5wSJ6UGzg", "Широта": 55.329749, "Долгота": 86.128835, "2GIS URL": "https://2gis.com/firm/704215723046678" }, "geometry": { "type": "Point", "coordinates": [ 86.128835, 55.329749 ] } },
{ "type": "Feature", "properties": { "Наименование": "Сибирский государственный университет физической культуры и спорта", "Описание": "представительство в г. Кемерово", "Рубрики": "Университеты", "Адрес": "Тухачевского, 19", "Комментарий к адресу": "201 офис; 2 этаж", "Почтовый индекс": 650070, "Микрорайон": null, "Район": "Заводский район", "Город": "Кемерово", "Округ": "Кемеровский городской округ", "Регион": "Кемеровская область — Кузбасс", "Страна": "Россия", "Часы работы": "Пн: 09:00-16:30; Вт: 09:00-16:30; Ср: 09:00-16:30; Чт: 09:00-16:30; Пт: 09:00-16:30", "Часовой пояс": "+07:00", "Рейтинг": null, "Количество отзывов": null, "Телефон 1": "83842319465", "Телефон 2": null, "Телефон 3": null, "E-mail": null, "Веб-сайт 1": "http://www.sibsport.ru", "Веб-сайт 2": null, "Twitter": null, "ВКонтакте": "https://vk.com/sibgufkps", "WhatsApp": null, "Telegram": null, "YouTube": "https://youtube.com/channel/UCqI4Ce95NIOtCfGX6AON8bA/featured", "Широта": 55.33604, "Долгота": 86.13123, "2GIS URL": "https://2gis.com/firm/704215723047562" }, "geometry": { "type": "Point", "coordinates": [ 86.13123, 55.33604 ] } }
]
}
