{
"type": "FeatureCollection",
"name": "city2",
"crs": { "type": "name", "properties": { "name": "urn:ogc:def:crs:OGC:1.3:CRS84" } },
"features": [
{ "type": "Feature", "properties": { "id": null, "population": 549362, "name": "Кемерово" }, "geometry": { "type": "MultiPolygon", "coordinates": [ [ [ [ 86.0724515, 55.5050429 ], [ 86.0711958, 55.5061064 ], [ 86.07164760000002, 55.5064343 ], [ 86.0724498, 55.506404 ], [ 86.0769327, 55.5092847 ], [ 86.0775906, 55.5103095 ], [ 86.0785646, 55.5101854 ], [ 86.079340299999984, 55.5124986 ], [ 86.0791289, 55.5129893 ], [ 86.0797507, 55.513334499999985 ], [ 86.078512900000021, 55.5142546 ], [ 86.0781402, 55.5144137 ], [ 86.074950199999989, 55.5149827 ], [ 86.0744476, 55.5151853 ], [ 86.0737716, 55.5155607 ], [ 86.073189099999979, 55.516344 ], [ 86.0731096, 55.5188156 ], [ 86.0727682, 55.5198784 ], [ 86.072704699999989, 55.5220863 ], [ 86.071869, 55.522033 ], [ 86.0715924, 55.5242765 ], [ 86.0713788, 55.5249839 ], [ 86.0708929, 55.5257162 ], [ 86.0704235, 55.5261876 ], [ 86.070824, 55.5260349 ], [ 86.0714837, 55.5259022 ], [ 86.0730157, 55.5257299 ], [ 86.0738641, 55.5257969 ], [ 86.074664399999989, 55.5259559 ], [ 86.0756877, 55.526266 ], [ 86.077901399999988, 55.5272115 ], [ 86.080338900000015, 55.5280767 ], [ 86.0814786, 55.5283308 ], [ 86.082878699999981, 55.5284809 ], [ 86.0840255, 55.5284903 ], [ 86.085490199999981, 55.5283635 ], [ 86.0870466, 55.5283464 ], [ 86.0867212, 55.5279761 ], [ 86.0868023, 55.5275747 ], [ 86.0863472, 55.5270498 ], [ 86.086301, 55.5262581 ], [ 86.0870501, 55.5259772 ], [ 86.0863556, 55.5252013 ], [ 86.086104599999985, 55.52499 ], [ 86.085929799999988, 55.5249159 ], [ 86.0857456, 55.5249346 ], [ 86.085739499999988, 55.5249222 ], [ 86.0851866, 55.5249224 ], [ 86.0850115, 55.5246975 ], [ 86.085048699999987, 55.524608 ], [ 86.084998699999986, 55.5244967 ], [ 86.0841599, 55.5234045 ], [ 86.0841693, 55.522649 ], [ 86.0836842, 55.5224943 ], [ 86.083356, 55.5220953 ], [ 86.0822975, 55.5198066 ], [ 86.0828708, 55.5197525 ], [ 86.083126299999989, 55.5198012 ], [ 86.08320879999998, 55.5201404 ], [ 86.0836863, 55.5209594 ], [ 86.0852842, 55.5218531 ], [ 86.0871566, 55.5222555 ], [ 86.0879822, 55.5229295 ], [ 86.088237099999986, 55.5236404 ], [ 86.089347599999982, 55.5245313 ], [ 86.0900468, 55.5256353 ], [ 86.0905761, 55.5268058 ], [ 86.090586, 55.527087 ], [ 86.0906888, 55.527259599999987 ], [ 86.091064299999985, 55.5274936 ], [ 86.091242, 55.5279195 ], [ 86.0917641, 55.5285015 ], [ 86.092161, 55.5286538 ], [ 86.0922874, 55.52879380000001 ], [ 86.0922655, 55.5290248 ], [ 86.093155599999989, 55.529370900000011 ], [ 86.093876899999984, 55.5299421 ], [ 86.0942253, 55.5306633 ], [ 86.094740699999988, 55.5314553 ], [ 86.0956133, 55.5320494 ], [ 86.0967355, 55.5331771 ], [ 86.0979218, 55.5338123 ], [ 86.0976579, 55.5340321 ], [ 86.098051, 55.5344222 ], [ 86.0987034, 55.534706 ], [ 86.099779699999985, 55.5350307 ], [ 86.101048799999987, 55.5351542 ], [ 86.1033104, 55.534902 ], [ 86.1052823, 55.5347572 ], [ 86.1074965, 55.5346853 ], [ 86.1076346, 55.5343283 ], [ 86.108126899999988, 55.5340394 ], [ 86.110120599999988, 55.5339854 ], [ 86.1116632, 55.5338708 ], [ 86.1124331, 55.5337857 ], [ 86.115214699999981, 55.5333417 ], [ 86.1208478, 55.5335118 ], [ 86.1230334, 55.5337469 ], [ 86.1264136, 55.5341808 ], [ 86.1278395, 55.5341716 ], [ 86.1286268, 55.5339053 ], [ 86.1297226, 55.5331057 ], [ 86.1300103, 55.5328515 ], [ 86.130676500000021, 55.532543 ], [ 86.1315538, 55.5323236 ], [ 86.1346485, 55.5318515 ], [ 86.136235, 55.5314177 ], [ 86.1378966, 55.5308833 ], [ 86.1391102, 55.5304279 ], [ 86.139557899999986, 55.5301535 ], [ 86.141363499999983, 55.5284719 ], [ 86.1410284, 55.5278269 ], [ 86.139389199999982, 55.527208 ], [ 86.134569099999979, 55.5257328 ], [ 86.1242356, 55.5287787 ], [ 86.123353099999989, 55.5289927 ], [ 86.1231856, 55.5287394 ], [ 86.1240501, 55.5284801 ], [ 86.1233664, 55.523815 ], [ 86.122303599999981, 55.5235931 ], [ 86.1215602, 55.5233447 ], [ 86.120846299999982, 55.5223786 ], [ 86.120951799999986, 55.5210726 ], [ 86.1213184, 55.5184906 ], [ 86.1178145, 55.5166288 ], [ 86.11674069999998, 55.515732 ], [ 86.1168333, 55.51554 ], [ 86.1147557, 55.5151057 ], [ 86.1135072, 55.5146306 ], [ 86.116810199999989, 55.5129918 ], [ 86.120236, 55.5128452 ], [ 86.1240785, 55.5126816 ], [ 86.123878599999983, 55.5136557 ], [ 86.1268742, 55.5140793 ], [ 86.1302573, 55.5143511 ], [ 86.130308, 55.5155968 ], [ 86.1273061, 55.5154358 ], [ 86.1217432, 55.5154171 ], [ 86.121904, 55.5159784 ], [ 86.1246223, 55.5165658 ], [ 86.1272217, 55.5181393 ], [ 86.133188299999986, 55.5204816 ], [ 86.1355515, 55.52026020000001 ], [ 86.1364227, 55.520574099999983 ], [ 86.1363533, 55.5216857 ], [ 86.139764, 55.5231155 ], [ 86.1429571, 55.5240127 ], [ 86.142145, 55.522911499999985 ], [ 86.1415471, 55.5218436 ], [ 86.1387015, 55.520386 ], [ 86.1399685, 55.519532 ], [ 86.145196499999983, 55.5207339 ], [ 86.1462211, 55.5214975 ], [ 86.1462443, 55.523374599999983 ], [ 86.1468809, 55.5245802 ], [ 86.1470661, 55.525261 ], [ 86.1481494, 55.5263563 ], [ 86.148916699999987, 55.5272543 ], [ 86.1500057, 55.5275206 ], [ 86.151917199999986, 55.5277597 ], [ 86.156192, 55.527850099999988 ], [ 86.157565199999979, 55.5268191 ], [ 86.1584678, 55.5259129 ], [ 86.159066599999989, 55.5255384 ], [ 86.1604315, 55.5249138 ], [ 86.161348099999984, 55.5246396 ], [ 86.163678599999983, 55.5248922 ], [ 86.1637014, 55.5250956 ], [ 86.16367289999998, 55.5252787 ], [ 86.1624009, 55.5251239 ], [ 86.161133899999982, 55.525215 ], [ 86.1598277, 55.5255988 ], [ 86.1590533, 55.5261301 ], [ 86.1586968, 55.5266244 ], [ 86.1586314, 55.5270342 ], [ 86.1586668, 55.527794900000011 ], [ 86.1585409, 55.5284895 ], [ 86.1574901, 55.5297797 ], [ 86.1577785, 55.529911 ], [ 86.1595722, 55.5294029 ], [ 86.159860599999988, 55.529465399999985 ], [ 86.1596583, 55.5298441 ], [ 86.1595219, 55.5297995 ], [ 86.1592511, 55.5299171 ], [ 86.1576605, 55.5302055 ], [ 86.1570674, 55.5303025 ], [ 86.15567489999998, 55.5307485 ], [ 86.1522831, 55.5315268 ], [ 86.1522515, 55.5329742 ], [ 86.1543388, 55.5347103 ], [ 86.1584489, 55.5377515 ], [ 86.1587689, 55.5387252 ], [ 86.1573878, 55.5413702 ], [ 86.157936899999982, 55.5428625 ], [ 86.1587065, 55.5437617 ], [ 86.1595208, 55.5449212 ], [ 86.1631287, 55.5431498 ], [ 86.1635601, 55.5430276 ], [ 86.1638616, 55.5428426 ], [ 86.162579899999983, 55.5418157 ], [ 86.16201479999998, 55.540791699999986 ], [ 86.161885, 55.5397338 ], [ 86.1624647, 55.5377797 ], [ 86.1644036, 55.5328233 ], [ 86.165767699999989, 55.5289928 ], [ 86.1658862, 55.528191 ], [ 86.1658006, 55.526315 ], [ 86.1666, 55.5261898 ], [ 86.1681992, 55.5288055 ], [ 86.169230899999988, 55.5286563 ], [ 86.168693499999989, 55.527831 ], [ 86.1695653, 55.5255898 ], [ 86.168011099999987, 55.5254414 ], [ 86.1672145, 55.5244433 ], [ 86.1658223, 55.5230005 ], [ 86.1665653, 55.5216422 ], [ 86.1629465, 55.514501 ], [ 86.161237, 55.5122554 ], [ 86.161326, 55.5102867 ], [ 86.164064499999981, 55.508498 ], [ 86.1660816, 55.5067886 ], [ 86.1669873, 55.505704199999983 ], [ 86.1682358, 55.505972 ], [ 86.168201599999989, 55.5060618 ], [ 86.1684502, 55.506248 ], [ 86.1687353, 55.5064492 ], [ 86.168974, 55.5065692 ], [ 86.1696795, 55.5067499 ], [ 86.1701441, 55.5069284 ], [ 86.171283299999985, 55.5071204 ], [ 86.1714992, 55.5071163 ], [ 86.1718789, 55.507181 ], [ 86.1720257, 55.5072204 ], [ 86.172206799999984, 55.5072535 ], [ 86.1725125, 55.5072933 ], [ 86.172749199999984, 55.5073065 ], [ 86.1727579, 55.507483 ], [ 86.172770699999987, 55.5074934 ], [ 86.1728032, 55.5075022 ], [ 86.17283879999998, 55.507526099999986 ], [ 86.1732166, 55.507454499999987 ], [ 86.173132199999984, 55.5074306 ], [ 86.1731097, 55.5074183 ], [ 86.173106, 55.5073964 ], [ 86.173115, 55.5073678 ], [ 86.1731315, 55.5073438 ], [ 86.1763159, 55.5073212 ], [ 86.176197, 55.5070853 ], [ 86.1772245, 55.5070522 ], [ 86.1780788, 55.5069223 ], [ 86.1792548, 55.5068194 ], [ 86.1804432, 55.5068646 ], [ 86.1810238, 55.5070241 ], [ 86.1815919, 55.5069701 ], [ 86.181987799999987, 55.5070763 ], [ 86.182082, 55.5070773 ], [ 86.182363599999988, 55.506996 ], [ 86.1825622, 55.506953 ], [ 86.1828196, 55.5069352 ], [ 86.1835986, 55.506978 ], [ 86.183822699999979, 55.5069383 ], [ 86.1842386, 55.50679490000001 ], [ 86.184431599999982, 55.5068122 ], [ 86.1845724, 55.5067476 ], [ 86.1847033, 55.5066267 ], [ 86.1850231, 55.5065293 ], [ 86.1852403, 55.5063451 ], [ 86.1854669, 55.5062395 ], [ 86.185869299999979, 55.5059942 ], [ 86.1860128, 55.505919 ], [ 86.186778, 55.5057623 ], [ 86.18695289999998, 55.5057793 ], [ 86.1870575, 55.5058203 ], [ 86.1871715, 55.5059016 ], [ 86.1872852, 55.5059125 ], [ 86.1874424, 55.5058947 ], [ 86.187557699999985, 55.5058636 ], [ 86.1876342, 55.5058188 ], [ 86.187771, 55.5055978 ], [ 86.1879721, 55.5055598 ], [ 86.188055799999987, 55.5055846 ], [ 86.1881963, 55.5055228 ], [ 86.188234499999979, 55.5054664 ], [ 86.188205899999986, 55.5053776 ], [ 86.188230399999981, 55.505317299999987 ], [ 86.1883362, 55.5052336 ], [ 86.1880613, 55.5051798 ], [ 86.1879208, 55.5051003 ], [ 86.1877958, 55.5049548 ], [ 86.188869399999987, 55.5047308 ], [ 86.1905781, 55.5042682 ], [ 86.192894, 55.5054937 ], [ 86.1931599, 55.5062586 ], [ 86.193874099999988, 55.5063675 ], [ 86.1939239, 55.5063748 ], [ 86.19395609999998, 55.5065995 ], [ 86.194031199999984, 55.5067879 ], [ 86.1943262, 55.5070066 ], [ 86.1952222, 55.5074046 ], [ 86.1954924, 55.5124569 ], [ 86.200267399999987, 55.5124532 ], [ 86.20393679999998, 55.5123899 ], [ 86.20384679999998, 55.5122573 ], [ 86.203703299999987, 55.5121707 ], [ 86.20357989999998, 55.5120431 ], [ 86.2038642, 55.511982399999987 ], [ 86.204084199999983, 55.5118336 ], [ 86.2038428, 55.5115207 ], [ 86.20342429999998, 55.5110256 ], [ 86.202272799999989, 55.5102995 ], [ 86.202051, 55.5100049 ], [ 86.201933, 55.5095462 ], [ 86.202045699999985, 55.5091787 ], [ 86.2018955, 55.5088475 ], [ 86.2020725, 55.508641 ], [ 86.202281699999986, 55.5085134 ], [ 86.202109299999989, 55.5081789 ], [ 86.201949099999979, 55.5077539 ], [ 86.202088299999986, 55.5068604 ], [ 86.2022388, 55.5067363 ], [ 86.202507, 55.5066725 ], [ 86.2025285, 55.5065509 ], [ 86.2024373, 55.5063626 ], [ 86.2025338, 55.5062684 ], [ 86.2026887, 55.5062494 ], [ 86.2028745, 55.5062076 ], [ 86.203294099999979, 55.5061986 ], [ 86.2033626, 55.5061271 ], [ 86.2033546, 55.5060436 ], [ 86.2032473, 55.5059813 ], [ 86.2029308, 55.5059616 ], [ 86.2028503, 55.5058461 ], [ 86.2030381, 55.5055742 ], [ 86.203013899999988, 55.5053184 ], [ 86.202694799999989, 55.5052355 ], [ 86.2025338, 55.5051565 ], [ 86.2022039, 55.5047714 ], [ 86.2020054, 55.5047707 ], [ 86.201619199999982, 55.5046826 ], [ 86.201450199999982, 55.5043939 ], [ 86.2015575, 55.5041813 ], [ 86.2014931, 55.5037924 ], [ 86.2006187, 55.5030572 ], [ 86.201151, 55.5023769 ], [ 86.2010479, 55.5019026 ], [ 86.2014019, 55.5011674 ], [ 86.201359, 55.5007238 ], [ 86.201584, 55.5004073 ], [ 86.201477, 55.5000735 ], [ 86.200790399999988, 55.4998548 ], [ 86.200595399999983, 55.499679099999987 ], [ 86.200790399999988, 55.4990207 ], [ 86.2009352, 55.4986363 ], [ 86.200971599999988, 55.4982917 ], [ 86.2009964, 55.4981779 ], [ 86.2008142, 55.4979279 ], [ 86.2009486, 55.4976927 ], [ 86.2009104, 55.4975162 ], [ 86.2007005, 55.4974729 ], [ 86.2003824, 55.4975918 ], [ 86.200191599999982, 55.4973648 ], [ 86.199969, 55.497339599999982 ], [ 86.199835399999984, 55.4972675 ], [ 86.1998799, 55.4970513 ], [ 86.1998545, 55.4969144 ], [ 86.19974, 55.496748699999984 ], [ 86.199911700000015, 55.4965649 ], [ 86.2000326, 55.496568499999988 ], [ 86.200352, 55.49653 ], [ 86.200058, 55.496273 ], [ 86.1999831, 55.4961781 ], [ 86.199983399999979, 55.4960539 ], [ 86.2001725, 55.4960172 ], [ 86.200272699999985, 55.4959532 ], [ 86.200250499999981, 55.495897 ], [ 86.200076899999985, 55.4958575 ], [ 86.1999549, 55.4957962 ], [ 86.2000008, 55.4956569 ], [ 86.1999626, 55.495556 ], [ 86.1999378, 55.4954322 ], [ 86.20001259999998, 55.4953819 ], [ 86.2004622, 55.4954015 ], [ 86.200624099999985, 55.4953698 ], [ 86.2006831, 55.4952816 ], [ 86.200624199999979, 55.495174 ], [ 86.2005446, 55.4951077 ], [ 86.2005597, 55.4950598 ], [ 86.20064069999998, 55.4950322 ], [ 86.2008786, 55.4950155 ], [ 86.200967, 55.4949685 ], [ 86.2009486, 55.4948965 ], [ 86.200821299999987, 55.4948677 ], [ 86.2007959, 55.4948173 ], [ 86.2008756, 55.4946915 ], [ 86.201021, 55.4946708 ], [ 86.2010503, 55.4946083 ], [ 86.200942199999986, 55.4945362 ], [ 86.200757699999983, 55.4945722 ], [ 86.2006804, 55.4945493 ], [ 86.2006496, 55.494495 ], [ 86.2006054, 55.4941063 ], [ 86.2007073, 55.4940433 ], [ 86.2008968, 55.4939546 ], [ 86.200950399999982, 55.4934786 ], [ 86.200933699999979, 55.493369 ], [ 86.200846699999985, 55.4929705 ], [ 86.20087239999998, 55.4928576 ], [ 86.2009997, 55.4927998 ], [ 86.2011167, 55.4926428 ], [ 86.2008212, 55.49228 ], [ 86.200661, 55.4922381 ], [ 86.200605300000021, 55.4922002 ], [ 86.2006426, 55.49213 ], [ 86.2008643, 55.4919242 ], [ 86.2010613, 55.4918544 ], [ 86.201055199999985, 55.4917811 ], [ 86.20095, 55.4917641 ], [ 86.2008599, 55.4917297 ], [ 86.200839599999981, 55.4916172 ], [ 86.2008896, 55.4915832 ], [ 86.200973800000014, 55.4915736 ], [ 86.201072, 55.4915787 ], [ 86.2011437, 55.491538499999983 ], [ 86.2011426, 55.4913129 ], [ 86.201328, 55.491232099999984 ], [ 86.201422399999984, 55.4911319 ], [ 86.201502, 55.4909764 ], [ 86.2016994, 55.4907844 ], [ 86.201799, 55.4905626 ], [ 86.2021477, 55.4903 ], [ 86.2026633, 55.490132 ], [ 86.2034524, 55.4898945 ], [ 86.2041215, 55.4896858 ], [ 86.2047252, 55.48954160000001 ], [ 86.2056828, 55.4892491 ], [ 86.2057115, 55.4891523 ], [ 86.203449399999982, 55.4881938 ], [ 86.205693699999983, 55.4848389 ], [ 86.2027407, 55.48266 ], [ 86.1978982, 55.4834023 ], [ 86.19665, 55.4828219 ], [ 86.1914684, 55.48423240000001 ], [ 86.190996699999985, 55.4854957 ], [ 86.1870973, 55.4844207 ], [ 86.1847423, 55.4851573 ], [ 86.181119, 55.4839544 ], [ 86.1775136, 55.482191699999987 ], [ 86.1765691, 55.483510799999983 ], [ 86.1707971, 55.4838459 ], [ 86.1701108, 55.4811566 ], [ 86.168597, 55.48031790000001 ], [ 86.1674388, 55.4809819 ], [ 86.1626712, 55.4798474 ], [ 86.1623659, 55.4787235 ], [ 86.159464, 55.4790518 ], [ 86.155571099999989, 55.4760642 ], [ 86.156293299999987, 55.4738427 ], [ 86.1583446, 55.4740644 ], [ 86.158374, 55.4739746 ], [ 86.1584075, 55.4733475 ], [ 86.1584615, 55.4732185 ], [ 86.1597799, 55.4729921 ], [ 86.159709, 55.472843 ], [ 86.1607158, 55.4726443 ], [ 86.1636265, 55.4723781 ], [ 86.1653449, 55.4718942 ], [ 86.165526699999987, 55.4716619 ], [ 86.1637555, 55.4689882 ], [ 86.1635828, 55.4685706 ], [ 86.163674, 55.4683273 ], [ 86.163834499999979, 55.4681631 ], [ 86.16497219999998, 55.4676781 ], [ 86.166232799999989, 55.4670289 ], [ 86.1669779, 55.4666967 ], [ 86.1678061, 55.4658384 ], [ 86.169114, 55.4650385 ], [ 86.1696395, 55.4644297 ], [ 86.16971239999998, 55.4637458 ], [ 86.1698163, 55.4636106 ], [ 86.1712768, 55.4628797 ], [ 86.1718956, 55.4621626 ], [ 86.1725771, 55.4615781 ], [ 86.1762252, 55.4604162 ], [ 86.1783933, 55.4600454 ], [ 86.179101, 55.4602561 ], [ 86.1800252, 55.460289 ], [ 86.180459299999981, 55.4602499 ], [ 86.183455399999986, 55.4594005 ], [ 86.18452569999998, 55.4591088 ], [ 86.184815200000017, 55.45945 ], [ 86.18517989999998, 55.4601252 ], [ 86.1855861, 55.4606907 ], [ 86.185448199999982, 55.4611046 ], [ 86.1854838, 55.461245 ], [ 86.1863993, 55.4613022 ], [ 86.1865801, 55.4614148 ], [ 86.1869341, 55.4617828 ], [ 86.187259499999982, 55.4622385 ], [ 86.1876529, 55.4625127 ], [ 86.1882484, 55.46268 ], [ 86.1885649, 55.4628777 ], [ 86.188709799999984, 55.4630163 ], [ 86.188978, 55.4636289 ], [ 86.188951099999983, 55.4640881 ], [ 86.189128199999985, 55.4644226 ], [ 86.190094499999987, 55.4653238 ], [ 86.1902627, 55.465319799999989 ], [ 86.1906091, 55.465062099999983 ], [ 86.1908173, 55.4637743 ], [ 86.1916065, 55.4636411 ], [ 86.1922918, 55.4634527 ], [ 86.1924541, 55.4633704 ], [ 86.1924541, 55.463215299999987 ], [ 86.1923361, 55.4630085 ], [ 86.1920947, 55.4627469 ], [ 86.191917299999986, 55.4624297 ], [ 86.1919606, 55.4622998 ], [ 86.1927854, 55.4621129 ], [ 86.1932158, 55.4618984 ], [ 86.1933745, 55.461683 ], [ 86.1934805, 55.4614885 ], [ 86.1934948, 55.4606818 ], [ 86.193795899999984, 55.4597327 ], [ 86.193623499999987, 55.4595428 ], [ 86.1930458, 55.4590873 ], [ 86.1925971, 55.4584367 ], [ 86.1927491, 55.458282 ], [ 86.193140699999987, 55.4580934 ], [ 86.1935897, 55.458019899999989 ], [ 86.1947688, 55.4579048 ], [ 86.1953976, 55.45779120000001 ], [ 86.19622870000002, 55.4573604 ], [ 86.1971104, 55.4570471 ], [ 86.197443, 55.4569954 ], [ 86.1976742, 55.45699470000001 ], [ 86.197920399999987, 55.4570471 ], [ 86.1985896, 55.4574528 ], [ 86.199165, 55.4580356 ], [ 86.20003939999998, 55.4587078 ], [ 86.2005007, 55.4590059 ], [ 86.20070819999998, 55.4589768 ], [ 86.2008414, 55.4588478 ], [ 86.2007958, 55.4587641 ], [ 86.2005141, 55.4586196 ], [ 86.2003103, 55.4584752 ], [ 86.2001252, 55.4582896 ], [ 86.1999804, 55.4580645 ], [ 86.198687799999988, 55.4567972 ], [ 86.198510499999983, 55.4566182 ], [ 86.1984569, 55.4562775 ], [ 86.1966292, 55.4554474 ], [ 86.1957526, 55.4552603 ], [ 86.1917482, 55.4569338 ], [ 86.1914241, 55.4569467 ], [ 86.19086489999998, 55.4568405 ], [ 86.1893642, 55.4556144 ], [ 86.1889887, 55.4552342 ], [ 86.1880928, 55.4546288 ], [ 86.187685099999982, 55.4544159 ], [ 86.187000699999984, 55.4539955 ], [ 86.1862528, 55.4543246 ], [ 86.185873499999985, 55.4543645 ], [ 86.184665, 55.4543185 ], [ 86.1843753, 55.454349 ], [ 86.1834168, 55.45470060000001 ], [ 86.182782, 55.4542851 ], [ 86.1827177, 55.454292700000011 ], [ 86.182682799999981, 55.4541482 ], [ 86.1826908, 55.4539642 ], [ 86.1829591, 55.4535732 ], [ 86.183286599999988, 55.4532621 ], [ 86.1843216, 55.4528219 ], [ 86.1873472, 55.4517602 ], [ 86.1893509, 55.4511564 ], [ 86.1889148, 55.4506363 ], [ 86.1877066, 55.4497553 ], [ 86.187502699999982, 55.4497401 ], [ 86.187277399999985, 55.4499227 ], [ 86.1869556, 55.4500961 ], [ 86.186397700000015, 55.4502543 ], [ 86.186277, 55.4502269 ], [ 86.186242099999987, 55.450185799999986 ], [ 86.1862689, 55.4500961 ], [ 86.1863252, 55.4500367 ], [ 86.1865076, 55.449974399999988 ], [ 86.1868107, 55.4498922 ], [ 86.1871272, 55.4497736 ], [ 86.1873257, 55.4496154 ], [ 86.1873311, 55.4494298 ], [ 86.186929599999985, 55.4490384 ], [ 86.1955528, 55.4473442 ], [ 86.2009394, 55.4473845 ], [ 86.2018119, 55.446759299999989 ], [ 86.1980251, 55.4464299 ], [ 86.19989649999998, 55.445676 ], [ 86.19744, 55.4399188 ], [ 86.1984891, 55.4380558 ], [ 86.200416899999979, 55.4371612 ], [ 86.2139601, 55.4331378 ], [ 86.215315499999988, 55.4328504 ], [ 86.2155452, 55.432847099999989 ], [ 86.2160575, 55.4329232 ], [ 86.216938099999979, 55.43318 ], [ 86.219527899999989, 55.4345828 ], [ 86.2239048, 55.4327 ], [ 86.2293166, 55.43332 ], [ 86.2330679, 55.4325761 ], [ 86.2361673, 55.4337896 ], [ 86.236563, 55.4337099 ], [ 86.2366247, 55.4336582 ], [ 86.2367615, 55.4335973 ], [ 86.236972800000018, 55.43355 ], [ 86.2373006, 55.4335608 ], [ 86.237858499999987, 55.4334238 ], [ 86.2384416, 55.4334289 ], [ 86.2394218, 55.4335801 ], [ 86.239765599999984, 55.4335517 ], [ 86.2403389, 55.4333131 ], [ 86.2406722, 55.4330738 ], [ 86.2410477, 55.4329125 ], [ 86.2413776, 55.432662899999983 ], [ 86.2416541, 55.432498099999982 ], [ 86.241673299999988, 55.432366 ], [ 86.241393699999989, 55.4320892 ], [ 86.2412462, 55.4320162 ], [ 86.2411442, 55.4318001 ], [ 86.2410324, 55.4316486 ], [ 86.2417987, 55.4313907 ], [ 86.2419531, 55.4313668 ], [ 86.2421125, 55.431412 ], [ 86.242205399999989, 55.4314165 ], [ 86.242723499999983, 55.4312143 ], [ 86.2433714, 55.4311935 ], [ 86.243608699999982, 55.4312816 ], [ 86.2435814, 55.431483499999985 ], [ 86.2433076, 55.4316906 ], [ 86.2434353, 55.4319754 ], [ 86.2436698, 55.4321122 ], [ 86.2442749, 55.4319133 ], [ 86.244749499999983, 55.4319703 ], [ 86.245032399999985, 55.4321774 ], [ 86.2453245, 55.432167 ], [ 86.2462371, 55.4312143 ], [ 86.246629499999983, 55.4312453 ], [ 86.2468029, 55.4311003 ], [ 86.2467208, 55.4309243 ], [ 86.2465017, 55.430903599999986 ], [ 86.246638599999983, 55.4306913 ], [ 86.2469033, 55.4304789 ], [ 86.2473322, 55.4304686 ], [ 86.247761199999985, 55.430365 ], [ 86.248117099999988, 55.4304013 ], [ 86.248281399999982, 55.4305307 ], [ 86.2485187, 55.4305152 ], [ 86.2487468, 55.4304168 ], [ 86.2488016, 55.4302304 ], [ 86.2485917, 55.430044 ], [ 86.2485369, 55.4297643 ], [ 86.2491751, 55.429267 ], [ 86.2494993, 55.4292144 ], [ 86.2505937, 55.429066299999988 ], [ 86.2503178, 55.4289316 ], [ 86.250030399999986, 55.4288643 ], [ 86.249600699999988, 55.428864 ], [ 86.2493166, 55.4287586 ], [ 86.2487143, 55.4287482 ], [ 86.2485203, 55.4286908 ], [ 86.2483857, 55.4285618 ], [ 86.2480402, 55.428461 ], [ 86.2475484, 55.428412 ], [ 86.247211399999983, 55.4284366 ], [ 86.2470679, 55.4284068 ], [ 86.246551400000016, 55.4282563 ], [ 86.245928, 55.4279066 ], [ 86.2441384, 55.4271088 ], [ 86.2422895, 55.4264702 ], [ 86.242186099999984, 55.4264022 ], [ 86.241864399999983, 55.4260958 ], [ 86.244572799999986, 55.4245743 ], [ 86.245172899999986, 55.4250227 ], [ 86.245548699999986, 55.4253029 ], [ 86.2458202, 55.4254386 ], [ 86.2463029, 55.4255837 ], [ 86.24695029999998, 55.4258236 ], [ 86.24825, 55.4264039 ], [ 86.248706399999989, 55.4266723 ], [ 86.2490409, 55.4268337 ], [ 86.249408799999983, 55.4269869 ], [ 86.2495402, 55.4271713 ], [ 86.2496907, 55.4272838 ], [ 86.2503215, 55.4274506 ], [ 86.25049079999998, 55.4276032 ], [ 86.250804099999982, 55.4277271 ], [ 86.2509928, 55.4278939 ], [ 86.2511362, 55.4279508 ], [ 86.2512843, 55.4279671 ], [ 86.2514707, 55.4280945 ], [ 86.251697299999989, 55.4281708 ], [ 86.2518458, 55.4281704 ], [ 86.252197, 55.4281108 ], [ 86.2526022, 55.4281249 ], [ 86.252746499999986, 55.4280783 ], [ 86.2528683, 55.42794 ], [ 86.2533876, 55.4278834 ], [ 86.253508599999989, 55.427824699999988 ], [ 86.2536324, 55.4275385 ], [ 86.2537261, 55.4275116 ], [ 86.254319099999989, 55.4274737 ], [ 86.2545981, 55.4273285 ], [ 86.2548165, 55.4271166 ], [ 86.2550306, 55.4270167 ], [ 86.255424799999986, 55.4269028 ], [ 86.255645499999986, 55.4267572 ], [ 86.2558067, 55.4264224 ], [ 86.2558067, 55.4259667 ], [ 86.2564364, 55.4254436 ], [ 86.2568744, 55.4254436 ], [ 86.2572895, 55.4253224 ], [ 86.257695799999979, 55.4249723 ], [ 86.257905699999981, 55.4246823 ], [ 86.2578144, 55.4246046 ], [ 86.2569292, 55.4243405 ], [ 86.256792299999987, 55.4241333 ], [ 86.2569474, 55.4238588 ], [ 86.2573307, 55.4236827 ], [ 86.2573216, 55.4232995 ], [ 86.2578053, 55.4227505 ], [ 86.2576748, 55.4222378 ], [ 86.2580335, 55.42187 ], [ 86.2580335, 55.4214194 ], [ 86.25901, 55.4211397 ], [ 86.2594845, 55.4208548 ], [ 86.2597401, 55.4208185 ], [ 86.26057059999998, 55.4208807 ], [ 86.261346299999985, 55.4206114 ], [ 86.2613919, 55.4204404 ], [ 86.2612303, 55.419792 ], [ 86.2615133, 55.4194829 ], [ 86.261576099999985, 55.4189878 ], [ 86.263901, 55.4191826 ], [ 86.2661984, 55.4192192 ], [ 86.2669986, 55.4197759 ], [ 86.2674503, 55.4197613 ], [ 86.267792, 55.4196376 ], [ 86.2681031, 55.4196249 ], [ 86.2683043, 55.4197193 ], [ 86.268459899999982, 55.4198533 ], [ 86.268833, 55.4199418 ], [ 86.2693423, 55.419838 ], [ 86.2696476, 55.4198631 ], [ 86.27035859999998, 55.4202365 ], [ 86.271036099999989, 55.4202207 ], [ 86.2748644, 55.4210133 ], [ 86.2751761, 55.4210543 ], [ 86.2753853, 55.421011699999987 ], [ 86.275852, 55.4207987 ], [ 86.276289199999979, 55.4207697 ], [ 86.27685959999998, 55.4206469 ], [ 86.2770483, 55.4206311 ], [ 86.2777917, 55.4207614 ], [ 86.277992399999988, 55.4207438 ], [ 86.278266, 55.4205611 ], [ 86.2788338, 55.4203326 ], [ 86.2787047, 55.4199297 ], [ 86.2787971, 55.419742099999986 ], [ 86.2789629, 55.4196001 ], [ 86.279285499999986, 55.4195049 ], [ 86.279538799999983, 55.4193049 ], [ 86.2795669, 55.4191591 ], [ 86.2800969, 55.418668 ], [ 86.280449299999987, 55.4184877 ], [ 86.280603099999979, 55.4184647 ], [ 86.2813693, 55.4187313 ], [ 86.281720199999981, 55.4188129 ], [ 86.281895, 55.4188242 ], [ 86.282003599999982, 55.4187646 ], [ 86.2820104, 55.4186613 ], [ 86.2817636, 55.4180545 ], [ 86.2819572, 55.4177834 ], [ 86.282467, 55.4176285 ], [ 86.2835365, 55.4176428 ], [ 86.2847382, 55.4175575 ], [ 86.2850805, 55.4174831 ], [ 86.2855697, 55.4169455 ], [ 86.285876699999989, 55.4168189 ], [ 86.2866551, 55.4168384 ], [ 86.2872101, 55.4166406 ], [ 86.2877047, 55.416138599999982 ], [ 86.2878227, 55.4158052 ], [ 86.2881295, 55.4156213 ], [ 86.28816519999998, 55.4146406 ], [ 86.2891317, 55.4141974 ], [ 86.2889492, 55.413861 ], [ 86.288876799999983, 55.4136417 ], [ 86.288969699999981, 55.4134507 ], [ 86.289259799999982, 55.4130288 ], [ 86.2883492, 55.4131454 ], [ 86.289337099999983, 55.4122186 ], [ 86.2904559, 55.411169 ], [ 86.2903851, 55.4101201 ], [ 86.290783200000021, 55.4087727 ], [ 86.2897719, 55.4082043 ], [ 86.29204009999998, 55.4052127 ], [ 86.2907361, 55.4046748 ], [ 86.28968159999998, 55.4043766 ], [ 86.2897183, 55.4043203 ], [ 86.289286, 55.404178 ], [ 86.2901831, 55.4032292 ], [ 86.29117, 55.4009283 ], [ 86.290243099999984, 55.4008431 ], [ 86.288992799999988, 55.4004864 ], [ 86.2868369, 55.3994203 ], [ 86.2863454, 55.3989083 ], [ 86.285282199999983, 55.398354299999987 ], [ 86.28163069999998, 55.3976025 ], [ 86.2793863, 55.3967635 ], [ 86.2784982, 55.3967388 ], [ 86.27798, 55.3967892 ], [ 86.2775996, 55.3969078 ], [ 86.2772919, 55.3972566 ], [ 86.276960200000019, 55.3973051 ], [ 86.2752486, 55.3971613 ], [ 86.2746892, 55.3972261 ], [ 86.273892099999983, 55.3975163 ], [ 86.273543, 55.3975316 ], [ 86.2728407, 55.3974319 ], [ 86.272299, 55.3974604 ], [ 86.2716067, 55.3975658 ], [ 86.2712806, 55.3975544 ], [ 86.2706248, 55.3974998 ], [ 86.2685081, 55.3978668 ], [ 86.267826499999984, 55.3977284 ], [ 86.265662400000011, 55.3964365 ], [ 86.258566499999986, 55.400411199999986 ], [ 86.256029199999986, 55.3993512 ], [ 86.25275689999998, 55.3980461 ], [ 86.2526722, 55.3974161 ], [ 86.247553899999986, 55.398605899999986 ], [ 86.2473847, 55.3985649 ], [ 86.2468197, 55.3977033 ], [ 86.246278, 55.396716499999989 ], [ 86.2459601, 55.3959752 ], [ 86.2456123, 55.3948157 ], [ 86.245535, 55.3944042 ], [ 86.2456737, 55.3929108 ], [ 86.245778499999986, 55.3914417 ], [ 86.245946299999986, 55.390742099999983 ], [ 86.2463616, 55.3903722 ], [ 86.247021, 55.389959 ], [ 86.247844199999989, 55.3895358 ], [ 86.248945899999981, 55.3887823 ], [ 86.24955869999998, 55.3881934 ], [ 86.2502531, 55.3876347 ], [ 86.2547461, 55.3857444 ], [ 86.2553011, 55.3854829 ], [ 86.255480799999987, 55.3853529 ], [ 86.2556014, 55.3852586 ], [ 86.25561, 55.3851896 ], [ 86.254953400000019, 55.3847962 ], [ 86.2523961, 55.3853183 ], [ 86.2507987, 55.3855886 ], [ 86.2467134, 55.3856686 ], [ 86.2433484, 55.385349 ], [ 86.2388827, 55.3850408 ], [ 86.24395, 55.3907337 ], [ 86.2434746, 55.3909672 ], [ 86.2404892, 55.3892755 ], [ 86.2382355, 55.3884062 ], [ 86.2337633, 55.3871075 ], [ 86.2313565, 55.3868489 ], [ 86.2295568, 55.3871069 ], [ 86.2281232, 55.3871625 ], [ 86.2268322, 55.3872215 ], [ 86.226378, 55.387661 ], [ 86.2253689, 55.3877279 ], [ 86.2246457, 55.3876228 ], [ 86.2248475, 55.38798580000001 ], [ 86.2252714, 55.3882533 ], [ 86.226148699999982, 55.3898109 ], [ 86.226041699999982, 55.3906989 ], [ 86.2253689, 55.3919217 ], [ 86.2268815, 55.3946934 ], [ 86.2283571, 55.3961209 ], [ 86.228088, 55.3971143 ], [ 86.2295207, 55.3997797 ], [ 86.230636499999989, 55.4006703 ], [ 86.2305003, 55.4011571 ], [ 86.2288946, 55.4021067 ], [ 86.2285218, 55.402536199999986 ], [ 86.2256849, 55.4040227 ], [ 86.225284299999984, 55.4041505 ], [ 86.224664099999984, 55.4042708 ], [ 86.223295799999988, 55.405555899999989 ], [ 86.222111199999986, 55.4076531 ], [ 86.2210457, 55.4099177 ], [ 86.2208006, 55.410691 ], [ 86.220333, 55.4113548 ], [ 86.219710699999979, 55.4116197 ], [ 86.2190509, 55.4122592 ], [ 86.2174606, 55.4133859 ], [ 86.217346599999985, 55.4179912 ], [ 86.215744799999982, 55.41855730000001 ], [ 86.2129365, 55.4190213 ], [ 86.212101, 55.4189637 ], [ 86.2111913, 55.4183811 ], [ 86.2105264, 55.4181183 ], [ 86.2097921, 55.41704330000001 ], [ 86.2094754, 55.4169029 ], [ 86.2091374, 55.4168298 ], [ 86.2081464, 55.4163122 ], [ 86.2040776, 55.4179039 ], [ 86.2014962, 55.416323699999985 ], [ 86.1954664, 55.4168465 ], [ 86.1854775, 55.4173277 ], [ 86.1744708, 55.417858 ], [ 86.174056799999988, 55.4179488 ], [ 86.173625, 55.4181026 ], [ 86.173389, 55.4183096 ], [ 86.1732843, 55.4185699 ], [ 86.17312339999998, 55.4187708 ], [ 86.172536, 55.4187663 ], [ 86.172141499999981, 55.4189759 ], [ 86.172144399999979, 55.419323499999983 ], [ 86.171287399999983, 55.419682 ], [ 86.17057269999998, 55.419561 ], [ 86.1698424, 55.4196907 ], [ 86.169428599999989, 55.4197162 ], [ 86.168963299999987, 55.4196843 ], [ 86.1685884, 55.4196982 ], [ 86.1685301, 55.4198396 ], [ 86.168531499999986, 55.4199937 ], [ 86.1686381, 55.4201379 ], [ 86.1689514, 55.4202424 ], [ 86.1682981, 55.4204873 ], [ 86.1673057, 55.4209268 ], [ 86.164250899999985, 55.4203683 ], [ 86.1533338, 55.4202115 ], [ 86.144212599999989, 55.4176526 ], [ 86.138373699999988, 55.4202454 ], [ 86.136021299999982, 55.4171765 ], [ 86.1357312, 55.4167894 ], [ 86.1366105, 55.4148605 ], [ 86.136347599999979, 55.4143573 ], [ 86.1365368, 55.4137709 ], [ 86.1410354, 55.4079753 ], [ 86.1410804, 55.4065479 ], [ 86.1417995, 55.4058781 ], [ 86.1418432, 55.4058375 ], [ 86.143821799999984, 55.4039946 ], [ 86.1453619, 55.4028682 ], [ 86.1464634, 55.4020625 ], [ 86.147064, 55.4025037 ], [ 86.1470696, 55.402700699999983 ], [ 86.147241199999982, 55.4027965 ], [ 86.1473814, 55.403059599999985 ], [ 86.147718499999982, 55.4031263 ], [ 86.1483268, 55.4035147 ], [ 86.149026, 55.4038246 ], [ 86.149294199999986, 55.4038905 ], [ 86.1604722, 55.4104314 ], [ 86.1626696, 55.4117353 ], [ 86.1643338, 55.4122877 ], [ 86.1730881, 55.4129802 ], [ 86.175193299999989, 55.4123581 ], [ 86.177425099999979, 55.4110721 ], [ 86.1791344, 55.4097372 ], [ 86.180734799999982, 55.4090884 ], [ 86.184972, 55.4106053 ], [ 86.1851682, 55.4106306 ], [ 86.185251399999984, 55.4104504 ], [ 86.185378699999987, 55.4103781 ], [ 86.1855541, 55.4103575 ], [ 86.1857554, 55.4103051 ], [ 86.186258099999989, 55.4101528 ], [ 86.1870099, 55.41026870000001 ], [ 86.187189499999988, 55.4102285 ], [ 86.1873205, 55.4099853 ], [ 86.187601, 55.4098588 ], [ 86.188197799999983, 55.409522 ], [ 86.188575699999987, 55.4094735 ], [ 86.1889755, 55.40921190000001 ], [ 86.18898, 55.409027 ], [ 86.1888865, 55.408792299999988 ], [ 86.1891078, 55.408248 ], [ 86.189191199999982, 55.4081769 ], [ 86.1893387, 55.4081191 ], [ 86.1894487, 55.4080962 ], [ 86.1895157, 55.4080642 ], [ 86.189516, 55.4079968 ], [ 86.189411099999987, 55.4079569 ], [ 86.189222, 55.4079516 ], [ 86.1891295, 55.4079054 ], [ 86.189015499999982, 55.4077094 ], [ 86.1890008, 55.407455099999986 ], [ 86.1889672, 55.4074072 ], [ 86.1888747, 55.4073721 ], [ 86.1887178, 55.407343199999985 ], [ 86.1886602, 55.4072731 ], [ 86.1886454, 55.4072221 ], [ 86.1886802, 55.4071993 ], [ 86.1887594, 55.407197 ], [ 86.1888345, 55.407149 ], [ 86.1888318, 55.407044 ], [ 86.188851, 55.4070107 ], [ 86.1889203, 55.4069983 ], [ 86.189070499999985, 55.4070166 ], [ 86.1891763, 55.4069982 ], [ 86.189189299999981, 55.4069293 ], [ 86.189329299999983, 55.4068696 ], [ 86.1894021, 55.4068055 ], [ 86.1893722, 55.4067128 ], [ 86.1892985, 55.40664120000001 ], [ 86.1891813, 55.406611 ], [ 86.1890504, 55.4066587 ], [ 86.188979299999986, 55.4066557 ], [ 86.1889435, 55.4066223 ], [ 86.188973899999979, 55.4065651 ], [ 86.1889981, 55.4065178 ], [ 86.188971199999983, 55.4064927 ], [ 86.1889203, 55.4064714 ], [ 86.1889072, 55.4064106 ], [ 86.1889766, 55.4063404 ], [ 86.1890946, 55.4063343 ], [ 86.1891694, 55.4063003 ], [ 86.1891158, 55.4061362 ], [ 86.1889446, 55.4060268 ], [ 86.189276399999983, 55.4059143 ], [ 86.1895494, 55.4059842 ], [ 86.18980089999998, 55.4061179 ], [ 86.1902612, 55.405963 ], [ 86.190399, 55.4058602 ], [ 86.1903201, 55.4055983 ], [ 86.1902125, 55.4053229 ], [ 86.190255900000011, 55.4051698 ], [ 86.1903837, 55.4048105 ], [ 86.190228399999981, 55.4042222 ], [ 86.19008070000001, 55.4038251 ], [ 86.190518499999982, 55.4034079 ], [ 86.1912959, 55.40276020000001 ], [ 86.191504199999983, 55.4025945 ], [ 86.191780599999987, 55.4025024 ], [ 86.191521, 55.4020964 ], [ 86.191851199999988, 55.4016876 ], [ 86.1915853, 55.4015346 ], [ 86.191547699999987, 55.4013718 ], [ 86.1918513, 55.4011006 ], [ 86.1918548, 55.4009157 ], [ 86.1916991, 55.4008085 ], [ 86.191293, 55.4006398 ], [ 86.1909618, 55.4003458 ], [ 86.191139699999979, 55.4001066 ], [ 86.191048099999989, 55.3997383 ], [ 86.1910791, 55.3996119 ], [ 86.1907758, 55.3994612 ], [ 86.1911374, 55.3992201 ], [ 86.1911645, 55.3989713 ], [ 86.191467799999984, 55.3987614 ], [ 86.1918863, 55.398733 ], [ 86.192098099999981, 55.3986398 ], [ 86.191919, 55.3982322 ], [ 86.192478599999987, 55.3980315 ], [ 86.1927001, 55.3979324 ], [ 86.192751, 55.3977999 ], [ 86.19252, 55.3975125 ], [ 86.191818499999982, 55.3974425 ], [ 86.191407499999983, 55.3971783 ], [ 86.1911265, 55.3971949 ], [ 86.190781, 55.3969861 ], [ 86.1906336, 55.3965866 ], [ 86.190084, 55.3965463 ], [ 86.1898945, 55.3965102 ], [ 86.189907, 55.3963783 ], [ 86.1901224, 55.3963084 ], [ 86.190472, 55.39629750000001 ], [ 86.1905207, 55.396205 ], [ 86.1903459, 55.3959709 ], [ 86.1903369, 55.3958707 ], [ 86.1906971, 55.3957581 ], [ 86.1908396, 55.3955014 ], [ 86.1907643, 55.395324 ], [ 86.1906184, 55.3952806 ], [ 86.1903637, 55.3953454 ], [ 86.190216199999981, 55.3953282 ], [ 86.1902028, 55.3952464 ], [ 86.190347, 55.3951379 ], [ 86.1903942, 55.3949831 ], [ 86.1903242, 55.3948372 ], [ 86.1902062, 55.3947591 ], [ 86.1898865, 55.3947567 ], [ 86.189421, 55.3948313 ], [ 86.189149, 55.3948163 ], [ 86.189023599999985, 55.394722599999987 ], [ 86.1889644, 55.3945841 ], [ 86.18881930000002, 55.3945341 ], [ 86.1885676, 55.3944849 ], [ 86.188503199999985, 55.394431599999983 ], [ 86.1885783, 55.3943417 ], [ 86.188699, 55.3943372 ], [ 86.1888992, 55.3942866 ], [ 86.189067399999985, 55.3941435 ], [ 86.1890377, 55.394002 ], [ 86.1888997, 55.3938622 ], [ 86.1886936, 55.393794899999989 ], [ 86.1885247, 55.3936837 ], [ 86.188431599999987, 55.3935313 ], [ 86.1882768, 55.3933668 ], [ 86.1880875, 55.3933485 ], [ 86.187893299999985, 55.3933032 ], [ 86.1878246, 55.3932313 ], [ 86.1878316, 55.3930601 ], [ 86.1881378, 55.3929357 ], [ 86.188291299999989, 55.3928108 ], [ 86.1883056, 55.3926769 ], [ 86.1881492, 55.3925884 ], [ 86.187902399999984, 55.3925549 ], [ 86.187708199999989, 55.3924462 ], [ 86.187802, 55.3923343 ], [ 86.187767899999983, 55.392057 ], [ 86.187959599999985, 55.391768 ], [ 86.1881572, 55.3917185 ], [ 86.188317899999987, 55.391783599999989 ], [ 86.1884411, 55.3917297 ], [ 86.18837, 55.3916301 ], [ 86.1884506, 55.3915359 ], [ 86.1887057, 55.3914557 ], [ 86.188777299999984, 55.3913186 ], [ 86.1885918, 55.3910763 ], [ 86.1885595, 55.390742 ], [ 86.188629099999986, 55.3906601 ], [ 86.1888741, 55.39063380000001 ], [ 86.1889994, 55.390597299999989 ], [ 86.189034299999989, 55.3905318 ], [ 86.188844, 55.3904412 ], [ 86.1887231, 55.390349 ], [ 86.1886515, 55.3902372 ], [ 86.1884642, 55.3897704 ], [ 86.1883614, 55.3896443 ], [ 86.1884764, 55.3895111 ], [ 86.1884817, 55.3894288 ], [ 86.188428099999982, 55.3893283 ], [ 86.1884925, 55.3892826 ], [ 86.1887231, 55.3893283 ], [ 86.1887661, 55.3893024 ], [ 86.1887925, 55.389209 ], [ 86.1886588, 55.38915 ], [ 86.1885756, 55.3890662 ], [ 86.1886147, 55.3890234 ], [ 86.188688299999981, 55.3890342 ], [ 86.188741899999982, 55.389022 ], [ 86.188730099999987, 55.3889161 ], [ 86.188672499999981, 55.3887203 ], [ 86.1885532, 55.3886257 ], [ 86.1884269, 55.3885722 ], [ 86.188320799999985, 55.3885259 ], [ 86.188213499999989, 55.388330799999984 ], [ 86.1878005, 55.3876189 ], [ 86.1872977, 55.3865304 ], [ 86.1858272, 55.3851101 ], [ 86.185133599999986, 55.384577 ], [ 86.1846874, 55.3837697 ], [ 86.1846607, 55.3833749 ], [ 86.184438799999981, 55.3832581 ], [ 86.184083299999983, 55.3828684 ], [ 86.1836429, 55.3825888 ], [ 86.1835778, 55.382159 ], [ 86.1839142, 55.3815803 ], [ 86.1845891, 55.3808277 ], [ 86.1847581, 55.3804296 ], [ 86.1848913, 55.380115699999983 ], [ 86.1850203, 55.3799453 ], [ 86.1855937, 55.3798253 ], [ 86.1861884, 55.3794011 ], [ 86.1861796, 55.3792525 ], [ 86.1855583, 55.3790941 ], [ 86.1854457, 55.378922 ], [ 86.18533189999998, 55.3786179 ], [ 86.1877065, 55.378652700000011 ], [ 86.189229499999982, 55.3786264 ], [ 86.193498299999987, 55.3783983 ], [ 86.1979169, 55.3778894 ], [ 86.2021671, 55.3771533 ], [ 86.2036135, 55.3767445 ], [ 86.202798299999984, 55.3744894 ], [ 86.202025, 55.3723821 ], [ 86.2059672, 55.3646864 ], [ 86.2036604, 55.3626339 ], [ 86.202689399999983, 55.361746599999989 ], [ 86.202244199999981, 55.3614478 ], [ 86.201696, 55.3606532 ], [ 86.199359699999988, 55.355839799999984 ], [ 86.1990973, 55.35528080000001 ], [ 86.2005287, 55.3551234 ], [ 86.2002482, 55.3543681 ], [ 86.2000591, 55.3538522 ], [ 86.1996473, 55.3526806 ], [ 86.199557399999989, 55.3524354 ], [ 86.199474199999983, 55.3522083 ], [ 86.1993788, 55.351948 ], [ 86.1992972, 55.3517148 ], [ 86.19897, 55.3508327 ], [ 86.1989455, 55.3507659 ], [ 86.199975, 55.3507005 ], [ 86.1999502, 55.3506177 ], [ 86.2002084, 55.3505861 ], [ 86.200157399999981, 55.3504279 ], [ 86.199516399999979, 55.350475499999988 ], [ 86.1990103, 55.350326 ], [ 86.2003147, 55.349175 ], [ 86.206173299999989, 55.3422835 ], [ 86.2048903, 55.3416883 ], [ 86.2067878, 55.3397534 ], [ 86.203671, 55.3346483 ], [ 86.2034922, 55.3344942 ], [ 86.200659, 55.3299301 ], [ 86.1962912, 55.3302135 ], [ 86.1962593, 55.3302171 ], [ 86.195774699999987, 55.330272 ], [ 86.1953348, 55.3302903 ], [ 86.1944424, 55.3302786 ], [ 86.1906639, 55.3282342 ], [ 86.1898524, 55.3275545 ], [ 86.1894643, 55.3274775 ], [ 86.1885313, 55.327201899999984 ], [ 86.187983, 55.3269815 ], [ 86.187408199999979, 55.3269969 ], [ 86.187063199999983, 55.3268168 ], [ 86.186738799999986, 55.3266671 ], [ 86.186411099999987, 55.3263994 ], [ 86.1858023, 55.3261721 ], [ 86.185389199999989, 55.3259676 ], [ 86.185021599999985, 55.3258767 ], [ 86.1847084, 55.3257925 ], [ 86.1842681, 55.3262665 ], [ 86.1778814, 55.3243541 ], [ 86.1792591, 55.3228515 ], [ 86.1793738, 55.322886 ], [ 86.1800364, 55.3230715 ], [ 86.180419199999989, 55.3226287 ], [ 86.1804393, 55.3226054 ], [ 86.1799037, 55.3224556 ], [ 86.1796754, 55.3223931 ], [ 86.1811194, 55.3208427 ], [ 86.1811856, 55.3207716 ], [ 86.1731899, 55.318388400000011 ], [ 86.177888, 55.3131313 ], [ 86.1783915, 55.3125561 ], [ 86.178511799999981, 55.3124187 ], [ 86.1743201, 55.3116019 ], [ 86.169700899999981, 55.310655 ], [ 86.1680835, 55.3104779 ], [ 86.1666688, 55.3103091 ], [ 86.168246499999981, 55.308546 ], [ 86.1684062, 55.3083426 ], [ 86.1687649, 55.307323299999986 ], [ 86.16872189999998, 55.3073286 ], [ 86.168484899999982, 55.30731320000001 ], [ 86.168532699999986, 55.3071444 ], [ 86.1687293, 55.3071564 ], [ 86.168829599999981, 55.30714660000001 ], [ 86.169078399999989, 55.3064496 ], [ 86.1690921, 55.3061561 ], [ 86.169178499999987, 55.3056303 ], [ 86.1690418, 55.305220599999984 ], [ 86.168983399999988, 55.3049721 ], [ 86.168831699999984, 55.3050876 ], [ 86.1688134, 55.3050148 ], [ 86.1689345, 55.3048935 ], [ 86.1688997, 55.30475 ], [ 86.1687391, 55.304698 ], [ 86.1687261, 55.3046428 ], [ 86.168922699999982, 55.3047044 ], [ 86.168903499999985, 55.3045735 ], [ 86.1685698, 55.3035953 ], [ 86.1684945, 55.303600899999985 ], [ 86.1681166, 55.3028398 ], [ 86.1673504, 55.3016306 ], [ 86.1668113, 55.3012658 ], [ 86.166918, 55.3012164 ], [ 86.166474799999989, 55.3009096 ], [ 86.165923, 55.3004481 ], [ 86.1649721, 55.29980590000001 ], [ 86.163456200000013, 55.2989941 ], [ 86.1616867, 55.2983168 ], [ 86.159154, 55.2975358 ], [ 86.1577792, 55.2971328 ], [ 86.15705, 55.2968762 ], [ 86.1546185, 55.2960204 ], [ 86.1539218, 55.2958263 ], [ 86.1534332, 55.2957922 ], [ 86.1523281, 55.2955078 ], [ 86.151142, 55.2952839 ], [ 86.149078799999984, 55.2948934 ], [ 86.146879, 55.2946445 ], [ 86.146387099999984, 55.2947804 ], [ 86.1452167, 55.2947182 ], [ 86.144168899999983, 55.2944646 ], [ 86.1425324, 55.2943588 ], [ 86.1415416, 55.2940015 ], [ 86.140408099999988, 55.2929368 ], [ 86.1394125, 55.2912596 ], [ 86.1394019, 55.2911425 ], [ 86.139892, 55.2911172 ], [ 86.1405892, 55.2911293 ], [ 86.140735899999981, 55.291108 ], [ 86.1450654, 55.2912015 ], [ 86.146208299999984, 55.2910216 ], [ 86.1479146, 55.2908376 ], [ 86.1506733, 55.2905696 ], [ 86.1508784, 55.2902163 ], [ 86.1511695, 55.2900371 ], [ 86.1516294, 55.2895096 ], [ 86.1431014, 55.286092 ], [ 86.1403808, 55.2851768 ], [ 86.1424425, 55.2831988 ], [ 86.1394579, 55.2821221 ], [ 86.139837, 55.2818091 ], [ 86.139172, 55.28152450000001 ], [ 86.138915199999985, 55.2813622 ], [ 86.138887899999986, 55.2813167 ], [ 86.1388253, 55.2812857 ], [ 86.1311692, 55.2782557 ], [ 86.130707, 55.2776372 ], [ 86.1302382, 55.2773392 ], [ 86.130208, 55.2773094 ], [ 86.1300753, 55.2772694 ], [ 86.129726599999984, 55.2771155 ], [ 86.1296783, 55.2771192 ], [ 86.1286242, 55.2766793 ], [ 86.1254901, 55.2752717 ], [ 86.1258843, 55.274963 ], [ 86.1261498, 55.2742316 ], [ 86.1254134, 55.2739194 ], [ 86.1243354, 55.2746892 ], [ 86.1204308, 55.272356 ], [ 86.1148417, 55.270145 ], [ 86.110973, 55.268481799999989 ], [ 86.1079324, 55.2676832 ], [ 86.103564399999982, 55.2658642 ], [ 86.096648, 55.2629598 ], [ 86.088386199999988, 55.2594684 ], [ 86.0809305, 55.257346 ], [ 86.079649799999984, 55.2582234 ], [ 86.0794312, 55.2584749 ], [ 86.078383799999983, 55.2593232 ], [ 86.083356, 55.261413 ], [ 86.0845061, 55.2618381 ], [ 86.085552, 55.262322 ], [ 86.0843504, 55.2633414 ], [ 86.0839963, 55.2637128 ], [ 86.0838246, 55.2639183 ], [ 86.083695799999987, 55.2640972 ], [ 86.0836449, 55.2642217 ], [ 86.083639599999984, 55.2643134 ], [ 86.0836825, 55.264428 ], [ 86.0837522, 55.2645289 ], [ 86.0838528, 55.2646572 ], [ 86.0840271, 55.2647834 ], [ 86.084162599999985, 55.2648628 ], [ 86.086061, 55.2656575 ], [ 86.0864492, 55.2658038 ], [ 86.0868267, 55.2659563 ], [ 86.0905869, 55.2675714 ], [ 86.0911015, 55.2678356 ], [ 86.091392499999984, 55.2679582 ], [ 86.091746499999985, 55.2680767 ], [ 86.0924515, 55.2683346 ], [ 86.093458899999987, 55.2687466 ], [ 86.0935436, 55.2688067 ], [ 86.093555, 55.2688476 ], [ 86.093651099999988, 55.2689151 ], [ 86.093820099999988, 55.2689662 ], [ 86.0967763, 55.27024 ], [ 86.0960518, 55.2709725 ], [ 86.098141, 55.2721547 ], [ 86.0997349, 55.2740684 ], [ 86.100039, 55.2755168 ], [ 86.099972199999982, 55.2767313 ], [ 86.0994747, 55.2782293 ], [ 86.0991862, 55.2790978 ], [ 86.100893099999979, 55.2797943 ], [ 86.100949299999982, 55.2807354 ], [ 86.103886499999987, 55.2823516 ], [ 86.102520799999979, 55.2829346 ], [ 86.100587200000021, 55.283907 ], [ 86.1052194, 55.2884855 ], [ 86.1025473, 55.2893879 ], [ 86.10454, 55.2918697 ], [ 86.0958128, 55.2945705 ], [ 86.092275299999983, 55.2904883 ], [ 86.086561099999983, 55.2937264 ], [ 86.0823445, 55.2915971 ], [ 86.0733263, 55.2964071 ], [ 86.0720258, 55.2993085 ], [ 86.0688673, 55.3023216 ], [ 86.0642074, 55.3006468 ], [ 86.0633932, 55.3014725 ], [ 86.063064, 55.301394800000011 ], [ 86.062921700000018, 55.3015674 ], [ 86.0624796, 55.3023366 ], [ 86.0623691, 55.3023181 ], [ 86.062203399999987, 55.3024968 ], [ 86.062356300000019, 55.302528899999984 ], [ 86.0621559, 55.3028423 ], [ 86.0622012, 55.3028503 ], [ 86.061845199999979, 55.3033271 ], [ 86.0616602, 55.303460200000011 ], [ 86.0610987, 55.304439 ], [ 86.0607352, 55.304714 ], [ 86.0601348, 55.3057711 ], [ 86.0601034, 55.3059876 ], [ 86.0599117, 55.3063091 ], [ 86.059524599999989, 55.3067622 ], [ 86.0592249, 55.3071374 ], [ 86.0589422, 55.3070459 ], [ 86.058930799999985, 55.307078 ], [ 86.0588208, 55.3071339 ], [ 86.0587532, 55.3071763 ], [ 86.058739599999981, 55.3072119 ], [ 86.058731199999983, 55.3072677 ], [ 86.058607699999982, 55.307286 ], [ 86.0585925, 55.3070405 ], [ 86.058282099999985, 55.3070488 ], [ 86.0575842, 55.307104 ], [ 86.0575232, 55.3071193 ], [ 86.0576316, 55.3072701 ], [ 86.0573772, 55.307390799999986 ], [ 86.0570952, 55.3072922 ], [ 86.0569328, 55.3074598 ], [ 86.0566937, 55.3076375 ], [ 86.0565202, 55.3075974 ], [ 86.0565834, 55.3073697 ], [ 86.056682599999988, 55.30712 ], [ 86.0567166, 55.3069488 ], [ 86.0554365, 55.3056438 ], [ 86.05523740000001, 55.3056362 ], [ 86.054965199999984, 55.3055683 ], [ 86.054709699999989, 55.3054769 ], [ 86.0538845, 55.3049617 ], [ 86.0535152, 55.3051246 ], [ 86.0524199, 55.3043689 ], [ 86.0515568, 55.3047476 ], [ 86.0496354, 55.3035779 ], [ 86.044329499999989, 55.2997467 ], [ 86.0512409, 55.2966622 ], [ 86.0513377, 55.2969582 ], [ 86.0520565, 55.2974774 ], [ 86.0525608, 55.2979874 ], [ 86.0530329, 55.2983661 ], [ 86.0531563, 55.29836 ], [ 86.053172299999986, 55.297737 ], [ 86.053612199999989, 55.2976026 ], [ 86.0539985, 55.297792 ], [ 86.054213, 55.298375299999989 ], [ 86.0547656, 55.2977202 ], [ 86.054915799999989, 55.2974057 ], [ 86.0556427, 55.2969445 ], [ 86.057560399999986, 55.2963016 ], [ 86.0609704, 55.2966516 ], [ 86.0617018, 55.2970743 ], [ 86.0651376, 55.2982762 ], [ 86.066512799999984, 55.2974535 ], [ 86.068521, 55.2955095 ], [ 86.0703707, 55.2937238 ], [ 86.0708964, 55.2938888 ], [ 86.0730046, 55.2918057 ], [ 86.0756092, 55.2925842 ], [ 86.0814265, 55.2895633 ], [ 86.0720724, 55.2845143 ], [ 86.071929, 55.2845918 ], [ 86.0713084, 55.284715299999988 ], [ 86.0708052, 55.28491720000001 ], [ 86.0698235, 55.2850699 ], [ 86.068241, 55.2850608 ], [ 86.0670072, 55.2854152 ], [ 86.064990199999983, 55.286075 ], [ 86.062257, 55.2874344 ], [ 86.0615703, 55.287659 ], [ 86.0610285, 55.2877124 ], [ 86.059953, 55.2876529 ], [ 86.0586011, 55.2873565 ], [ 86.057882299999989, 55.2869625 ], [ 86.0566914, 55.286319399999989 ], [ 86.05610129999998, 55.2860995 ], [ 86.0555381, 55.2860903 ], [ 86.055017699999979, 55.2862858 ], [ 86.0545564, 55.2864019 ], [ 86.0542721, 55.2863591 ], [ 86.0539234, 55.2861514 ], [ 86.053612199999989, 55.2861086 ], [ 86.0532421, 55.2859009 ], [ 86.0528827, 55.2858306 ], [ 86.0522389, 55.2859437 ], [ 86.0518581, 55.2859039 ], [ 86.0516757, 55.285803099999988 ], [ 86.0514473, 55.2854468 ], [ 86.051305499999984, 55.2852914 ], [ 86.0511312, 55.2852685 ], [ 86.0507276, 55.2853205 ], [ 86.0504284, 55.2857634 ], [ 86.0504016, 55.2859024 ], [ 86.050146799999979, 55.2861239 ], [ 86.04993589999998, 55.2861948 ], [ 86.049677499999987, 55.2862479 ], [ 86.0496004, 55.2863174 ], [ 86.049445599999984, 55.2863686 ], [ 86.0492724, 55.2863515 ], [ 86.0488674, 55.2862308 ], [ 86.0487714, 55.2862346 ], [ 86.048558299999982, 55.2864134 ], [ 86.048228899999984, 55.2866785 ], [ 86.0482529, 55.2869465 ], [ 86.0483256, 55.2870281 ], [ 86.0484467, 55.2870474 ], [ 86.0484283, 55.2871342 ], [ 86.0482266, 55.287251199999986 ], [ 86.0479618, 55.2873097 ], [ 86.0476207, 55.2872872 ], [ 86.0471059, 55.28727 ], [ 86.046696400000016, 55.2873554 ], [ 86.0463735, 55.28752260000001 ], [ 86.045142, 55.2877347 ], [ 86.0448754, 55.2877432 ], [ 86.0445926, 55.2877275 ], [ 86.0441923, 55.2875047 ], [ 86.043956, 55.2874414 ], [ 86.0435039, 55.2874185 ], [ 86.0430178, 55.2874668 ], [ 86.0417513, 55.287428399999989 ], [ 86.041338399999987, 55.2873627 ], [ 86.0411076, 55.2873596 ], [ 86.0409424, 55.2874803 ], [ 86.041219, 55.28823 ], [ 86.03796250000002, 55.2885041 ], [ 86.035912, 55.28886090000001 ], [ 86.0353947, 55.2885372 ], [ 86.0351425, 55.2884395 ], [ 86.0349601, 55.2884334 ], [ 86.0347883, 55.2884688 ], [ 86.0342467, 55.2889435 ], [ 86.0338909, 55.2891503 ], [ 86.0304648, 55.2880637 ], [ 86.0296309, 55.2876622 ], [ 86.029101199999985, 55.287857700000011 ], [ 86.0278831, 55.288603 ], [ 86.027432499999989, 55.2891702 ], [ 86.027073099999981, 55.2899873 ], [ 86.026595599999979, 55.2903357 ], [ 86.02576, 55.2907791 ], [ 86.0251053, 55.29128630000001 ], [ 86.0247946, 55.2918652 ], [ 86.0245639, 55.2921264 ], [ 86.024466499999988, 55.2921928 ], [ 86.0240237, 55.292248299999983 ], [ 86.0227113, 55.2932577 ], [ 86.0219859, 55.2942268 ], [ 86.0203933, 55.2945092 ], [ 86.01906, 55.2935641 ], [ 86.017465299999984, 55.2928113 ], [ 86.01714, 55.292378 ], [ 86.0157771, 55.2906684 ], [ 86.01462979999998, 55.290970799999982 ], [ 86.013236399999982, 55.2916673 ], [ 86.012086, 55.2920871 ], [ 86.011170800000016, 55.2927966 ], [ 86.0097418, 55.292458 ], [ 86.0082731, 55.2898835 ], [ 86.006254799999979, 55.286239 ], [ 86.0042409, 55.2825399 ], [ 86.0012867, 55.2772356 ], [ 86.001164599999981, 55.2770036 ], [ 86.0034211, 55.2761959 ], [ 86.0086784, 55.2745091 ], [ 86.0077735, 55.2698824 ], [ 86.007729700000013, 55.2690163 ], [ 86.0077929, 55.2682147 ], [ 86.007961, 55.2677504 ], [ 86.008225899999985, 55.2673163 ], [ 86.0079389, 55.2671241 ], [ 86.0058412, 55.2677301 ], [ 86.004707599999989, 55.2681005 ], [ 86.003462199999987, 55.2684523 ], [ 86.0027958, 55.2686666 ], [ 86.002637099999987, 55.2687867 ], [ 85.9879504, 55.2733378 ], [ 85.9814398, 55.27032220000001 ], [ 85.9792742, 55.2698271 ], [ 85.9772134, 55.269927 ], [ 85.9758206, 55.2705037 ], [ 85.9748129, 55.2710642 ], [ 85.973644199999981, 55.2704192 ], [ 85.9724271, 55.270064 ], [ 85.969861499999979, 55.2689691 ], [ 85.9671914, 55.2680652 ], [ 85.9656926, 55.267392 ], [ 85.9644446, 55.2667533 ], [ 85.9612205, 55.2676811 ], [ 85.958507, 55.26785 ], [ 85.956832799999987, 55.2681853 ], [ 85.955300599999987, 55.268672 ], [ 85.9538574, 55.2690447 ], [ 85.952879399999986, 55.2697482 ], [ 85.9534679, 55.2698993 ], [ 85.9520175, 55.2707398 ], [ 85.9500282, 55.2712169 ], [ 85.942775399999988, 55.2639979 ], [ 85.93845, 55.2592551 ], [ 85.9366453, 55.2565763 ], [ 85.9299073, 55.2584449 ], [ 85.932097399999989, 55.2615731 ], [ 85.933688099999983, 55.2641841 ], [ 85.9321994, 55.2642813 ], [ 85.9310698, 55.2644692 ], [ 85.930732799999987, 55.2650518 ], [ 85.9303701, 55.26529 ], [ 85.92951309999998, 55.2662375 ], [ 85.929265, 55.266858 ], [ 85.929177, 55.2674282 ], [ 85.9292968, 55.268287 ], [ 85.929360099999982, 55.269753 ], [ 85.9290271, 55.2703463 ], [ 85.9291685, 55.270993 ], [ 85.929173799999987, 55.2716043 ], [ 85.9290876, 55.2719458 ], [ 85.928926099999984, 55.2721892 ], [ 85.9292003, 55.2726329 ], [ 85.929409899999982, 55.2727839 ], [ 85.9296753, 55.2728249 ], [ 85.9302628, 55.2727533 ], [ 85.9303842, 55.2727582 ], [ 85.9313372, 55.273157 ], [ 85.931593899999982, 55.2733409 ], [ 85.9318078, 55.2736701 ], [ 85.9318451, 55.2738659 ], [ 85.931980599999989, 55.2748619 ], [ 85.9322101, 55.2749383 ], [ 85.9325422, 55.2749316 ], [ 85.933027699999982, 55.274644 ], [ 85.9333367, 55.2752346 ], [ 85.933342, 55.275445499999989 ], [ 85.933555799999979, 55.27565340000001 ], [ 85.9338953, 55.2763987 ], [ 85.9347904, 55.2762492 ], [ 85.936279, 55.2758657 ], [ 85.9374012, 55.2756442 ], [ 85.9379632, 55.2756015 ], [ 85.939973199999983, 55.2751547 ], [ 85.9406372, 55.274988 ], [ 85.941050599999983, 55.2753954 ], [ 85.9400153, 55.2756503 ], [ 85.939988499999984, 55.2758855 ], [ 85.9390638, 55.2762945 ], [ 85.9402833, 55.2777275 ], [ 85.942464, 55.2772106 ], [ 85.9465101, 55.282552 ], [ 85.949626199999983, 55.281267599999985 ], [ 85.9511468, 55.2835893 ], [ 85.9515059, 55.2858062 ], [ 85.951699, 55.2865058 ], [ 85.951952399999982, 55.2870104 ], [ 85.953598, 55.2880301 ], [ 85.9545353, 55.2881908 ], [ 85.9542042, 55.288583 ], [ 85.953522899999982, 55.2891634 ], [ 85.952916699999989, 55.2895514 ], [ 85.952513499999981, 55.2900574 ], [ 85.9522998, 55.290257 ], [ 85.9521211, 55.2913891 ], [ 85.95104689999998, 55.2925543 ], [ 85.9503815, 55.2920587 ], [ 85.9481307, 55.2914538 ], [ 85.9466357, 55.2913562 ], [ 85.9434037, 55.2905899 ], [ 85.940181399999986, 55.2880242 ], [ 85.937131599999987, 55.2875043 ], [ 85.936531099999982, 55.2867177 ], [ 85.931576799999988, 55.2856918 ], [ 85.9298353, 55.285897 ], [ 85.92893, 55.285690399999986 ], [ 85.928731899999988, 55.2848286 ], [ 85.9295369, 55.2841061 ], [ 85.9306254, 55.2843063 ], [ 85.930555899999987, 55.2834688 ], [ 85.9295108, 55.2828574 ], [ 85.9276795, 55.28266880000001 ], [ 85.9267779, 55.2826578 ], [ 85.925879099999989, 55.2826859 ], [ 85.924585599999986, 55.282883099999985 ], [ 85.9232581, 55.2829848 ], [ 85.922313299999985, 55.2831361 ], [ 85.921706499999985, 55.2832781 ], [ 85.9207953, 55.2835422 ], [ 85.922268799999983, 55.285726 ], [ 85.9250308, 55.2884093 ], [ 85.9273978, 55.2879262 ], [ 85.9288401, 55.2870598 ], [ 85.9305302, 55.2887036 ], [ 85.9318835, 55.2884142 ], [ 85.9418412, 55.2918404 ], [ 85.9452942, 55.291798799999988 ], [ 85.9458438, 55.2919859 ], [ 85.9462402, 55.2920831 ], [ 85.946973, 55.2922272 ], [ 85.947552300000012, 55.292415 ], [ 85.9481505, 55.2925112 ], [ 85.948259299999989, 55.2925529 ], [ 85.9491121, 55.2928257 ], [ 85.9502912, 55.293373 ], [ 85.954247200000012, 55.2952089 ], [ 85.9549525, 55.2949791 ], [ 85.9552234, 55.2949791 ], [ 85.9582842, 55.2972807 ], [ 85.9599723, 55.2985743 ], [ 85.9601451, 55.2987347 ], [ 85.9603606, 55.2989685 ], [ 85.9609254, 55.2996599 ], [ 85.962158599999981, 55.3008752 ], [ 85.9623772, 55.3015576 ], [ 85.962238699999986, 55.3017008 ], [ 85.9616178, 55.3020857 ], [ 85.960388599999987, 55.3028452 ], [ 85.959449399999983, 55.302903299999983 ], [ 85.9564456, 55.3021652 ], [ 85.955292, 55.3018619 ], [ 85.9523941, 55.3005077 ], [ 85.9488074, 55.2987719 ], [ 85.9491839, 55.2983232 ], [ 85.949129499999984, 55.2982165 ], [ 85.947421, 55.2973708 ], [ 85.9443164, 55.2975843 ], [ 85.9432018, 55.29769120000001 ], [ 85.9417802, 55.2979355 ], [ 85.941573199999979, 55.2977921 ], [ 85.9402567, 55.2980088 ], [ 85.938198799999981, 55.29836920000001 ], [ 85.935011, 55.2988845 ], [ 85.9298937, 55.2998119 ], [ 85.923311, 55.303297 ], [ 85.924658899999983, 55.3044102 ], [ 85.9300989, 55.308722 ], [ 85.928749199999984, 55.3090747 ], [ 85.929413899999986, 55.3116148 ], [ 85.9292593, 55.3118056 ], [ 85.928922, 55.3116928 ], [ 85.9286331, 55.311663699999983 ], [ 85.92848189999998, 55.3117598 ], [ 85.928323, 55.3122501 ], [ 85.9281099, 55.3122894 ], [ 85.9279132, 55.3123096 ], [ 85.9277018, 55.3122021 ], [ 85.927398499999981, 55.3120227 ], [ 85.927027, 55.3120173 ], [ 85.926558899999989, 55.3118984 ], [ 85.9263747, 55.3115473 ], [ 85.9261313, 55.3114547 ], [ 85.925914, 55.3114674 ], [ 85.925696499999987, 55.3115519 ], [ 85.925580499999981, 55.3116675 ], [ 85.925913499999979, 55.3120439 ], [ 85.925852, 55.3122075 ], [ 85.925847599999983, 55.3123878 ], [ 85.925689899999981, 55.3124317 ], [ 85.9254839, 55.3123781 ], [ 85.9253721, 55.3122445 ], [ 85.9252055, 55.312158 ], [ 85.925089, 55.3122093 ], [ 85.924888899999985, 55.3123759 ], [ 85.924609499999988, 55.3124246 ], [ 85.924245199999987, 55.3123389 ], [ 85.923845699999987, 55.3123151 ], [ 85.9235343, 55.3124134 ], [ 85.9234346, 55.3126685 ], [ 85.9233137, 55.3127507 ], [ 85.9230084, 55.3127324 ], [ 85.9227633, 55.3126491 ], [ 85.92258649999998, 55.3124999 ], [ 85.922212, 55.312312 ], [ 85.921914799999982, 55.3120206 ], [ 85.9216949, 55.3120257 ], [ 85.9215543, 55.3120813 ], [ 85.921405799999988, 55.3123359 ], [ 85.921142599999982, 55.3126333 ], [ 85.9208306, 55.3127013 ], [ 85.9206522, 55.3126352 ], [ 85.9204008, 55.3124387 ], [ 85.9201089, 55.3122015 ], [ 85.919527599999981, 55.3121272 ], [ 85.919247, 55.312190599999987 ], [ 85.919036599999984, 55.3122937 ], [ 85.9189257, 55.3124738 ], [ 85.9188416, 55.3128504 ], [ 85.9188948, 55.3132244 ], [ 85.9186991, 55.3134156 ], [ 85.9183818, 55.3135558 ], [ 85.9182247, 55.3134792 ], [ 85.918236, 55.3133611 ], [ 85.918171499999985, 55.3132361 ], [ 85.9176401, 55.3129621 ], [ 85.9174714, 55.313011 ], [ 85.9170969, 55.3132183 ], [ 85.916843, 55.3132069 ], [ 85.916613900000016, 55.3131056 ], [ 85.916492199999979, 55.3128473 ], [ 85.916519199999982, 55.312763 ], [ 85.9166183, 55.3126806 ], [ 85.9166843, 55.3123442 ], [ 85.916613, 55.3121479 ], [ 85.916398500000014, 55.3120731 ], [ 85.91624, 55.3120508 ], [ 85.9160882, 55.3121337 ], [ 85.915968100000015, 55.3122968 ], [ 85.915718, 55.3125675 ], [ 85.9153684, 55.3126515 ], [ 85.9150425, 55.312879699999989 ], [ 85.915084199999981, 55.3129325 ], [ 85.915239699999987, 55.3129462 ], [ 85.9153222, 55.3130354 ], [ 85.9152639, 55.3132622 ], [ 85.915163299999989, 55.3135139 ], [ 85.914966199999981, 55.3137325 ], [ 85.914781099999985, 55.3137751 ], [ 85.91460069999998, 55.3137529 ], [ 85.914451799999981, 55.3136689 ], [ 85.914387, 55.3134121 ], [ 85.9140408, 55.3131462 ], [ 85.9138165, 55.3130358 ], [ 85.9136316, 55.3130542 ], [ 85.9131741, 55.3132482 ], [ 85.9128452, 55.3134324 ], [ 85.912624099999988, 55.3134383 ], [ 85.912528399999985, 55.3133984 ], [ 85.912338299999988, 55.3133291 ], [ 85.912152500000019, 55.313337 ], [ 85.9120124, 55.3134143 ], [ 85.9119558, 55.3135754 ], [ 85.9120549, 55.3139184 ], [ 85.9120122, 55.3140452 ], [ 85.911882599999984, 55.3140946 ], [ 85.911544099999986, 55.3140748 ], [ 85.9111484, 55.3140554 ], [ 85.910222299999987, 55.3144357 ], [ 85.910139299999983, 55.3147216 ], [ 85.9101442, 55.3152535 ], [ 85.9101355, 55.3154022 ], [ 85.91018649999998, 55.3155472 ], [ 85.910288399999985, 55.3157654 ], [ 85.9103013, 55.3158723 ], [ 85.9102026, 55.3160798 ], [ 85.9101405, 55.3161969 ], [ 85.910157, 55.316263 ], [ 85.9102187, 55.3163134 ], [ 85.910442499999988, 55.3164372 ], [ 85.9106371, 55.3165194 ], [ 85.9107708, 55.3165972 ], [ 85.910971, 55.3168633 ], [ 85.9111703, 55.3171925 ], [ 85.9111628, 55.317264199999983 ], [ 85.91112339999998, 55.3173258 ], [ 85.9110475, 55.3173802 ], [ 85.9109005, 55.3174191 ], [ 85.910532499999988, 55.3174749 ], [ 85.910379599999985, 55.317542 ], [ 85.9103367, 55.3176244 ], [ 85.9101886, 55.3177153 ], [ 85.909958499999988, 55.3177832 ], [ 85.9097451, 55.3178606 ], [ 85.9095861, 55.3179694 ], [ 85.909499, 55.318075 ], [ 85.90951459999998, 55.3181998 ], [ 85.909587, 55.3182761 ], [ 85.909914599999979, 55.3183593 ], [ 85.9101959, 55.3184234 ], [ 85.9104129, 55.3184506 ], [ 85.910555299999984, 55.3184394 ], [ 85.9106398, 55.3183937 ], [ 85.9108517, 55.3182807 ], [ 85.9109613, 55.3182637 ], [ 85.911092, 55.3182817 ], [ 85.9112901, 55.3183736 ], [ 85.911593, 55.318446 ], [ 85.911805700000016, 55.3184374 ], [ 85.9119441, 55.3183193 ], [ 85.9120504, 55.3182428 ], [ 85.9122318, 55.3182459 ], [ 85.91246, 55.3183046 ], [ 85.9127982, 55.3184149 ], [ 85.9130546, 55.3185262 ], [ 85.913113199999984, 55.3186696 ], [ 85.913079399999987, 55.3188184 ], [ 85.9129502, 55.3189262 ], [ 85.912717799999982, 55.318979 ], [ 85.9124577, 55.318993 ], [ 85.911901599999979, 55.319159099999986 ], [ 85.9116035, 55.3192745 ], [ 85.9114411, 55.3193769 ], [ 85.9113894, 55.3194821 ], [ 85.911412499999983, 55.3197213 ], [ 85.911356899999987, 55.3200557 ], [ 85.911302699999979, 55.3201862 ], [ 85.9112347, 55.3202831 ], [ 85.911098899999985, 55.3203459 ], [ 85.9108653, 55.3203215 ], [ 85.910724700000017, 55.3204017 ], [ 85.9104453, 55.3206369 ], [ 85.910246199999989, 55.3210748 ], [ 85.910259199999985, 55.3211563 ], [ 85.9103239, 55.3212055 ], [ 85.9106002, 55.3212646 ], [ 85.910877, 55.3212582 ], [ 85.91127539999998, 55.3212032 ], [ 85.9115401, 55.321228499999989 ], [ 85.911805199999989, 55.3213118 ], [ 85.9121881, 55.3214772 ], [ 85.9126805, 55.321694 ], [ 85.9128767, 55.3218168 ], [ 85.91303259999998, 55.3219765 ], [ 85.9130438, 55.3221098 ], [ 85.9129795, 55.3222709 ], [ 85.9128083, 55.3224733 ], [ 85.9126863, 55.3225402 ], [ 85.9125387, 55.3225771 ], [ 85.912402, 55.322586 ], [ 85.9121946, 55.3226108 ], [ 85.911973, 55.3226681 ], [ 85.9118199, 55.3226592 ], [ 85.911686799999984, 55.3226217 ], [ 85.9115557, 55.3226172 ], [ 85.9114277, 55.3226363 ], [ 85.9113117, 55.3226798 ], [ 85.9112288, 55.3227102 ], [ 85.9111494, 55.3227531 ], [ 85.911102199999988, 55.3228058 ], [ 85.9111011, 55.3228835 ], [ 85.9111311, 55.3229586 ], [ 85.9111534, 55.323069 ], [ 85.9112175, 55.3231688 ], [ 85.9113371, 55.3236641 ], [ 85.9115371, 55.3239295 ], [ 85.9138274, 55.3284146 ], [ 85.916404699999987, 55.3299315 ], [ 85.9182991, 55.3315979 ], [ 85.9213631, 55.333384100000011 ], [ 85.924434199999979, 55.3347678 ], [ 85.929605599999988, 55.3360623 ], [ 85.9321049, 55.3366727 ], [ 85.9330562, 55.3362542 ], [ 85.9337952, 55.3357394 ], [ 85.934372599999989, 55.33518 ], [ 85.934786200000019, 55.3345273 ], [ 85.935261699999984, 55.332797 ], [ 85.9357265, 55.3317641 ], [ 85.9358638, 55.331586 ], [ 85.9372694, 55.3318849 ], [ 85.937855199999987, 55.3311542 ], [ 85.9386899, 55.3303849 ], [ 85.940221799999989, 55.32928780000001 ], [ 85.9417051, 55.3282509 ], [ 85.943081899999981, 55.3276878 ], [ 85.9443416, 55.327117 ], [ 85.9457335, 55.3266882 ], [ 85.9486401, 55.3259406 ], [ 85.9513669, 55.3249499 ], [ 85.952271699999983, 55.3245641 ], [ 85.9524521, 55.324652 ], [ 85.952738, 55.32479 ], [ 85.952801799999989, 55.3248208 ], [ 85.9527072, 55.3248469 ], [ 85.952479299999979, 55.3249801 ], [ 85.9522359, 55.3251645 ], [ 85.9519733, 55.3254708 ], [ 85.9516561, 55.3259454 ], [ 85.9515051, 55.3262134 ], [ 85.95125179999998, 55.3267314 ], [ 85.9510508, 55.3274013 ], [ 85.950999, 55.3277368 ], [ 85.9509731, 55.3280962 ], [ 85.9509904, 55.3284711 ], [ 85.951035499999989, 55.3287456 ], [ 85.951081099999982, 55.3289677 ], [ 85.9513384, 55.3289492 ], [ 85.951503, 55.3296754 ], [ 85.95146680000002, 55.3296869 ], [ 85.9510029, 55.330011 ], [ 85.951236, 55.331719 ], [ 85.946888099999981, 55.332034499999985 ], [ 85.9479447, 55.3379596 ], [ 85.9484136, 55.3382505 ], [ 85.9501077, 55.3389909 ], [ 85.950996499999988, 55.3395674 ], [ 85.951037499999984, 55.339611899999987 ], [ 85.951182399999979, 55.3396455 ], [ 85.9512338, 55.3396715 ], [ 85.9542914, 55.3411527 ], [ 85.954634399999989, 55.3417959 ], [ 85.9547947, 55.3421632 ], [ 85.952361700000012, 55.342918 ], [ 85.9532668, 55.3437813 ], [ 85.9563002, 55.343309 ], [ 85.955951699999986, 55.343071 ], [ 85.957151899999985, 55.3427339 ], [ 85.957336, 55.3426955 ], [ 85.957562, 55.342902 ], [ 85.958924499999981, 55.3447089 ], [ 85.959742, 55.3454274 ], [ 85.9601262, 55.3459691 ], [ 85.9599294, 55.3460298 ], [ 85.9599978, 55.3463312 ], [ 85.960084399999985, 55.3464271 ], [ 85.960227099999983, 55.3463876 ], [ 85.9604762, 55.346302 ], [ 85.961643399999986, 55.347400299999983 ], [ 85.962151599999984, 55.348111 ], [ 85.962378499999986, 55.3485705 ], [ 85.963268499999984, 55.349547 ], [ 85.9634525, 55.3499097 ], [ 85.963647, 55.3507419 ], [ 85.9650101, 55.3530948 ], [ 85.965198, 55.3545445 ], [ 85.9639326, 55.3563152 ], [ 85.96127989999998, 55.359475 ], [ 85.9585117, 55.3625268 ], [ 85.9578627, 55.3634586 ], [ 85.958591499999983, 55.3636775 ], [ 85.9565944, 55.365355 ], [ 85.9521706, 55.3689963 ], [ 85.9524479, 55.3690821 ], [ 85.952663500000014, 55.3691698 ], [ 85.9529476, 55.3686913 ], [ 85.953102799999982, 55.3687373 ], [ 85.953386199999983, 55.3684794 ], [ 85.9551862, 55.3691316 ], [ 85.960850900000011, 55.3649615 ], [ 85.9608573, 55.3649683 ], [ 85.9608634, 55.3649713 ], [ 85.9608219, 55.365015 ], [ 85.961181499999981, 55.365187400000011 ], [ 85.9611384, 55.365236 ], [ 85.9611332, 55.3653432 ], [ 85.9618437, 55.3660655 ], [ 85.9623976, 55.3666155 ], [ 85.963274, 55.3676218 ], [ 85.963325699999984, 55.3676589 ], [ 85.968470499999981, 55.3728796 ], [ 85.970722599999988, 55.375008 ], [ 85.9732092, 55.3773283 ], [ 85.981969, 55.375266 ], [ 85.979794899999987, 55.3814448 ], [ 85.9780946, 55.3812814 ], [ 85.975163, 55.3821337 ], [ 85.973124199999987, 55.3831146 ], [ 85.9692518, 55.3856598 ], [ 85.9689617, 55.3856245 ], [ 85.968537899999987, 55.3858744 ], [ 85.9683403, 55.3860957 ], [ 85.9658785, 55.3869585 ], [ 85.959248799999983, 55.3891109 ], [ 85.958338699999985, 55.3894836 ], [ 85.954905599999989, 55.3904603 ], [ 85.951871899999986, 55.3915418 ], [ 85.952228099999985, 55.3939355 ], [ 85.950521099999989, 55.3937209 ], [ 85.95057989999998, 55.3934506 ], [ 85.9489702, 55.3930712 ], [ 85.9486628, 55.392765099999984 ], [ 85.9461522, 55.3922197 ], [ 85.9431037, 55.3916611 ], [ 85.943067699999986, 55.3912509 ], [ 85.941554899999986, 55.3904191 ], [ 85.941751, 55.3899914 ], [ 85.9375077, 55.3882752 ], [ 85.9362844, 55.390344 ], [ 85.934134699999987, 55.3903161 ], [ 85.9332444, 55.3913833 ], [ 85.9330282, 55.3914763 ], [ 85.9309393, 55.3914642 ], [ 85.929005799999985, 55.3901393 ], [ 85.927939499999979, 55.3931675 ], [ 85.9278999, 55.3934748 ], [ 85.9280942, 55.39371160000001 ], [ 85.9280603, 55.39396820000001 ], [ 85.9276085, 55.3947059 ], [ 85.9276311, 55.3948406 ], [ 85.927861299999989, 55.3951723 ], [ 85.9285234, 55.3955563 ], [ 85.928913699999981, 55.3953441 ], [ 85.9289807, 55.3954461 ], [ 85.9288117, 55.395961 ], [ 85.929523599999982, 55.396543800000011 ], [ 85.929709399999979, 55.3969446 ], [ 85.929483499999989, 55.3974641 ], [ 85.9286019, 55.3985617 ], [ 85.9293407, 55.3999493 ], [ 85.9292237, 55.4014215 ], [ 85.9286364, 55.403384 ], [ 85.928682699999982, 55.4036936 ], [ 85.9289187, 55.404018899999983 ], [ 85.928514, 55.404277 ], [ 85.9291407, 55.4080793 ], [ 85.9297156, 55.4109407 ], [ 85.9307241, 55.4120309 ], [ 85.930853899999988, 55.4124066 ], [ 85.9391142, 55.4159911 ], [ 85.9422489, 55.41657270000001 ], [ 85.9402637, 55.4190225 ], [ 85.9354126, 55.4223041 ], [ 85.933828299999988, 55.4230855 ], [ 85.9313887, 55.4242714 ], [ 85.926392299999989, 55.4267 ], [ 85.9209547, 55.4299639 ], [ 85.9197316, 55.4306778 ], [ 85.9222265, 55.4319313 ], [ 85.928336099999981, 55.4349672 ], [ 85.93076640000001, 55.4350353 ], [ 85.9311974, 55.4348101 ], [ 85.9327525, 55.4345833 ], [ 85.934864299999987, 55.4344957 ], [ 85.934958, 55.4344414 ], [ 85.9349654, 55.434281 ], [ 85.9428733, 55.429406299999982 ], [ 85.9481639, 55.4299417 ], [ 85.9484273, 55.4304523 ], [ 85.953334499999983, 55.4311299 ], [ 85.953601599999985, 55.4312653 ], [ 85.954799599999987, 55.4325199 ], [ 85.9554863, 55.4348756 ], [ 85.9559262, 55.4366712 ], [ 85.95613, 55.4369116 ], [ 85.9563982, 55.436799 ], [ 85.9565592, 55.43692080000001 ], [ 85.9562588, 55.4370638 ], [ 85.956463, 55.4375626 ], [ 85.956925, 55.43788 ], [ 85.957894899999985, 55.4384606 ], [ 85.959557899999979, 55.4392975 ], [ 85.962057699999988, 55.4404782 ], [ 85.9639547, 55.441733199999987 ], [ 85.9649102, 55.442076199999988 ], [ 85.9659228, 55.4422523 ], [ 85.9671478, 55.4425664 ], [ 85.96734619999998, 55.442684 ], [ 85.9740266, 55.4381235 ], [ 85.9686386, 55.4356891 ], [ 85.9678781, 55.4362592 ], [ 85.9624956, 55.43378460000001 ], [ 85.968195399999985, 55.430428199999987 ], [ 85.9869857, 55.4355721 ], [ 85.987790599999983, 55.4357924 ], [ 85.9882758, 55.4358811 ], [ 85.991792799999985, 55.4364368 ], [ 85.994090199999988, 55.4367503 ], [ 85.998007299999983, 55.437189 ], [ 85.9988043, 55.4373864 ], [ 86.006168799999983, 55.4399972 ], [ 86.0065313, 55.4400874 ], [ 86.0068817, 55.4401294 ], [ 86.0078014, 55.4401861 ], [ 86.0085078, 55.4400686 ], [ 86.0090162, 55.4401214 ], [ 86.011789, 55.4408217 ], [ 86.01225789999998, 55.4409058 ], [ 86.0126737, 55.4409529 ], [ 86.0133496, 55.4410047 ], [ 86.0163108, 55.4414786 ], [ 86.0189635, 55.4420058 ], [ 86.0224699, 55.4425851 ], [ 86.0235714, 55.442663 ], [ 86.0256227, 55.4430149 ], [ 86.0278678, 55.443336 ], [ 86.028347899999986, 55.4434047 ], [ 86.029932499999987, 55.4417476 ], [ 86.031918299999987, 55.43961130000001 ], [ 86.033099, 55.4384376 ], [ 86.0331631, 55.4381928 ], [ 86.0325187, 55.4378982 ], [ 86.0312319, 55.437765 ], [ 86.0284638, 55.4373286 ], [ 86.0251298, 55.4366464 ], [ 86.0209386, 55.4356959 ], [ 86.0194811, 55.4353117 ], [ 86.0188305, 55.4350783 ], [ 86.017167699999987, 55.4341833 ], [ 86.0127411, 55.4321587 ], [ 86.0115688, 55.4315176 ], [ 86.010708, 55.430794899999988 ], [ 86.010745799999981, 55.4305978 ], [ 86.011669, 55.4295877 ], [ 86.0143395, 55.4305243 ], [ 86.01606, 55.4310793 ], [ 86.01684539999998, 55.4312759 ], [ 86.0183009, 55.4314927 ], [ 86.01966, 55.4315841 ], [ 86.0205545, 55.4315959 ], [ 86.024251, 55.4311012 ], [ 86.0250103, 55.4310451 ], [ 86.026662499999986, 55.4310632 ], [ 86.027337299999985, 55.4310924 ], [ 86.0318896, 55.4315992 ], [ 86.0342068, 55.4319171 ], [ 86.0351008, 55.4320973 ], [ 86.0376503, 55.4328692 ], [ 86.038292699999985, 55.4329802 ], [ 86.039400499999985, 55.4331716 ], [ 86.0399985, 55.4333225 ], [ 86.0467344, 55.4350256 ], [ 86.049753, 55.4304281 ], [ 86.051919700000013, 55.4303391 ], [ 86.0519251, 55.4303938 ], [ 86.0534088, 55.4303539 ], [ 86.0533941, 55.4289247 ], [ 86.055414699999986, 55.428725 ], [ 86.0537706, 55.4253066 ], [ 86.0538762, 55.4251492 ], [ 86.053897299999988, 55.4246648 ], [ 86.0561331, 55.4216649 ], [ 86.05976, 55.4211021 ], [ 86.0611208, 55.4209767 ], [ 86.0626995, 55.4214212 ], [ 86.0640293, 55.4219642 ], [ 86.066344700000016, 55.4221629 ], [ 86.0681176, 55.4228886 ], [ 86.0709178, 55.4238567 ], [ 86.07247959999998, 55.4240933 ], [ 86.07335329999998, 55.4242403 ], [ 86.074104299999988, 55.424054599999984 ], [ 86.074888799999982, 55.4241448 ], [ 86.075547299999982, 55.4240668 ], [ 86.076512699999981, 55.4241082 ], [ 86.0767704, 55.4241855 ], [ 86.0773873, 55.4241886 ], [ 86.078197299999985, 55.4243408 ], [ 86.080875799999987, 55.4244947 ], [ 86.0835727, 55.4271751 ], [ 86.0838236, 55.4274244 ], [ 86.084779, 55.4278545 ], [ 86.0873857, 55.4280976 ], [ 86.0921038, 55.4289712 ], [ 86.096098899999987, 55.430148 ], [ 86.0955734, 55.4307589 ], [ 86.094178, 55.4324164 ], [ 86.0936259, 55.4336335 ], [ 86.0934377, 55.4347691 ], [ 86.0933443, 55.4360214 ], [ 86.0923618, 55.4359479 ], [ 86.0877875, 55.4357204 ], [ 86.087903, 55.433672799999989 ], [ 86.086195599999982, 55.4333907 ], [ 86.0859743, 55.4337046 ], [ 86.0848307, 55.4334672 ], [ 86.085157, 55.4324141 ], [ 86.0838501, 55.4320976 ], [ 86.083431599999983, 55.4320181 ], [ 86.083996699999986, 55.431208 ], [ 86.0828644, 55.4308367 ], [ 86.0814374, 55.4303239 ], [ 86.08118, 55.430368 ], [ 86.080020499999989, 55.4307346 ], [ 86.080014299999988, 55.4307529 ], [ 86.078994199999983, 55.433779 ], [ 86.077532, 55.4337711 ], [ 86.0774678, 55.4339245 ], [ 86.076644799999983, 55.434531 ], [ 86.072232899999989, 55.4362279 ], [ 86.0691594, 55.4378534 ], [ 86.0685348, 55.4380154 ], [ 86.062497, 55.4395114 ], [ 86.0608509, 55.4399193 ], [ 86.059460799999982, 55.4402612 ], [ 86.058622899999989, 55.4403712 ], [ 86.0522625, 55.44084740000001 ], [ 86.0498586, 55.4408641 ], [ 86.0426498, 55.444992 ], [ 86.0432011, 55.4451902 ], [ 86.048049899999981, 55.4490694 ], [ 86.0499923, 55.4488775 ], [ 86.0493811, 55.44806 ], [ 86.053026099999983, 55.4471693 ], [ 86.05364179999998, 55.4479878 ], [ 86.050137799999987, 55.4488489 ], [ 86.053074099999989, 55.4516739 ], [ 86.054487699999981, 55.4546207 ], [ 86.0588062, 55.4530753 ], [ 86.0617328, 55.4516488 ], [ 86.0622182, 55.4512124 ], [ 86.062438, 55.451305 ], [ 86.06212309999998, 55.4517698 ], [ 86.0644685, 55.4532586 ], [ 86.0677224, 55.4556151 ], [ 86.0685401, 55.4559302 ], [ 86.0684451, 55.4560172 ], [ 86.0675248, 55.456714 ], [ 86.0678279, 55.4569984 ], [ 86.0680667, 55.4573041 ], [ 86.068177, 55.4575614 ], [ 86.0680871, 55.4577727 ], [ 86.0678676, 55.4580499 ], [ 86.067608, 55.458393 ], [ 86.0674873, 55.4586379 ], [ 86.0675616, 55.4589454 ], [ 86.0679245, 55.4592508 ], [ 86.0683259, 55.4597249 ], [ 86.0687345, 55.4598789 ], [ 86.0693997, 55.4599397 ], [ 86.070142899999979, 55.459959 ], [ 86.0709248, 55.4600764 ], [ 86.0723747, 55.4605623 ], [ 86.073414199999988, 55.4611089 ], [ 86.0745281, 55.4619045 ], [ 86.0754432, 55.4626317 ], [ 86.078882, 55.460595 ], [ 86.078527899999983, 55.460334599999989 ], [ 86.0796841, 55.459654 ], [ 86.080029499999981, 55.4599603 ], [ 86.0833407, 55.4589608 ], [ 86.084803599999987, 55.4587968 ], [ 86.0865869, 55.4613161 ], [ 86.087323799999979, 55.4611439 ], [ 86.087810599999983, 55.460849 ], [ 86.088822899999982, 55.460849 ], [ 86.089857399999985, 55.4605636 ], [ 86.090488799999989, 55.4604212 ], [ 86.0907875, 55.46047380000001 ], [ 86.0911235, 55.4606414 ], [ 86.0916554, 55.461346299999988 ], [ 86.0932817, 55.460754899999984 ], [ 86.098361499999982, 55.4593509 ], [ 86.1019044, 55.458458 ], [ 86.1001358, 55.4566397 ], [ 86.0998248, 55.4555979 ], [ 86.100884199999982, 55.4553546 ], [ 86.1047321, 55.4544709 ], [ 86.1057423, 55.4542389 ], [ 86.106035, 55.452715 ], [ 86.1065149, 55.450013 ], [ 86.1079021, 55.4503678 ], [ 86.112269900000015, 55.4514882 ], [ 86.1151698, 55.4503211 ], [ 86.116825599999984, 55.4507804 ], [ 86.1195588, 55.4492542 ], [ 86.122024599999989, 55.4479177 ], [ 86.1242533, 55.4468406 ], [ 86.126273199999986, 55.4462983 ], [ 86.1279221, 55.4453476 ], [ 86.133585, 55.4416589 ], [ 86.135414399999988, 55.4405532 ], [ 86.1376941, 55.4394223 ], [ 86.1376673, 55.441878 ], [ 86.1373239, 55.4431378 ], [ 86.136203, 55.4447903 ], [ 86.137332099999981, 55.4454984 ], [ 86.1376331, 55.4456872 ], [ 86.1381018, 55.447192099999988 ], [ 86.138514499999985, 55.4484035 ], [ 86.138614799999985, 55.4486257 ], [ 86.1392522, 55.4492688 ], [ 86.145532299999985, 55.4547563 ], [ 86.1455798, 55.4549589 ], [ 86.1456683, 55.4550182 ], [ 86.1459018, 55.4550739 ], [ 86.1467573, 55.455791599999984 ], [ 86.147383499999989, 55.456555199999983 ], [ 86.14749759999998, 55.4568509 ], [ 86.147537500000013, 55.4573065 ], [ 86.1474413, 55.4576524 ], [ 86.1473863, 55.4577968 ], [ 86.1472106, 55.4580721 ], [ 86.146926300000018, 55.458425 ], [ 86.1464649, 55.4588082 ], [ 86.14600489999998, 55.4591352 ], [ 86.1456053, 55.4592819 ], [ 86.146333699999985, 55.4593069 ], [ 86.147020499999982, 55.4591676 ], [ 86.1578724, 55.4565682 ], [ 86.161828, 55.4650332 ], [ 86.1568889, 55.4666631 ], [ 86.1541059, 55.4678177 ], [ 86.1529151, 55.4684803 ], [ 86.149838399999979, 55.470452499999986 ], [ 86.148551699999985, 55.4713894 ], [ 86.148269, 55.471661 ], [ 86.1452284, 55.4696847 ], [ 86.140846899999985, 55.467224 ], [ 86.1402156, 55.4667308 ], [ 86.1397967, 55.4662158 ], [ 86.1378909, 55.4634814 ], [ 86.1376658, 55.4629221 ], [ 86.137274, 55.4627082 ], [ 86.13593659999998, 55.4632051 ], [ 86.139039, 55.4693253 ], [ 86.138261, 55.4694061 ], [ 86.1389691, 55.471124499999988 ], [ 86.139721499999979, 55.4720025 ], [ 86.1406508, 55.471852 ], [ 86.1413143, 55.4731402 ], [ 86.1410141, 55.473190099999982 ], [ 86.1423259, 55.4757745 ], [ 86.1418772, 55.4758534 ], [ 86.14218409999998, 55.476283 ], [ 86.1423543, 55.4766277 ], [ 86.1419765, 55.4766947 ], [ 86.1433173, 55.4793794 ], [ 86.144746499999982, 55.4805485 ], [ 86.1458425, 55.4826757 ], [ 86.1450822, 55.4828154 ], [ 86.1458458, 55.4840374 ], [ 86.146504199999981, 55.4846672 ], [ 86.14713, 55.484387099999985 ], [ 86.1503823, 55.486486 ], [ 86.1513304, 55.4874255 ], [ 86.1519956, 55.4883981 ], [ 86.152358, 55.4894963 ], [ 86.1524117, 55.4905137 ], [ 86.1520624, 55.4937091 ], [ 86.1515264, 55.4986126 ], [ 86.15022759999998, 55.4994141 ], [ 86.1497063, 55.5010695 ], [ 86.14573, 55.4992197 ], [ 86.144547, 55.4985214 ], [ 86.137978099999984, 55.4910123 ], [ 86.137128099999984, 55.4911992 ], [ 86.1333865, 55.4917792 ], [ 86.1251823, 55.4931592 ], [ 86.1246854, 55.493358 ], [ 86.1242535, 55.4936167 ], [ 86.1220486, 55.4953453 ], [ 86.1212495, 55.4961431 ], [ 86.119774299999989, 55.4975181 ], [ 86.118119399999983, 55.498891599999986 ], [ 86.1175134, 55.4994636 ], [ 86.1172695, 55.4996938 ], [ 86.1164886, 55.5005809 ], [ 86.1154421, 55.5015477 ], [ 86.11363919999998, 55.5016679 ], [ 86.1098488, 55.5028255 ], [ 86.1087103, 55.5020883 ], [ 86.105964, 55.501587299999983 ], [ 86.101964, 55.4989132 ], [ 86.0998212, 55.4970645 ], [ 86.0980689, 55.4979377 ], [ 86.097530899999981, 55.4990065 ], [ 86.0964106, 55.4994645 ], [ 86.0953805, 55.4998531 ], [ 86.0927093, 55.5007722 ], [ 86.0915214, 55.5011115 ], [ 86.0897031, 55.5017856 ], [ 86.0875406, 55.5025137 ], [ 86.0806867, 55.5050847 ], [ 86.084062399999979, 55.5075201 ], [ 86.0869259, 55.5064973 ], [ 86.0887549, 55.5074581 ], [ 86.0885578, 55.5087011 ], [ 86.0889569, 55.5097177 ], [ 86.081722299999981, 55.5101281 ], [ 86.0815085, 55.5098517 ], [ 86.08127709999998, 55.5094544 ], [ 86.0808819, 55.5093889 ], [ 86.080616799999987, 55.5094435 ], [ 86.0805541, 55.5095882 ], [ 86.0803565, 55.5096892 ], [ 86.0799034, 55.5095145 ], [ 86.0797588, 55.5093343 ], [ 86.07986, 55.5090941 ], [ 86.0795949, 55.5087393 ], [ 86.079898499999985, 55.5084199 ], [ 86.0799034, 55.5083407 ], [ 86.0796865, 55.508267 ], [ 86.0792719, 55.50845540000001 ], [ 86.07878119999998, 55.5083678 ], [ 86.078470300000021, 55.5080631 ], [ 86.0784066, 55.50797570000001 ], [ 86.078578799999988, 55.5078269 ], [ 86.0784949, 55.5077514 ], [ 86.0777126, 55.507423 ], [ 86.0773321, 55.5071757 ], [ 86.0762568, 55.5065614 ], [ 86.0753004, 55.5061268 ], [ 86.074367199999983, 55.505642 ], [ 86.0734803, 55.5053777 ], [ 86.073289499999987, 55.5052301 ], [ 86.0724515, 55.5050429 ] ] ] ] } }
]
}
